{
"type": "FeatureCollection",
"name": "geo_34_特定施設入居者生活介護（有料老人ホーム）",
"crs": { "type": "name", "properties": { "name": "urn:ogc:def:crs:OGC:1.3:CRS84" } },
"features": [
{ "type": "Feature", "properties": { "内容": "有料老人ホーム　広島萬象園【特定施設入居者生活介護（有料老人ホーム）】広島市中区羽衣町１番２６号高齢者複合施設　広島萬象園", "url": "https://www.kaigokensaku.mhlw.go.jp/34/index.php?action_kouhyou_detail_004_kani=true&JigyosyoCd=3470205596-00&ServiceCd=331&Type=search", "url2": "http://banshoen.hiroshimakosei.or.jp" }, "geometry": { "type": "Point", "coordinates": [ 132.449001299999964, 34.3817394 ] } },
{ "type": "Feature", "properties": { "内容": "介護付有料老人ホームソレイユ南竹屋【特定施設入居者生活介護（有料老人ホーム）】広島県広島市中区南竹屋町5番8号", "url": "https://www.kaigokensaku.mhlw.go.jp/34/index.php?action_kouhyou_detail_004_kani=true&JigyosyoCd=3470207642-00&ServiceCd=331&Type=search", "url2": "http://www.kizuna-mc.jp/" }, "geometry": { "type": "Point", "coordinates": [ 132.460895100000016, 34.3816784 ] } },
{ "type": "Feature", "properties": { "内容": "ベストライフ広島中区【特定施設入居者生活介護（有料老人ホーム）】広島県広島市中区吉島西1丁目20-7", "url": "https://www.kaigokensaku.mhlw.go.jp/34/index.php?action_kouhyou_detail_004_kani=true&JigyosyoCd=3470214135-00&ServiceCd=331&Type=search", "url2": null }, "geometry": { "type": "Point", "coordinates": [ 132.4482727, 34.3742019 ] } },
{ "type": "Feature", "properties": { "内容": "ハビリス・シムラ【特定施設入居者生活介護（有料老人ホーム）】広島県広島市中区舟入町３番９号グレイスシムラ", "url": "https://www.kaigokensaku.mhlw.go.jp/34/index.php?action_kouhyou_detail_004_kani=true&JigyosyoCd=3470214333-00&ServiceCd=331&Type=search", "url2": "https://shimura.hospital/habilis/" }, "geometry": { "type": "Point", "coordinates": [ 132.444010055819689, 34.39148939819011 ] } },
{ "type": "Feature", "properties": { "内容": "ほほえみ有料老人ホームエクセレント[介護付]【特定施設入居者生活介護（有料老人ホーム）】広島市中区西平塚町4-15ラ・ポルトほほえみ", "url": "https://www.kaigokensaku.mhlw.go.jp/34/index.php?action_kouhyou_detail_004_kani=true&JigyosyoCd=3470210430-00&ServiceCd=331&Type=search", "url2": "http://hohoemi-gr.jp" }, "geometry": { "type": "Point", "coordinates": [ 132.467802600000027, 34.389288799999989 ] } },
{ "type": "Feature", "properties": { "内容": "ほほえみ有料老人ホームエクセレント［介護付］リハビリ棟【特定施設入居者生活介護（有料老人ホーム）】広島県広島市中区西平塚町7番3号ラ・ポルトほほえみ", "url": "https://www.kaigokensaku.mhlw.go.jp/34/index.php?action_kouhyou_detail_004_kani=true&JigyosyoCd=3470214846-00&ServiceCd=331&Type=search", "url2": "http://hohoemi-gr.jp" }, "geometry": { "type": "Point", "coordinates": [ 132.467525200000011, 34.3891376 ] } },
{ "type": "Feature", "properties": { "内容": "ＳＯＭＰＯケアラヴィーレ舟入【特定施設入居者生活介護（有料老人ホーム）】広島県広島市中区舟入南4-1-3", "url": "https://www.kaigokensaku.mhlw.go.jp/34/index.php?action_kouhyou_detail_004_kani=true&JigyosyoCd=3470213277-00&ServiceCd=331&Type=search", "url2": "https://www.sompocare.com" }, "geometry": { "type": "Point", "coordinates": [ 132.441696099999945, 34.3766121 ] } },
{ "type": "Feature", "properties": { "内容": "ＳＯＭＰＯケアラヴィーレ平和公園【特定施設入居者生活介護（有料老人ホーム）】広島県広島市中区大手町3-11-20", "url": "https://www.kaigokensaku.mhlw.go.jp/34/index.php?action_kouhyou_detail_004_kani=true&JigyosyoCd=3470215298-00&ServiceCd=331&Type=search", "url2": "https://www.sompocare.com/service/home/kaigo/H000476" }, "geometry": { "type": "Point", "coordinates": [ 132.4517777, 34.3871491 ] } },
{ "type": "Feature", "properties": { "内容": "ほほえみ有料老人ホームエクセレント[介護付]グループリビング棟【特定施設入居者生活介護（有料老人ホーム）】広島県広島市中区西平塚町７番１号ラ・ポルトほほえみ", "url": "https://www.kaigokensaku.mhlw.go.jp/34/index.php?action_kouhyou_detail_004_kani=true&JigyosyoCd=3470215827-00&ServiceCd=331&Type=search", "url2": "http://hohoemi-gr.jp" }, "geometry": { "type": "Point", "coordinates": [ 132.4673225, 34.389238 ] } },
{ "type": "Feature", "properties": { "内容": "あいらの杜　広島戸坂【特定施設入居者生活介護（有料老人ホーム）】広島県広島市東区戸坂大上3丁目2-22", "url": "https://www.kaigokensaku.mhlw.go.jp/34/index.php?action_kouhyou_detail_004_kani=true&JigyosyoCd=3470109046-00&ServiceCd=331&Type=search", "url2": null }, "geometry": { "type": "Point", "coordinates": [ 132.493254699999966, 34.4272743 ] } },
{ "type": "Feature", "properties": { "内容": "介護付き有料老人ホームメイプル馬木【特定施設入居者生活介護（有料老人ホーム）】広島県広島市東区馬木七丁目1994番地1", "url": "https://www.kaigokensaku.mhlw.go.jp/34/index.php?action_kouhyou_detail_004_kani=true&JigyosyoCd=3470109111-00&ServiceCd=331&Type=search", "url2": "http://www.takamasa.or.jp" }, "geometry": { "type": "Point", "coordinates": [ 132.534561868790433, 34.443391723598673 ] } },
{ "type": "Feature", "properties": { "内容": "SOMPOケア　ラヴィーレ広島光が丘【特定施設入居者生活介護（有料老人ホーム）】広島市東区光が丘２番40号", "url": "https://www.kaigokensaku.mhlw.go.jp/34/index.php?action_kouhyou_detail_004_kani=true&JigyosyoCd=3470109418-00&ServiceCd=331&Type=search", "url2": "https://www.sompocare.com/" }, "geometry": { "type": "Point", "coordinates": [ 132.4785511, 34.4046706 ] } },
{ "type": "Feature", "properties": { "内容": "介護付有料老人ホーム　サザンリーフ宇品海岸【特定施設入居者生活介護（有料老人ホーム）】広島市南区宇品海岸1丁目１２－４３", "url": "https://www.kaigokensaku.mhlw.go.jp/34/index.php?action_kouhyou_detail_004_kani=true&JigyosyoCd=3470106828-00&ServiceCd=331&Type=search", "url2": "https://www.higashinokai.jp/facility/" }, "geometry": { "type": "Point", "coordinates": [ 132.459670599999981, 34.3526232 ] } },
{ "type": "Feature", "properties": { "内容": "アルファリビング広島段原【特定施設入居者生活介護（有料老人ホーム）】広島県広島市南区段原日出二丁目7番5号アルファリビング広島段原", "url": "https://www.kaigokensaku.mhlw.go.jp/34/index.php?action_kouhyou_detail_004_kani=true&JigyosyoCd=3470109905-00&ServiceCd=331&Type=search", "url2": "http://www.anabuki-medical.jp/" }, "geometry": { "type": "Point", "coordinates": [ 132.4829229, 34.3870632 ] } },
{ "type": "Feature", "properties": { "内容": "介護付有料老人ホーム　せせらぎ【特定施設入居者生活介護（有料老人ホーム）】広島市南区丹那町１０－１９", "url": "https://www.kaigokensaku.mhlw.go.jp/34/index.php?action_kouhyou_detail_004_kani=true&JigyosyoCd=3470106646-00&ServiceCd=331&Type=search", "url2": "http://seseragi-home.jp" }, "geometry": { "type": "Point", "coordinates": [ 132.4829853, 34.3626088 ] } },
{ "type": "Feature", "properties": { "内容": "有料老人ホーム　広島八景園【特定施設入居者生活介護（有料老人ホーム）】広島市南区仁保一丁目１番２０号高齢者複合施設　広島八景園", "url": "https://www.kaigokensaku.mhlw.go.jp/34/index.php?action_kouhyou_detail_004_kani=true&JigyosyoCd=3470106786-00&ServiceCd=331&Type=search", "url2": "http://hakkeien.hiroshimakosei.or.jp" }, "geometry": { "type": "Point", "coordinates": [ 132.494328399999972, 34.3737384 ] } },
{ "type": "Feature", "properties": { "内容": "介護付有料老人ホームあかしあ大河【特定施設入居者生活介護（有料老人ホーム）】広島市南区南大河町12-1", "url": "https://www.kaigokensaku.mhlw.go.jp/34/index.php?action_kouhyou_detail_004_kani=true&JigyosyoCd=3470107404-00&ServiceCd=331&Type=search", "url2": "http://akashia-group.com" }, "geometry": { "type": "Point", "coordinates": [ 132.479604900000027, 34.3695773 ] } },
{ "type": "Feature", "properties": { "内容": "介護つき有料老人ホームでじま・くにくさ【特定施設入居者生活介護（有料老人ホーム）】広島市南区出島1丁目18番17号", "url": "https://www.kaigokensaku.mhlw.go.jp/34/index.php?action_kouhyou_detail_004_kani=true&JigyosyoCd=3470107115-00&ServiceCd=331&Type=search", "url2": "http://www.kunikusa.or.jp/" }, "geometry": { "type": "Point", "coordinates": [ 132.454959799999983, 34.3610776 ] } },
{ "type": "Feature", "properties": { "内容": "アルファリビング広島古江駅前【特定施設入居者生活介護（有料老人ホーム）】広島市西区古江新町1-3アルファリビング広島古江駅前", "url": "https://www.kaigokensaku.mhlw.go.jp/34/index.php?action_kouhyou_detail_004_kani=true&JigyosyoCd=3470215082-00&ServiceCd=331&Type=search", "url2": "https://www.a-living.jp/hiroshima/furue/" }, "geometry": { "type": "Point", "coordinates": [ 132.412390199999976, 34.384916600000011 ] } },
{ "type": "Feature", "properties": { "内容": "介護付有料老人ホームふじの家観音【特定施設入居者生活介護（有料老人ホーム）】広島県広島市西区南観音8丁目11-29", "url": "https://www.kaigokensaku.mhlw.go.jp/34/index.php?action_kouhyou_detail_004_kani=true&JigyosyoCd=3470209424-00&ServiceCd=331&Type=search", "url2": "http://www.fujicare.jp/index.html" }, "geometry": { "type": "Point", "coordinates": [ 132.431307400000037, 34.3797673 ] } },
{ "type": "Feature", "properties": { "内容": "アルファリビング広島中広【特定施設入居者生活介護（有料老人ホーム）】広島市西区中広町2丁目1-7", "url": "https://www.kaigokensaku.mhlw.go.jp/34/index.php?action_kouhyou_detail_004_kani=true&JigyosyoCd=3470212675-00&ServiceCd=331&Type=search", "url2": "http://ｗｗｗ.anabuki-medical.jp" }, "geometry": { "type": "Point", "coordinates": [ 132.4452063, 34.4033596 ] } },
{ "type": "Feature", "properties": { "内容": "ベストライフ広島【特定施設入居者生活介護（有料老人ホーム）】広島県広島市西区井口明神1-14-21", "url": "https://www.kaigokensaku.mhlw.go.jp/34/index.php?action_kouhyou_detail_004_kani=true&JigyosyoCd=3470214127-00&ServiceCd=331&Type=search", "url2": null }, "geometry": { "type": "Point", "coordinates": [ 132.3919018, 34.372982400000026 ] } },
{ "type": "Feature", "properties": { "内容": "あいらの杜　広島南観音【特定施設入居者生活介護（有料老人ホーム）】広島県広島市西区南観音5丁目6-32", "url": "https://www.kaigokensaku.mhlw.go.jp/34/index.php?action_kouhyou_detail_004_kani=true&JigyosyoCd=3470214853-00&ServiceCd=331&Type=search", "url2": "http://www.halenosumai.jp/" }, "geometry": { "type": "Point", "coordinates": [ 132.4259064, 34.3827214 ] } },
{ "type": "Feature", "properties": { "内容": "介護付有料老人ホーム　ほのぼの苑　己斐【特定施設入居者生活介護（有料老人ホーム）】広島市西区己斐上三丁目４２－２２", "url": "https://www.kaigokensaku.mhlw.go.jp/34/index.php?action_kouhyou_detail_004_kani=true&JigyosyoCd=3470204045-00&ServiceCd=331&Type=search", "url2": "http://www.tomigaku.co.jp/" }, "geometry": { "type": "Point", "coordinates": [ 132.413204899999982, 34.4097447 ] } },
{ "type": "Feature", "properties": { "内容": "介護付有料老人ホーム　西広島あかり苑【特定施設入居者生活介護（有料老人ホーム）】広島市西区田方二丁目１６番４５号", "url": "https://www.kaigokensaku.mhlw.go.jp/34/index.php?action_kouhyou_detail_004_kani=true&JigyosyoCd=3470208905-00&ServiceCd=331&Type=search", "url2": "http://www.nha.wadoukai.jp" }, "geometry": { "type": "Point", "coordinates": [ 132.396190574868797, 34.392336974082632 ] } },
{ "type": "Feature", "properties": { "内容": "介護付有料老人ホームプレザンメゾン西広島【特定施設入居者生活介護（有料老人ホーム）】広島県広島市西区小河内町2-13-19", "url": "https://www.kaigokensaku.mhlw.go.jp/34/index.php?action_kouhyou_detail_004_kani=true&JigyosyoCd=3470213111-00&ServiceCd=331&Type=search", "url2": null }, "geometry": { "type": "Point", "coordinates": [ 132.437142699999981, 34.4014682 ] } },
{ "type": "Feature", "properties": { "内容": "ニチイケアセンター広島西特定施設入居者生活介護【特定施設入居者生活介護（有料老人ホーム）】広島県広島市西区大宮一丁目15番5号ニチイケアセンター広島西特定施設入居者生活介護", "url": "https://www.kaigokensaku.mhlw.go.jp/34/index.php?action_kouhyou_detail_004_kani=true&JigyosyoCd=3470215173-00&ServiceCd=331&Type=search", "url2": "http://www.nichiigakkan.co.jp" }, "geometry": { "type": "Point", "coordinates": [ 132.454535235581972, 34.420767927033424 ] } },
{ "type": "Feature", "properties": { "内容": "介護付有料老人ホームかがやき【特定施設入居者生活介護（有料老人ホーム）】広島県広島市西区古江西町21-1-26", "url": "https://www.kaigokensaku.mhlw.go.jp/34/index.php?action_kouhyou_detail_004_kani=true&JigyosyoCd=3470215777-00&ServiceCd=331&Type=search", "url2": null }, "geometry": { "type": "Point", "coordinates": [ 132.4080885, 34.3843967 ] } },
{ "type": "Feature", "properties": { "内容": "介護付有料老人ホーム　ほのぼの苑　西原【特定施設入居者生活介護（有料老人ホーム）】広島市安佐南区西原６丁目１４－１０", "url": "https://www.kaigokensaku.mhlw.go.jp/34/index.php?action_kouhyou_detail_004_kani=true&JigyosyoCd=3470202866-00&ServiceCd=331&Type=search", "url2": "https://www.tomigaku.co.jp/" }, "geometry": { "type": "Point", "coordinates": [ 132.471622300000035, 34.4405423 ] } },
{ "type": "Feature", "properties": { "内容": "介護付き有料老人ホームヴィーヴル祇園【特定施設入居者生活介護（有料老人ホーム）】広島市安佐南区祇園四丁目8番7号", "url": "https://www.kaigokensaku.mhlw.go.jp/34/index.php?action_kouhyou_detail_004_kani=true&JigyosyoCd=3470204656-00&ServiceCd=331&Type=search", "url2": "https://vivregion.com/" }, "geometry": { "type": "Point", "coordinates": [ 132.455734399999983, 34.4402201 ] } },
{ "type": "Feature", "properties": { "内容": "介護付有料老人ホーム　緑井ガーデンハウス【特定施設入居者生活介護（有料老人ホーム）】広島市安佐南区緑井6丁目28番1号", "url": "https://www.kaigokensaku.mhlw.go.jp/34/index.php?action_kouhyou_detail_004_kani=true&JigyosyoCd=3470207139-00&ServiceCd=331&Type=search", "url2": "https://www.garden-house.site/" }, "geometry": { "type": "Point", "coordinates": [ 132.481531200000063, 34.4724642 ] } },
{ "type": "Feature", "properties": { "内容": "介護付有料老人ホーム　メリィハウス西風新都【特定施設入居者生活介護（有料老人ホーム）】広島市安佐南区大塚西三丁目2番9号", "url": "https://www.kaigokensaku.mhlw.go.jp/34/index.php?action_kouhyou_detail_004_kani=true&JigyosyoCd=3470208822-00&ServiceCd=331&Type=search", "url2": "http://www.merry-house.jp" }, "geometry": { "type": "Point", "coordinates": [ 132.395596492065494, 34.44460247610705 ] } },
{ "type": "Feature", "properties": { "内容": "介護付有料老人ホーム　ふじの家川内【特定施設入居者生活介護（有料老人ホーム）】広島市安佐南区川内1丁目15-24", "url": "https://www.kaigokensaku.mhlw.go.jp/34/index.php?action_kouhyou_detail_004_kani=true&JigyosyoCd=3470206123-00&ServiceCd=331&Type=search", "url2": "http://www.fujicare.jp/" }, "geometry": { "type": "Point", "coordinates": [ 132.4844372, 34.4582185 ] } },
{ "type": "Feature", "properties": { "内容": "ケアホーム古の市【特定施設入居者生活介護（有料老人ホーム）】広島県広島市安佐南区古市三丁目5番2号", "url": "https://www.kaigokensaku.mhlw.go.jp/34/index.php?action_kouhyou_detail_004_kani=true&JigyosyoCd=3470215553-00&ServiceCd=331&Type=search", "url2": "http://www.dai-ki.co.jp/furunoichi/" }, "geometry": { "type": "Point", "coordinates": [ 132.4698644, 34.4515934 ] } },
{ "type": "Feature", "properties": { "内容": "ドエル祇園【特定施設入居者生活介護（有料老人ホーム）】広島市安佐南区祇園2丁目5番18号", "url": "https://www.kaigokensaku.mhlw.go.jp/34/index.php?action_kouhyou_detail_004_kani=true&JigyosyoCd=3470206347-00&ServiceCd=331&Type=search", "url2": "http://www.doell.jp/" }, "geometry": { "type": "Point", "coordinates": [ 132.467683399999942, 34.4464972 ] } },
{ "type": "Feature", "properties": { "内容": "ケアホームディア・レスト可部【特定施設入居者生活介護（有料老人ホーム）】広島市安佐北区亀山１丁目１７番１６号", "url": "https://www.kaigokensaku.mhlw.go.jp/34/index.php?action_kouhyou_detail_004_kani=true&JigyosyoCd=3470103890-00&ServiceCd=331&Type=search", "url2": "http://www.dearrest-kb.net" }, "geometry": { "type": "Point", "coordinates": [ 132.50115930000004, 34.5157791 ] } },
{ "type": "Feature", "properties": { "内容": "介護付有料老人ホームおだやかな園【特定施設入居者生活介護（有料老人ホーム）】広島市安佐北区小河原町1130-21介護付有料老人ホームおだやかな園", "url": "https://www.kaigokensaku.mhlw.go.jp/34/index.php?action_kouhyou_detail_004_kani=true&JigyosyoCd=3470104450-00&ServiceCd=331&Type=search", "url2": "http://www.odayakanasono.jp/" }, "geometry": { "type": "Point", "coordinates": [ 132.561280799999963, 34.4630304 ] } },
{ "type": "Feature", "properties": { "内容": "ケアホーム・ソフィア【特定施設入居者生活介護（有料老人ホーム）】広島市安佐北区三入六丁目1番2号", "url": "https://www.kaigokensaku.mhlw.go.jp/34/index.php?action_kouhyou_detail_004_kani=true&JigyosyoCd=3470104971-00&ServiceCd=331&Type=search", "url2": "http://www.sophia.or.jp" }, "geometry": { "type": "Point", "coordinates": [ 132.53536680000002, 34.5472399 ] } },
{ "type": "Feature", "properties": { "内容": "サニーコート広島【特定施設入居者生活介護（有料老人ホーム）】広島市安佐北区亀崎四丁目6番5号", "url": "https://www.kaigokensaku.mhlw.go.jp/34/index.php?action_kouhyou_detail_004_kani=true&JigyosyoCd=3470101662-00&ServiceCd=331&Type=search", "url2": "https://jkk-hiroshima.or.jp/sunnycourt/" }, "geometry": { "type": "Point", "coordinates": [ 132.52553039999998, 34.4815505 ] } },
{ "type": "Feature", "properties": { "内容": "ほほえみ有料老人ホーム矢野［介護付］【特定施設入居者生活介護（有料老人ホーム）】広島県広島市安芸区矢野西七丁目２４番１３号", "url": "https://www.kaigokensaku.mhlw.go.jp/34/index.php?action_kouhyou_detail_004_kani=true&JigyosyoCd=3470103999-00&ServiceCd=331&Type=search", "url2": "http://hohoemi-gr.jp" }, "geometry": { "type": "Point", "coordinates": [ 132.535900637434452, 34.339289988388728 ] } },
{ "type": "Feature", "properties": { "内容": "ジョイフル・ファミリー観音台【特定施設入居者生活介護（有料老人ホーム）】広島市佐伯区観音台3-5-1", "url": "https://www.kaigokensaku.mhlw.go.jp/34/index.php?action_kouhyou_detail_004_kani=true&JigyosyoCd=3470203781-00&ServiceCd=331&Type=search", "url2": "http://www.joyful-family.jp/" }, "geometry": { "type": "Point", "coordinates": [ 132.338825600000064, 34.390867 ] } },
{ "type": "Feature", "properties": { "内容": "グランホームあさひ【特定施設入居者生活介護（有料老人ホーム）】広島県広島市佐伯区旭園9番31号", "url": "https://www.kaigokensaku.mhlw.go.jp/34/index.php?action_kouhyou_detail_004_kani=true&JigyosyoCd=3470213780-00&ServiceCd=331&Type=search", "url2": "https://www.icy.or.jp/granhome-asahi/" }, "geometry": { "type": "Point", "coordinates": [ 132.36775339999997, 34.3646952 ] } },
{ "type": "Feature", "properties": { "内容": "ドリームウェル【特定施設入居者生活介護（有料老人ホーム）】広島市佐伯区五日市7丁目8-41", "url": "https://www.kaigokensaku.mhlw.go.jp/34/index.php?action_kouhyou_detail_004_kani=true&JigyosyoCd=3470204771-00&ServiceCd=331&Type=search", "url2": null }, "geometry": { "type": "Point", "coordinates": [ 132.360250800000017, 34.3775886 ] } },
{ "type": "Feature", "properties": { "内容": "ルネッサンス音戸（混合型特定施設）【特定施設入居者生活介護（有料老人ホーム）】広島県呉市音戸町畑3丁目20番34号", "url": "https://www.kaigokensaku.mhlw.go.jp/34/index.php?action_kouhyou_detail_004_kani=true&JigyosyoCd=3470503255-00&ServiceCd=331&Type=search", "url2": "http://hayashimedical.or.jp/facilities/r-ondo/" }, "geometry": { "type": "Point", "coordinates": [ 132.524487099999988, 34.1605252 ] } },
{ "type": "Feature", "properties": { "内容": "医療法人社団たつき会菅田医院　介護付き有料老人ホームつつじ【特定施設入居者生活介護（有料老人ホーム）】広島県呉市安浦町内海北六丁目3番20号ケアビレッジたつき", "url": "https://www.kaigokensaku.mhlw.go.jp/34/index.php?action_kouhyou_detail_004_kani=true&JigyosyoCd=3470503123-00&ServiceCd=331&Type=search", "url2": "https://tatsukikai.com/" }, "geometry": { "type": "Point", "coordinates": [ 132.733764460049429, 34.284111784925045 ] } },
{ "type": "Feature", "properties": { "内容": "ほほえみ有料老人ホーム広国際通り[介護型]【特定施設入居者生活介護（有料老人ホーム）】呉市広古新開八丁目２５番６号", "url": "https://www.kaigokensaku.mhlw.go.jp/34/index.php?action_kouhyou_detail_004_kani=true&JigyosyoCd=3470502661-00&ServiceCd=331&Type=search", "url2": "http://hohoemi-gr.jp" }, "geometry": { "type": "Point", "coordinates": [ 132.621883799999978, 34.241756 ] } },
{ "type": "Feature", "properties": { "内容": "特定施設入居者生活介護きららラポール尾道【特定施設入居者生活介護（有料老人ホーム）】尾道市十四日町59番地8", "url": "https://www.kaigokensaku.mhlw.go.jp/34/index.php?action_kouhyou_detail_004_kani=true&JigyosyoCd=3471101695-00&ServiceCd=331&Type=search", "url2": "http://www.onomichi-seiwa.jp/rapport/" }, "geometry": { "type": "Point", "coordinates": [ 133.20158790000005, 34.4311204 ] } },
{ "type": "Feature", "properties": { "内容": "有料老人ホーム花園【特定施設入居者生活介護（有料老人ホーム）】尾道市因島土生町1460-4", "url": "https://www.kaigokensaku.mhlw.go.jp/34/index.php?action_kouhyou_detail_004_kani=true&JigyosyoCd=3471300255-00&ServiceCd=331&Type=search", "url2": "https://fukushi-hanazono.jp" }, "geometry": { "type": "Point", "coordinates": [ 133.174297199999955, 34.2919792 ] } },
{ "type": "Feature", "properties": { "内容": "介護付有料老人ホーム里の家あけぼの【特定施設入居者生活介護（有料老人ホーム）】福山市曙町四丁目8番10号", "url": "https://www.kaigokensaku.mhlw.go.jp/34/index.php?action_kouhyou_detail_004_kani=true&JigyosyoCd=3471505101-00&ServiceCd=331&Type=search", "url2": "http://joyjoywork.jp/index.html" }, "geometry": { "type": "Point", "coordinates": [ 133.400788799999987, 34.4691707 ] } },
{ "type": "Feature", "properties": { "内容": "グランドホームエクセル鞆の浦【特定施設入居者生活介護（有料老人ホーム）】広島県福山市田尻町4115番地", "url": "https://www.kaigokensaku.mhlw.go.jp/34/index.php?action_kouhyou_detail_004_kani=true&JigyosyoCd=3471504104-00&ServiceCd=331&Type=search", "url2": "https://www.harumikai.jp" }, "geometry": { "type": "Point", "coordinates": [ 133.381229800000028, 34.4077597 ] } },
{ "type": "Feature", "properties": { "内容": "そんぽの家　福山東【特定施設入居者生活介護（有料老人ホーム）】福山市南蔵王町6丁目10-19", "url": "https://www.kaigokensaku.mhlw.go.jp/34/index.php?action_kouhyou_detail_004_kani=true&JigyosyoCd=3471501829-00&ServiceCd=331&Type=search", "url2": "https://www.sompocare.com/service/home/kaigo/H000481" }, "geometry": { "type": "Point", "coordinates": [ 133.403003315006828, 34.499794791951395 ] } },
{ "type": "Feature", "properties": { "内容": "ケアホームディア・レスト福山【特定施設入居者生活介護（有料老人ホーム）】広島県福山市駅家町大字倉光148番地", "url": "https://www.kaigokensaku.mhlw.go.jp/34/index.php?action_kouhyou_detail_004_kani=true&JigyosyoCd=3471504872-00&ServiceCd=331&Type=search", "url2": "http://www.dearrest.net/fukuyama" }, "geometry": { "type": "Point", "coordinates": [ 133.327316699999983, 34.5425682 ] } },
{ "type": "Feature", "properties": { "内容": "医療連携型有料老人ホーム　ゆ～とぴあ【特定施設入居者生活介護（有料老人ホーム）】福山市松永町5丁目23-30", "url": "https://www.kaigokensaku.mhlw.go.jp/34/index.php?action_kouhyou_detail_004_kani=true&JigyosyoCd=3471504880-00&ServiceCd=331&Type=search", "url2": "http://www.ryofukai.jp/" }, "geometry": { "type": "Point", "coordinates": [ 133.260267800000065, 34.4466803 ] } },
{ "type": "Feature", "properties": { "内容": "有料老人ホーム　桜並木【特定施設入居者生活介護（有料老人ホーム）】福山市西深津町六丁目６番１０号介護複合施設　さくら並木", "url": "https://www.kaigokensaku.mhlw.go.jp/34/index.php?action_kouhyou_detail_004_kani=true&JigyosyoCd=3471505473-00&ServiceCd=331&Type=search", "url2": "http://sakuranamiki-nf.jp/" }, "geometry": { "type": "Point", "coordinates": [ 133.381357753333987, 34.5007071543846 ] } },
{ "type": "Feature", "properties": { "内容": "介護付有料老人ホーム　ハウスカ青葉【特定施設入居者生活介護（有料老人ホーム）】福山市青葉台一丁目10番20号", "url": "https://www.kaigokensaku.mhlw.go.jp/34/index.php?action_kouhyou_detail_004_kani=true&JigyosyoCd=3471506943-00&ServiceCd=331&Type=search", "url2": "http://www.aobadai-hp.com/" }, "geometry": { "type": "Point", "coordinates": [ 133.427984400000014, 34.513183 ] } },
{ "type": "Feature", "properties": { "内容": "はぴね福山【特定施設入居者生活介護（有料老人ホーム）】福山市三吉町３丁目２－６介護付有料老人ホーム　はぴね福山", "url": "https://www.kaigokensaku.mhlw.go.jp/34/index.php?action_kouhyou_detail_004_kani=true&JigyosyoCd=3471507578-00&ServiceCd=331&Type=search", "url2": "http://www.greenlife-inc.co.jp" }, "geometry": { "type": "Point", "coordinates": [ 133.375617299999931, 34.4925543 ] } },
{ "type": "Feature", "properties": { "内容": "ベストライフ福山【特定施設入居者生活介護（有料老人ホーム）】広島県福山市引野町5-22-17", "url": "https://www.kaigokensaku.mhlw.go.jp/34/index.php?action_kouhyou_detail_004_kani=true&JigyosyoCd=3471509442-00&ServiceCd=331&Type=search", "url2": null }, "geometry": { "type": "Point", "coordinates": [ 133.402192899999989, 34.491159 ] } },
{ "type": "Feature", "properties": { "内容": "介護付有料老人ホームえんじゅ王子【特定施設入居者生活介護（有料老人ホーム）】広島県福山市王子町二丁目7番16号", "url": "https://www.kaigokensaku.mhlw.go.jp/34/index.php?action_kouhyou_detail_004_kani=true&JigyosyoCd=3471510630-00&ServiceCd=331&Type=search", "url2": "https://www.higashinokai.jp/" }, "geometry": { "type": "Point", "coordinates": [ 133.3816425, 34.4895882 ] } },
{ "type": "Feature", "properties": { "内容": "介護付有料老人ホームセイフティー信和【特定施設入居者生活介護（有料老人ホーム）】広島県府中市広谷町391番地", "url": "https://www.kaigokensaku.mhlw.go.jp/34/index.php?action_kouhyou_detail_004_kani=true&JigyosyoCd=3471700991-00&ServiceCd=331&Type=search", "url2": "https://www.safety-sinwa.com" }, "geometry": { "type": "Point", "coordinates": [ 133.261279899999977, 34.5747745 ] } },
{ "type": "Feature", "properties": { "内容": "府中ふれあいホームうかい【特定施設入居者生活介護（有料老人ホーム）】広島県府中市鵜飼町681-1", "url": "https://www.kaigokensaku.mhlw.go.jp/34/index.php?action_kouhyou_detail_004_kani=true&JigyosyoCd=3471700900-00&ServiceCd=331&Type=search", "url2": "http://advance2003.com" }, "geometry": { "type": "Point", "coordinates": [ 133.251281799999987, 34.567976 ] } },
{ "type": "Feature", "properties": { "内容": "ケアホーム「ディア・レスト三次」【特定施設入居者生活介護（有料老人ホーム）】三次市十日市中三丁目６番６号", "url": "https://www.kaigokensaku.mhlw.go.jp/34/index.php?action_kouhyou_detail_004_kani=true&JigyosyoCd=3471900591-00&ServiceCd=331&Type=search", "url2": "https://dearrest.net/miyoshi/index.html" }, "geometry": { "type": "Point", "coordinates": [ 132.854520900000011, 34.8060044 ] } },
{ "type": "Feature", "properties": { "内容": "有料老人ホーム　秀東館若竹【特定施設入居者生活介護（有料老人ホーム）】広島県大竹市木野二丁目７番３８号", "url": "https://www.kaigokensaku.mhlw.go.jp/34/index.php?action_kouhyou_detail_004_kani=true&JigyosyoCd=3472300361-00&ServiceCd=331&Type=search", "url2": "http://www.shutoukan.com" }, "geometry": { "type": "Point", "coordinates": [ 132.203347500000064, 34.222992 ] } },
{ "type": "Feature", "properties": { "内容": "介護付有料老人ホーム高屋の大地　成寿会【特定施設入居者生活介護（有料老人ホーム）】広島県東広島市高屋町大畠１４５番１", "url": "https://www.kaigokensaku.mhlw.go.jp/34/index.php?action_kouhyou_detail_004_kani=true&JigyosyoCd=3472502636-00&ServiceCd=331&Type=search", "url2": "http://www.seijukai-welfare.jp/shisetsu_takaya.html" }, "geometry": { "type": "Point", "coordinates": [ 132.775497844149754, 34.442472027823698 ] } },
{ "type": "Feature", "properties": { "内容": "ふれあいの里【特定施設入居者生活介護（有料老人ホーム）】広島県東広島市西条町寺家7429-3", "url": "https://www.kaigokensaku.mhlw.go.jp/34/index.php?action_kouhyou_detail_004_kani=true&JigyosyoCd=3472502982-00&ServiceCd=331&Type=search", "url2": "http://koenkai-gr.jp/" }, "geometry": { "type": "Point", "coordinates": [ 132.7291533, 34.4222158 ] } },
{ "type": "Feature", "properties": { "内容": "有料老人ホーム故郷ー八本松【特定施設入居者生活介護（有料老人ホーム）】東広島市八本松町原１１２６４番地２", "url": "https://www.kaigokensaku.mhlw.go.jp/34/index.php?action_kouhyou_detail_004_kani=true&JigyosyoCd=3472502370-00&ServiceCd=331&Type=search", "url2": "https://furusato-home.com" }, "geometry": { "type": "Point", "coordinates": [ 132.6892097, 34.4133256 ] } },
{ "type": "Feature", "properties": { "内容": "ドエル東志和【特定施設入居者生活介護（有料老人ホーム）】東広島市志和町志和東1201-1", "url": "https://www.kaigokensaku.mhlw.go.jp/34/index.php?action_kouhyou_detail_004_kani=true&JigyosyoCd=3472501018-00&ServiceCd=331&Type=search", "url2": "http://www.doell.jp/" }, "geometry": { "type": "Point", "coordinates": [ 132.6794228, 34.483600500000016 ] } },
{ "type": "Feature", "properties": { "内容": "有料老人ホーム　ライフイン西条【特定施設入居者生活介護（有料老人ホーム）】東広島市西条本町２番７号", "url": "https://www.kaigokensaku.mhlw.go.jp/34/index.php?action_kouhyou_detail_004_kani=true&JigyosyoCd=3472501984-00&ServiceCd=331&Type=search", "url2": null }, "geometry": { "type": "Point", "coordinates": [ 132.745009399999958, 34.4312438 ] } },
{ "type": "Feature", "properties": { "内容": "介護付有料老人ホーム　望海の里【特定施設入居者生活介護（有料老人ホーム）】広島県廿日市市宮島口東2丁目13番15号", "url": "https://www.kaigokensaku.mhlw.go.jp/34/index.php?action_kouhyou_detail_004_kani=true&JigyosyoCd=3472701733-00&ServiceCd=331&Type=search", "url2": "https://www.amano-reha.com/" }, "geometry": { "type": "Point", "coordinates": [ 132.301977699999952, 34.3207391 ] } },
{ "type": "Feature", "properties": { "内容": "介護付き有料老人ホームスープ宮島【特定施設入居者生活介護（有料老人ホーム）】広島県廿日市市宮島口東1-3-12", "url": "https://www.kaigokensaku.mhlw.go.jp/34/index.php?action_kouhyou_detail_004_kani=true&JigyosyoCd=3472702020-00&ServiceCd=331&Type=search", "url2": "https://care.s-brillant.co.jp/nursing-home/soup-miyajima" }, "geometry": { "type": "Point", "coordinates": [ 132.3047515, 34.3181419 ] } },
{ "type": "Feature", "properties": { "内容": "グッドタイムホーム・宮島【特定施設入居者生活介護（有料老人ホーム）】広島県廿日市市阿品4丁目51番26号", "url": "https://www.kaigokensaku.mhlw.go.jp/34/index.php?action_kouhyou_detail_004_kani=true&JigyosyoCd=3472701915-00&ServiceCd=331&Type=search", "url2": "http://www.sousei-hiroshima.com" }, "geometry": { "type": "Point", "coordinates": [ 132.310212799999988, 34.3193183 ] } },
{ "type": "Feature", "properties": { "内容": "介護付有料老人ホーム　メリィハウス八千代【特定施設入居者生活介護（有料老人ホーム）】広島県安芸高田市八千代町勝田459", "url": "https://www.kaigokensaku.mhlw.go.jp/34/index.php?action_kouhyou_detail_004_kani=true&JigyosyoCd=3473600645-00&ServiceCd=331&Type=search", "url2": "http://www.merry-house.jp/merryyachiyo/index.html" }, "geometry": { "type": "Point", "coordinates": [ 132.622132500000021, 34.631053 ] } },
{ "type": "Feature", "properties": { "内容": "有料老人ホーム　チェリーゴード【特定施設入居者生活介護（有料老人ホーム）】広島県安芸郡府中町柳ヶ丘40-12", "url": "https://www.kaigokensaku.mhlw.go.jp/34/index.php?action_kouhyou_detail_004_kani=true&JigyosyoCd=3473200511-00&ServiceCd=331&Type=search", "url2": "http://www.fig-g.jp" }, "geometry": { "type": "Point", "coordinates": [ 132.513215299999956, 34.3823184 ] } },
{ "type": "Feature", "properties": { "内容": "有料老人ホーム悠々【特定施設入居者生活介護（有料老人ホーム）】広島県世羅郡世羅町西神崎806有料老人ホーム悠々", "url": "https://www.kaigokensaku.mhlw.go.jp/34/index.php?action_kouhyou_detail_004_kani=true&JigyosyoCd=3474200387-00&ServiceCd=331&Type=search", "url2": "http://sera-youyou.jp/" }, "geometry": { "type": "Point", "coordinates": [ 133.0396389, 34.5814756 ] } }
]
}
