{
"type": "FeatureCollection",
"name": "geo_34_特定施設入居者生活介護（有料老人ホーム（サービス付き高齢者向け住宅（外部サービス利用型））)",
"crs": { "type": "name", "properties": { "name": "urn:ogc:def:crs:OGC:1.3:CRS84" } },
"features": [
{ "type": "Feature", "properties": { "内容": "グッドライフホーム今町【特定施設入居者生活介護（有料老人ホーム（サービス付き高齢者向け住宅（外部サービス利用型））)】広島県福山市今町3-10グッドライフホーム今町", "url": "https://www.kaigokensaku.mhlw.go.jp/34/index.php?action_kouhyou_detail_004_kani=true&JigyosyoCd=3471509772-00&ServiceCd=&Type=search", "url2": "https://goodlifehospital.jp/imamachi/" }, "geometry": { "type": "Point", "coordinates": [ 133.368170600000013, 34.490045 ] } }
]
}
