{
"type": "FeatureCollection",
"name": "geo_34_4",
"crs": { "type": "name", "properties": { "name": "urn:ogc:def:crs:OGC:1.3:CRS84" } },
"features": [
{ "type": "Feature", "properties": { "ID": 3445340000010, "正式名称": "ＫＥＩ助産院", "機関区分": 4, "都道府県コード": 34, "市区町村コード": 101, "所在地": "広島県広島市中区東白島町１５番８号第３西林ビル８０２", "緯度": 34.409842, "経度": 132.462733, "url": "https://www.iryou.teikyouseido.mhlw.go.jp/znk-web/juminkanja/S2430/initialize?prefCd=34&kikanCd=5340000010&kikanKbn=4", "url2": "http://keymws.com/", "内容": "ＫＥＩ助産院【4:助産院】広島県広島市中区東白島町１５番８号第３西林ビル８０２" }, "geometry": { "type": "Point", "coordinates": [ 132.462733, 34.409842 ] } },
{ "type": "Feature", "properties": { "ID": 3445340000110, "正式名称": "朝隈助産院", "機関区分": 4, "都道府県コード": 34, "市区町村コード": 105, "所在地": "広島県広島市安佐南区長束西四丁目５－１７－５", "緯度": 34.430593, "経度": 132.445674, "url": "https://www.iryou.teikyouseido.mhlw.go.jp/znk-web/juminkanja/S2430/initialize?prefCd=34&kikanCd=5340000110&kikanKbn=4", "url2": "http://asakuma-jyosanin.jp/", "内容": "朝隈助産院【4:助産院】広島県広島市安佐南区長束西四丁目５－１７－５" }, "geometry": { "type": "Point", "coordinates": [ 132.445674, 34.430593 ] } },
{ "type": "Feature", "properties": { "ID": 3445340000160, "正式名称": "Ｈａｎａ母乳育児相談", "機関区分": 4, "都道府県コード": 34, "市区町村コード": 105, "所在地": "広島県広島市安佐南区八木町９丁目１５番１５号", "緯度": 34.487022, "経度": 132.507368, "url": "https://www.iryou.teikyouseido.mhlw.go.jp/znk-web/juminkanja/S2430/initialize?prefCd=34&kikanCd=5340000160&kikanKbn=4", "url2": "http://www.hana-bonyu.com/", "内容": "Ｈａｎａ母乳育児相談【4:助産院】広島県広島市安佐南区八木町９丁目１５番１５号" }, "geometry": { "type": "Point", "coordinates": [ 132.507368, 34.487022 ] } },
{ "type": "Feature", "properties": { "ID": 3445340000220, "正式名称": "ふじわら助産院", "機関区分": 4, "都道府県コード": 34, "市区町村コード": 108, "所在地": "広島県広島市佐伯区楽々園一丁目１番１１号", "緯度": 34.36502, "経度": 132.354493, "url": "https://www.iryou.teikyouseido.mhlw.go.jp/znk-web/juminkanja/S2430/initialize?prefCd=34&kikanCd=5340000220&kikanKbn=4", "url2": "http://www.fujiwara-mw.net/", "内容": "ふじわら助産院【4:助産院】広島県広島市佐伯区楽々園一丁目１番１１号" }, "geometry": { "type": "Point", "coordinates": [ 132.354493, 34.36502 ] } },
{ "type": "Feature", "properties": { "ID": 3445340000320, "正式名称": "阿賀野助産所", "機関区分": 4, "都道府県コード": 34, "市区町村コード": 207, "所在地": "広島県福山市春日町浦上２０９３番地２", "緯度": 34.515903, "経度": 133.41651, "url": "https://www.iryou.teikyouseido.mhlw.go.jp/znk-web/juminkanja/S2430/initialize?prefCd=34&kikanCd=5340000320&kikanKbn=4", "url2": "https://www.agano-bc.com", "内容": "阿賀野助産所【4:助産院】広島県福山市春日町浦上２０９３番地２" }, "geometry": { "type": "Point", "coordinates": [ 133.41651, 34.515903 ] } },
{ "type": "Feature", "properties": { "ID": 3445340000770, "正式名称": "ゆい助産院", "機関区分": 4, "都道府県コード": 34, "市区町村コード": 106, "所在地": "広島県広島市安佐北区可部８－６－８", "緯度": 34.528817, "経度": 132.516296, "url": "https://www.iryou.teikyouseido.mhlw.go.jp/znk-web/juminkanja/S2430/initialize?prefCd=34&kikanCd=5340000770&kikanKbn=4", "url2": "https://yui-j.com", "内容": "ゆい助産院【4:助産院】広島県広島市安佐北区可部８－６－８" }, "geometry": { "type": "Point", "coordinates": [ 132.516296, 34.528817 ] } },
{ "type": "Feature", "properties": { "ID": 3445340000810, "正式名称": "しおり助産院", "機関区分": 4, "都道府県コード": 34, "市区町村コード": 207, "所在地": "広島県福山市神辺町上御領８２－１", "緯度": 34.564016, "経度": 133.404873, "url": "https://www.iryou.teikyouseido.mhlw.go.jp/znk-web/juminkanja/S2430/initialize?prefCd=34&kikanCd=5340000810&kikanKbn=4", "url2": "http://goryo-healthlabo.com/", "内容": "しおり助産院【4:助産院】広島県福山市神辺町上御領８２－１" }, "geometry": { "type": "Point", "coordinates": [ 133.404873, 34.564016 ] } },
{ "type": "Feature", "properties": { "ID": 3445340000880, "正式名称": "助産院よりと", "機関区分": 4, "都道府県コード": 34, "市区町村コード": 214, "所在地": "広島県安芸高田市吉田町川本１４８９－１２", "緯度": 34.649222, "経度": 132.665372, "url": "https://www.iryou.teikyouseido.mhlw.go.jp/znk-web/juminkanja/S2430/initialize?prefCd=34&kikanCd=5340000880&kikanKbn=4", "url2": "https://mw-yorito.com/", "内容": "助産院よりと【4:助産院】広島県安芸高田市吉田町川本１４８９－１２" }, "geometry": { "type": "Point", "coordinates": [ 132.665372, 34.649222 ] } },
{ "type": "Feature", "properties": { "ID": 3445340000950, "正式名称": "悦喜助産院　えっちゃん母乳育児相談室", "機関区分": 4, "都道府県コード": 34, "市区町村コード": 213, "所在地": "広島県廿日市市新宮１丁目１３番１８号大野ビル５０１", "緯度": 34.350402, "経度": 132.331664, "url": "https://www.iryou.teikyouseido.mhlw.go.jp/znk-web/juminkanja/S2430/initialize?prefCd=34&kikanCd=5340000950&kikanKbn=4", "url2": "https://etsuki-mw.com/", "内容": "悦喜助産院　えっちゃん母乳育児相談室【4:助産院】広島県廿日市市新宮１丁目１３番１８号大野ビル５０１" }, "geometry": { "type": "Point", "coordinates": [ 132.331664, 34.350402 ] } },
{ "type": "Feature", "properties": { "ID": 3445340000960, "正式名称": "助産院　マミィケアひだまり", "機関区分": 4, "都道府県コード": 34, "市区町村コード": 108, "所在地": "広島県広島市佐伯区楽々園３丁目４―２１ソアーレ楽々園２０２号室", "緯度": 34.36395, "経度": 132.353794, "url": "https://www.iryou.teikyouseido.mhlw.go.jp/znk-web/juminkanja/S2430/initialize?prefCd=34&kikanCd=5340000960&kikanKbn=4", "url2": "https://www.hidamari-mam.com/", "内容": "助産院　マミィケアひだまり【4:助産院】広島県広島市佐伯区楽々園３丁目４―２１ソアーレ楽々園２０２号室" }, "geometry": { "type": "Point", "coordinates": [ 132.353794, 34.36395 ] } },
{ "type": "Feature", "properties": { "ID": 3445340000990, "正式名称": "一般社団法人　広島県助産師会立　たから助産院", "機関区分": 4, "都道府県コード": 34, "市区町村コード": 105, "所在地": "広島県広島市安佐南区中須１丁目　４４－２６－８", "緯度": 34.459346, "経度": 132.471938, "url": "https://www.iryou.teikyouseido.mhlw.go.jp/znk-web/juminkanja/S2430/initialize?prefCd=34&kikanCd=5340000990&kikanKbn=4", "url2": "http://takara.hiroshima-josanshikai.com", "内容": "一般社団法人　広島県助産師会立　たから助産院【4:助産院】広島県広島市安佐南区中須１丁目　４４－２６－８" }, "geometry": { "type": "Point", "coordinates": [ 132.471938, 34.459346 ] } },
{ "type": "Feature", "properties": { "ID": 3445340001000, "正式名称": "羽原助産院", "機関区分": 4, "都道府県コード": 34, "市区町村コード": 304, "所在地": "広島県安芸郡海田町大正町７－１０－２０１", "緯度": 34.368709, "経度": 132.533725, "url": "https://www.iryou.teikyouseido.mhlw.go.jp/znk-web/juminkanja/S2430/initialize?prefCd=34&kikanCd=5340001000&kikanKbn=4", "url2": null, "内容": "羽原助産院【4:助産院】広島県安芸郡海田町大正町７－１０－２０１" }, "geometry": { "type": "Point", "coordinates": [ 132.533725, 34.368709 ] } },
{ "type": "Feature", "properties": { "ID": 3445340001010, "正式名称": "高山千鶴母乳育児相談室　ちぃちゃん助産院", "機関区分": 4, "都道府県コード": 34, "市区町村コード": 106, "所在地": "広島県広島市安佐北区口田３－１４－３", "緯度": 34.468682, "経度": 132.501847, "url": "https://www.iryou.teikyouseido.mhlw.go.jp/znk-web/juminkanja/S2430/initialize?prefCd=34&kikanCd=5340001010&kikanKbn=4", "url2": null, "内容": "高山千鶴母乳育児相談室　ちぃちゃん助産院【4:助産院】広島県広島市安佐北区口田３－１４－３" }, "geometry": { "type": "Point", "coordinates": [ 132.501847, 34.468682 ] } },
{ "type": "Feature", "properties": { "ID": 3445340001020, "正式名称": "花笑助産院", "機関区分": 4, "都道府県コード": 34, "市区町村コード": 204, "所在地": "広島県三原市本郷北４－２２－７", "緯度": 34.411053, "経度": 132.993977, "url": "https://www.iryou.teikyouseido.mhlw.go.jp/znk-web/juminkanja/S2430/initialize?prefCd=34&kikanCd=5340001020&kikanKbn=4", "url2": "https://hanaemijyosanin.wixsite.com/website", "内容": "花笑助産院【4:助産院】広島県三原市本郷北４－２２－７" }, "geometry": { "type": "Point", "coordinates": [ 132.993977, 34.411053 ] } },
{ "type": "Feature", "properties": { "ID": 3445340001030, "正式名称": "くじら助産院　母乳育児相談室", "機関区分": 4, "都道府県コード": 34, "市区町村コード": 212, "所在地": "広島県東広島市西条町郷曽４４０－６２", "緯度": 34.381373, "経度": 132.717376, "url": "https://www.iryou.teikyouseido.mhlw.go.jp/znk-web/juminkanja/S2430/initialize?prefCd=34&kikanCd=5340001030&kikanKbn=4", "url2": "https://kujira-jyosanin.jimdofree.com/", "内容": "くじら助産院　母乳育児相談室【4:助産院】広島県東広島市西条町郷曽４４０－６２" }, "geometry": { "type": "Point", "coordinates": [ 132.717376, 34.381373 ] } },
{ "type": "Feature", "properties": { "ID": 3445340001040, "正式名称": "中尾助産所スミレ母乳相談室", "機関区分": 4, "都道府県コード": 34, "市区町村コード": 204, "所在地": "広島県三原市本郷町下北方２丁目２－１２", "緯度": 34.410287, "経度": 132.969668, "url": "https://www.iryou.teikyouseido.mhlw.go.jp/znk-web/juminkanja/S2430/initialize?prefCd=34&kikanCd=5340001040&kikanKbn=4", "url2": null, "内容": "中尾助産所スミレ母乳相談室【4:助産院】広島県三原市本郷町下北方２丁目２－１２" }, "geometry": { "type": "Point", "coordinates": [ 132.969668, 34.410287 ] } },
{ "type": "Feature", "properties": { "ID": 3445340001230, "正式名称": "ゆりかご助産院", "機関区分": 4, "都道府県コード": 34, "市区町村コード": 207, "所在地": "広島県福山市南本庄１－３－３　あおいビル４階", "緯度": 34.486556, "経度": 133.35414, "url": "https://www.iryou.teikyouseido.mhlw.go.jp/znk-web/juminkanja/S2430/initialize?prefCd=34&kikanCd=5340001230&kikanKbn=4", "url2": "http://midwifemap.com/yurikago/mysite/", "内容": "ゆりかご助産院【4:助産院】広島県福山市南本庄１－３－３　あおいビル４階" }, "geometry": { "type": "Point", "coordinates": [ 133.35414, 34.486556 ] } },
{ "type": "Feature", "properties": { "ID": 3445340001340, "正式名称": "みんなの助産所", "機関区分": 4, "都道府県コード": 34, "市区町村コード": 213, "所在地": "広島県廿日市市大野８４１１番地", "緯度": 34.263942, "経度": 132.243616, "url": "https://www.iryou.teikyouseido.mhlw.go.jp/znk-web/juminkanja/S2430/initialize?prefCd=34&kikanCd=5340001340&kikanKbn=4", "url2": null, "内容": "みんなの助産所【4:助産院】広島県廿日市市大野８４１１番地" }, "geometry": { "type": "Point", "coordinates": [ 132.243616, 34.263942 ] } },
{ "type": "Feature", "properties": { "ID": 3445340001400, "正式名称": "いづみ助産院", "機関区分": 4, "都道府県コード": 34, "市区町村コード": 302, "所在地": "広島県安芸郡府中町鹿籠一丁目１９－２３", "緯度": 34.380602, "経度": 132.504545, "url": "https://www.iryou.teikyouseido.mhlw.go.jp/znk-web/juminkanja/S2430/initialize?prefCd=34&kikanCd=5340001400&kikanKbn=4", "url2": null, "内容": "いづみ助産院【4:助産院】広島県安芸郡府中町鹿籠一丁目１９－２３" }, "geometry": { "type": "Point", "coordinates": [ 132.504545, 34.380602 ] } },
{ "type": "Feature", "properties": { "ID": 3445340001410, "正式名称": "くぬぎ助産所", "機関区分": 4, "都道府県コード": 34, "市区町村コード": 302, "所在地": "広島県安芸郡府中町瀬戸ハイム三丁目８－３０", "緯度": 34.38959, "経度": 132.519011, "url": "https://www.iryou.teikyouseido.mhlw.go.jp/znk-web/juminkanja/S2430/initialize?prefCd=34&kikanCd=5340001410&kikanKbn=4", "url2": "kunugi-care.com", "内容": "くぬぎ助産所【4:助産院】広島県安芸郡府中町瀬戸ハイム三丁目８－３０" }, "geometry": { "type": "Point", "coordinates": [ 132.519011, 34.38959 ] } },
{ "type": "Feature", "properties": { "ID": 3445340001460, "正式名称": "神石のたまご助産院", "機関区分": 4, "都道府県コード": 34, "市区町村コード": 545, "所在地": "広島県神石郡神石高原町坂瀬川５１４６番地１８", "緯度": 34.674044, "経度": 133.299956, "url": "https://www.iryou.teikyouseido.mhlw.go.jp/znk-web/juminkanja/S2430/initialize?prefCd=34&kikanCd=5340001460&kikanKbn=4", "url2": "https://maps.app.goo.gl/yBZ7C5dVGzo55y1q8", "内容": "神石のたまご助産院【4:助産院】広島県神石郡神石高原町坂瀬川５１４６番地１８" }, "geometry": { "type": "Point", "coordinates": [ 133.299956, 34.674044 ] } }
]
}
