{
"type": "FeatureCollection",
"name": "geo_34_特定施設入居者生活介護（軽費老人ホーム）",
"crs": { "type": "name", "properties": { "name": "urn:ogc:def:crs:OGC:1.3:CRS84" } },
"features": [
{ "type": "Feature", "properties": { "内容": "ケアハウス東山【特定施設入居者生活介護（軽費老人ホーム）】広島市東区東山町１番９号ケアハウス東山", "url": "https://www.kaigokensaku.mhlw.go.jp/34/index.php?action_kouhyou_detail_004_kani=true&JigyosyoCd=3470107016-00&ServiceCd=332&Type=search", "url2": "http://www.kokemakai.jp/guide/higashiyama_dayservice.html" }, "geometry": { "type": "Point", "coordinates": [ 132.491513427647419, 34.398848910865262 ] } },
{ "type": "Feature", "properties": { "内容": "ケアハウスかんべ村【特定施設入居者生活介護（軽費老人ホーム）】広島市安佐北区可部７丁目１３番１５－１－７号", "url": "https://www.kaigokensaku.mhlw.go.jp/34/index.php?action_kouhyou_detail_004_kani=true&JigyosyoCd=3470105051-00&ServiceCd=332&Type=search", "url2": "http://www.kanbemura.jp" }, "geometry": { "type": "Point", "coordinates": [ 132.510919, 34.5243589 ] } },
{ "type": "Feature", "properties": { "内容": "ケアハウス五日市グリーンヒルホーム【特定施設入居者生活介護（軽費老人ホーム）】広島市佐伯区五日市町下河内591-1", "url": "https://www.kaigokensaku.mhlw.go.jp/34/index.php?action_kouhyou_detail_004_kani=true&JigyosyoCd=3470208756-00&ServiceCd=332&Type=search", "url2": null }, "geometry": { "type": "Point", "coordinates": [ 132.353138100000024, 34.4085153 ] } },
{ "type": "Feature", "properties": { "内容": "ケアハウス花みずき【特定施設入居者生活介護（軽費老人ホーム）】呉市阿賀北3丁目4番11号", "url": "https://www.kaigokensaku.mhlw.go.jp/34/index.php?action_kouhyou_detail_004_kani=true&JigyosyoCd=3470502307-00&ServiceCd=332&Type=search", "url2": "http://www.aieikai.jp/facilities.html" }, "geometry": { "type": "Point", "coordinates": [ 132.59136860000001, 34.2514489 ] } },
{ "type": "Feature", "properties": { "内容": "特定施設入所者生活介護事業所サンライズ港町【特定施設入居者生活介護（軽費老人ホーム）】三原市港町一丁目3番22号サンライズ港町", "url": "https://www.kaigokensaku.mhlw.go.jp/34/index.php?action_kouhyou_detail_004_kani=true&JigyosyoCd=3470900766-00&ServiceCd=332&Type=search", "url2": "http://www.snrs.or.jp" }, "geometry": { "type": "Point", "coordinates": [ 133.080882400000064, 34.3997107 ] } },
{ "type": "Feature", "properties": { "内容": "特定施設入居者生活介護　向島ケアハウス【特定施設入居者生活介護（軽費老人ホーム）】尾道市向島町15644番地", "url": "https://www.kaigokensaku.mhlw.go.jp/34/index.php?action_kouhyou_detail_004_kani=true&JigyosyoCd=3471101976-00&ServiceCd=332&Type=search", "url2": "https://m-care-mutsumikai.net/" }, "geometry": { "type": "Point", "coordinates": [ 133.182896600000049, 34.3641911 ] } },
{ "type": "Feature", "properties": { "内容": "ケアハウス鞆の浦【特定施設入居者生活介護（軽費老人ホーム）】福山市田尻町4115番地", "url": "https://www.kaigokensaku.mhlw.go.jp/34/index.php?action_kouhyou_detail_004_kani=true&JigyosyoCd=3471506851-00&ServiceCd=332&Type=search", "url2": "https://www.harumikai.jp" }, "geometry": { "type": "Point", "coordinates": [ 133.381229800000028, 34.4077597 ] } },
{ "type": "Feature", "properties": { "内容": "ケアハウスエクセル福山【特定施設入居者生活介護（軽費老人ホーム）】広島県福山市水呑町三新田二丁目１番地エクセル福山", "url": "https://www.kaigokensaku.mhlw.go.jp/34/index.php?action_kouhyou_detail_004_kani=true&JigyosyoCd=3471507099-00&ServiceCd=332&Type=search", "url2": "https://www.harumikai.jp" }, "geometry": { "type": "Point", "coordinates": [ 133.387926399999969, 34.4473812 ] } },
{ "type": "Feature", "properties": { "内容": "ケアハウス福山【特定施設入居者生活介護（軽費老人ホーム）】広島県福山市駅家町万能倉96-1備後の里", "url": "https://www.kaigokensaku.mhlw.go.jp/34/index.php?action_kouhyou_detail_004_kani=true&JigyosyoCd=3471509087-00&ServiceCd=332&Type=search", "url2": "https://bingonosato.jp/bingo/fukuyama.php" }, "geometry": { "type": "Point", "coordinates": [ 133.340779800000064, 34.5438709 ] } },
{ "type": "Feature", "properties": { "内容": "ケアハウス蔵王すみれケア【特定施設入居者生活介護（軽費老人ホーム）】広島県福山市蔵王町3442-1ケアハウス蔵王すみれケア", "url": "https://www.kaigokensaku.mhlw.go.jp/34/index.php?action_kouhyou_detail_004_kani=true&JigyosyoCd=3471510572-00&ServiceCd=332&Type=search", "url2": "https://www.sumire-fukushi-chugoku.jp/facility/z_care.php" }, "geometry": { "type": "Point", "coordinates": [ 133.397896226983619, 34.515574745017915 ] } },
{ "type": "Feature", "properties": { "内容": "特定施設入居者生活介護事業所吉舎【特定施設入居者生活介護（軽費老人ホーム）】三次市吉舎町吉舎６０６番地", "url": "https://www.kaigokensaku.mhlw.go.jp/34/index.php?action_kouhyou_detail_004_kani=true&JigyosyoCd=3471900567-00&ServiceCd=332&Type=search", "url2": "http://www.yuukifukushikai.com" }, "geometry": { "type": "Point", "coordinates": [ 132.992868700000031, 34.7142669 ] } },
{ "type": "Feature", "properties": { "内容": "菩提樹【特定施設入居者生活介護（軽費老人ホーム）】三次市山家町620-1", "url": "https://www.kaigokensaku.mhlw.go.jp/34/index.php?action_kouhyou_detail_004_kani=true&JigyosyoCd=3471900831-00&ServiceCd=332&Type=search", "url2": "http://jishokai.jp/" }, "geometry": { "type": "Point", "coordinates": [ 132.837526700000012, 34.8475074 ] } },
{ "type": "Feature", "properties": { "内容": "特定施設入所者生活介護事業所永楽荘【特定施設入居者生活介護（軽費老人ホーム）】庄原市口和町永田413番地", "url": "https://www.kaigokensaku.mhlw.go.jp/34/index.php?action_kouhyou_detail_004_kani=true&JigyosyoCd=3474900267-00&ServiceCd=332&Type=search", "url2": "http://kuchiwa-fukushikai.jp" }, "geometry": { "type": "Point", "coordinates": [ 132.9184017, 34.8880631 ] } },
{ "type": "Feature", "properties": { "内容": "ケアハウス　赤崎さざなみ荘【特定施設入居者生活介護（軽費老人ホーム）】東広島市安芸津町木谷5533番地1", "url": "https://www.kaigokensaku.mhlw.go.jp/34/index.php?action_kouhyou_detail_004_kani=true&JigyosyoCd=3472502164-00&ServiceCd=332&Type=search", "url2": "https://www.kidanikai.com/" }, "geometry": { "type": "Point", "coordinates": [ 132.847640599999977, 34.2986995 ] } },
{ "type": "Feature", "properties": { "内容": "ケアハウス・こようの里　親和園【特定施設入居者生活介護（軽費老人ホーム）】広島県江田島市江田島町小用三丁目28－1", "url": "https://www.kaigokensaku.mhlw.go.jp/34/index.php?action_kouhyou_detail_004_kani=true&JigyosyoCd=3475000075-00&ServiceCd=332&Type=search", "url2": "http://katsugikai.jp/sinna.html" }, "geometry": { "type": "Point", "coordinates": [ 132.494702700000062, 34.259751 ] } }
]
}
