{
"type": "FeatureCollection",
"name": "geo_34_小規模多機能型居宅介護",
"crs": { "type": "name", "properties": { "name": "urn:ogc:def:crs:OGC:1.3:CRS84" } },
"features": [
{ "type": "Feature", "properties": { "内容": "サンキ・ウエルビィ小規模多機能センター江波【小規模多機能型居宅介護】広島県広島市中区江波二本松一丁目１０番３号ウエルビィ江波", "url": "https://www.kaigokensaku.mhlw.go.jp/34/index.php?action_kouhyou_detail_004_kani=true&JigyosyoCd=3490200619-00&ServiceCd=730&Type=search", "url2": null }, "geometry": { "type": "Point", "coordinates": [ 132.43209939999997, 34.3692877 ] } },
{ "type": "Feature", "properties": { "内容": "サンキ・ウエルビィ　小規模多機能センター吉島【小規模多機能型居宅介護】広島県広島市中区光南四丁目5番1号", "url": "https://www.kaigokensaku.mhlw.go.jp/34/index.php?action_kouhyou_detail_004_kani=true&JigyosyoCd=3490200668-00&ServiceCd=730&Type=search", "url2": null }, "geometry": { "type": "Point", "coordinates": [ 132.44613789999994, 34.3661464 ] } },
{ "type": "Feature", "properties": { "内容": "小規模多機能ホーム舟入【小規模多機能型居宅介護】広島市中区舟入川口町17番4号", "url": "https://www.kaigokensaku.mhlw.go.jp/34/index.php?action_kouhyou_detail_004_kani=true&JigyosyoCd=3490200080-00&ServiceCd=730&Type=search", "url2": "http://www.matuko.biz" }, "geometry": { "type": "Point", "coordinates": [ 132.441830212303074, 34.380256734129063 ] } },
{ "type": "Feature", "properties": { "内容": "悠悠タウン基町小規模多機能型居宅介護事業所【小規模多機能型居宅介護】広島県広島市中区基町18－2－1", "url": "https://www.kaigokensaku.mhlw.go.jp/34/index.php?action_kouhyou_detail_004_kani=true&JigyosyoCd=3490201534-00&ServiceCd=730&Type=search", "url2": "https://www.city.hiroshima.med.or.jp/hma/youyou/index.html" }, "geometry": { "type": "Point", "coordinates": [ 132.455286199999989, 34.4028388 ] } },
{ "type": "Feature", "properties": { "内容": "総合ケアげんき【小規模多機能型居宅介護】広島市東区馬木4-2122-1", "url": "https://www.kaigokensaku.mhlw.go.jp/34/index.php?action_kouhyou_detail_004_kani=true&JigyosyoCd=3490100074-00&ServiceCd=730&Type=search", "url2": "https://www.joukou.or.jp/" }, "geometry": { "type": "Point", "coordinates": [ 132.53259520000006, 34.4384769 ] } },
{ "type": "Feature", "properties": { "内容": "ニックスマルチケア東【小規模多機能型居宅介護】広島県広島市東区尾長東2-6-22-101", "url": "https://www.kaigokensaku.mhlw.go.jp/34/index.php?action_kouhyou_detail_004_kani=true&JigyosyoCd=3490101031-00&ServiceCd=730&Type=search", "url2": "http://www.nix-net.co.jp" }, "geometry": { "type": "Point", "coordinates": [ 132.490253899999971, 34.3981019 ] } },
{ "type": "Feature", "properties": { "内容": "小規模多機能型ホームでしお【小規模多機能型居宅介護】広島市南区出汐1丁目4-16", "url": "https://www.kaigokensaku.mhlw.go.jp/34/index.php?action_kouhyou_detail_004_kani=true&JigyosyoCd=3490100496-00&ServiceCd=730&Type=search", "url2": "https://www.nexus-g.jp/business/nursing-farewell/" }, "geometry": { "type": "Point", "coordinates": [ 132.4766492, 34.3802844 ] } },
{ "type": "Feature", "properties": { "内容": "小規模多機能ホームなだの郷【小規模多機能型居宅介護】広島市南区青崎2丁目15番2号", "url": "https://www.kaigokensaku.mhlw.go.jp/34/index.php?action_kouhyou_detail_004_kani=true&JigyosyoCd=3490100561-00&ServiceCd=730&Type=search", "url2": "http://www7b.biglobe.ne.jp/~hyakuju-nadanosato/" }, "geometry": { "type": "Point", "coordinates": [ 132.508689919817016, 34.371960605597906 ] } },
{ "type": "Feature", "properties": { "内容": "コープ小規模多機能観音＜ねぎ畑＞【小規模多機能型居宅介護】広島市西区南観音5-12-9", "url": "https://www.kaigokensaku.mhlw.go.jp/34/index.php?action_kouhyou_detail_004_kani=true&JigyosyoCd=3490200056-00&ServiceCd=730&Type=search", "url2": null }, "geometry": { "type": "Point", "coordinates": [ 132.423838199999977, 34.3813727 ] } },
{ "type": "Feature", "properties": { "内容": "小規模多機能ホーム鈴が台・みどりの家【小規模多機能型居宅介護】広島県広島市西区井口鈴が台1-11-19", "url": "https://www.kaigokensaku.mhlw.go.jp/34/index.php?action_kouhyou_detail_004_kani=true&JigyosyoCd=3490201070-00&ServiceCd=730&Type=search", "url2": "https://epocacs.co.jp/" }, "geometry": { "type": "Point", "coordinates": [ 132.382238199999961, 34.3729454 ] } },
{ "type": "Feature", "properties": { "内容": "コープ小規模多機能・田方【小規模多機能型居宅介護】広島県広島市西区田方一丁目20番21-22号", "url": "https://www.kaigokensaku.mhlw.go.jp/34/index.php?action_kouhyou_detail_004_kani=true&JigyosyoCd=3490201427-00&ServiceCd=730&Type=search", "url2": null }, "geometry": { "type": "Point", "coordinates": [ 132.398414699999989, 34.3846785 ] } },
{ "type": "Feature", "properties": { "内容": "小規模多機能ホームあかり【小規模多機能型居宅介護】広島市西区三滝本町２丁目1-1-27", "url": "https://www.kaigokensaku.mhlw.go.jp/34/index.php?action_kouhyou_detail_004_kani=true&JigyosyoCd=3490200353-00&ServiceCd=730&Type=search", "url2": "https://www.mitakien.net" }, "geometry": { "type": "Point", "coordinates": [ 132.4496858, 34.4199608 ] } },
{ "type": "Feature", "properties": { "内容": "ワンズホーム【小規模多機能型居宅介護】広島県広島市西区己斐中一丁目3番18-4号", "url": "https://www.kaigokensaku.mhlw.go.jp/34/index.php?action_kouhyou_detail_004_kani=true&JigyosyoCd=3490200981-00&ServiceCd=730&Type=search", "url2": "http://www.1s-house.jp/" }, "geometry": { "type": "Point", "coordinates": [ 132.428361621871431, 34.399047988108954 ] } },
{ "type": "Feature", "properties": { "内容": "小規模多機能型居宅介護事業所川内【小規模多機能型居宅介護】広島県広島市安佐南川内5丁目1-49すまいる川内", "url": "https://www.kaigokensaku.mhlw.go.jp/34/index.php?action_kouhyou_detail_004_kani=true&JigyosyoCd=3490200882-00&ServiceCd=730&Type=search", "url2": "http://npokizuna.jp/" }, "geometry": { "type": "Point", "coordinates": [ 132.488939100000039, 34.4669706 ] } },
{ "type": "Feature", "properties": { "内容": "小規模多機能ホームなのか【小規模多機能型居宅介護】広島市安佐南区古市三丁目4番5号", "url": "https://www.kaigokensaku.mhlw.go.jp/34/index.php?action_kouhyou_detail_004_kani=true&JigyosyoCd=3490200262-00&ServiceCd=730&Type=search", "url2": "http://matuko,biz" }, "geometry": { "type": "Point", "coordinates": [ 132.469377500000064, 34.4520689 ] } },
{ "type": "Feature", "properties": { "内容": "ＩＧＬ小規模多機能型居宅介護西風新都【小規模多機能型居宅介護】広島市安佐南区大塚西２丁目5-8", "url": "https://www.kaigokensaku.mhlw.go.jp/34/index.php?action_kouhyou_detail_004_kani=true&JigyosyoCd=3490200346-00&ServiceCd=730&Type=search", "url2": "http://www.igl.or.jp/kourei/syoukibo.html" }, "geometry": { "type": "Point", "coordinates": [ 132.4044798, 34.4466735 ] } },
{ "type": "Feature", "properties": { "内容": "サンキ・ウエルビィ　小規模多機能センター祇園【小規模多機能型居宅介護】広島県広島市安佐南区山本四丁目１１番２４号", "url": "https://www.kaigokensaku.mhlw.go.jp/34/index.php?action_kouhyou_detail_004_kani=true&JigyosyoCd=3490200411-00&ServiceCd=730&Type=search", "url2": null }, "geometry": { "type": "Point", "coordinates": [ 132.448759900000027, 34.4374508 ] } },
{ "type": "Feature", "properties": { "内容": "小規模多機能センター緑井【小規模多機能型居宅介護】広島市安佐南区緑井七丁目5番11号", "url": "https://www.kaigokensaku.mhlw.go.jp/34/index.php?action_kouhyou_detail_004_kani=true&JigyosyoCd=3490200874-00&ServiceCd=730&Type=search", "url2": "http://midorii.jp/midorii/midorii/index.html" }, "geometry": { "type": "Point", "coordinates": [ 132.481089600000018, 34.4727003 ] } },
{ "type": "Feature", "properties": { "内容": "小規模多機能ホームおおまち【小規模多機能型居宅介護】広島県広島市安佐南区大町東二丁目11－4－2ライフサポートセンターおおまち", "url": "https://www.kaigokensaku.mhlw.go.jp/34/index.php?action_kouhyou_detail_004_kani=true&JigyosyoCd=3490201120-00&ServiceCd=730&Type=search", "url2": "http://matuko.biz" }, "geometry": { "type": "Point", "coordinates": [ 132.469018598811374, 34.460303115145742 ] } },
{ "type": "Feature", "properties": { "内容": "小規模多機能型居宅介護事業所　つどいの家【小規模多機能型居宅介護】広島市安佐南区緑井二丁目12番25号", "url": "https://www.kaigokensaku.mhlw.go.jp/34/index.php?action_kouhyou_detail_004_kani=true&JigyosyoCd=3490200098-00&ServiceCd=730&Type=search", "url2": "http://www.asuka-net.or.jp" }, "geometry": { "type": "Point", "coordinates": [ 132.470185099999981, 34.4675117 ] } },
{ "type": "Feature", "properties": { "内容": "ニチイケアセンター広島東原【小規模多機能型居宅介護】広島県広島市安佐南区東原2-8-12", "url": "https://www.kaigokensaku.mhlw.go.jp/34/index.php?action_kouhyou_detail_004_kani=true&JigyosyoCd=3490200437-00&ServiceCd=730&Type=search", "url2": "http://www.nichiigakkan.co.jp/" }, "geometry": { "type": "Point", "coordinates": [ 132.481541, 34.443181 ] } },
{ "type": "Feature", "properties": { "内容": "小規模多機能ふれあい協同【小規模多機能型居宅介護】広島県広島市安佐南区西原九丁目８番２２号", "url": "https://www.kaigokensaku.mhlw.go.jp/34/index.php?action_kouhyou_detail_004_kani=true&JigyosyoCd=3490200973-00&ServiceCd=730&Type=search", "url2": "http://www.hiroshimairyo.coop/kyodo/" }, "geometry": { "type": "Point", "coordinates": [ 132.4719053, 34.44705 ] } },
{ "type": "Feature", "properties": { "内容": "小規模多機能ホームとまとやすにし【小規模多機能型居宅介護】広島県広島市安佐南区高取南一丁目26番21号", "url": "https://www.kaigokensaku.mhlw.go.jp/34/index.php?action_kouhyou_detail_004_kani=true&JigyosyoCd=3490200932-00&ServiceCd=730&Type=search", "url2": "http://www.salute.co.jp/" }, "geometry": { "type": "Point", "coordinates": [ 132.437986658231694, 34.471366379985447 ] } },
{ "type": "Feature", "properties": { "内容": "小規模多機能施設　菜の花【小規模多機能型居宅介護】広島市安佐北区可部町南原340-1", "url": "https://www.kaigokensaku.mhlw.go.jp/34/index.php?action_kouhyou_detail_004_kani=true&JigyosyoCd=3490100231-00&ServiceCd=730&Type=search", "url2": "https://nanohana-kabe.com/" }, "geometry": { "type": "Point", "coordinates": [ 132.515507100000036, 34.545301 ] } },
{ "type": "Feature", "properties": { "内容": "縁が和【小規模多機能型居宅介護】広島県広島市安佐北区亀山南二丁目３番２７号", "url": "https://www.kaigokensaku.mhlw.go.jp/34/index.php?action_kouhyou_detail_004_kani=true&JigyosyoCd=3490100777-00&ServiceCd=730&Type=search", "url2": "https://www.engawa-cc.com/" }, "geometry": { "type": "Point", "coordinates": [ 132.496632, 34.5181592 ] } },
{ "type": "Feature", "properties": { "内容": "小規模多機能センター落合南【小規模多機能型居宅介護】広島県広島市安佐北区落合南九丁目5番20号", "url": "https://www.kaigokensaku.mhlw.go.jp/34/index.php?action_kouhyou_detail_004_kani=true&JigyosyoCd=3490100884-00&ServiceCd=730&Type=search", "url2": "http://midorii.jp/ochiai/otiaiminami/index.html" }, "geometry": { "type": "Point", "coordinates": [ 132.525227633204622, 34.476412555203325 ] } },
{ "type": "Feature", "properties": { "内容": "小規模多機能センター山まゆ【小規模多機能型居宅介護】広島県広島市安佐北区可部南３丁目１０－１９", "url": "https://www.kaigokensaku.mhlw.go.jp/34/index.php?action_kouhyou_detail_004_kani=true&JigyosyoCd=3490100728-00&ServiceCd=730&Type=search", "url2": "http://kabedaimonjikai.or.jp/" }, "geometry": { "type": "Point", "coordinates": [ 132.515214679762266, 34.501346565854405 ] } },
{ "type": "Feature", "properties": { "内容": "小規模多機能ホームとまとあきやぐち【小規模多機能型居宅介護】広島県広島市安佐北区口田一丁目16番38号", "url": "https://www.kaigokensaku.mhlw.go.jp/34/index.php?action_kouhyou_detail_004_kani=true&JigyosyoCd=3490100645-00&ServiceCd=730&Type=search", "url2": "http://www.salute.co.jp/" }, "geometry": { "type": "Point", "coordinates": [ 132.495647100000042, 34.4639461 ] } },
{ "type": "Feature", "properties": { "内容": "小規模多機能型居宅介護事業所　SHIRAKI梯【小規模多機能型居宅介護】広島県広島市安佐北区白木町小越２番", "url": "https://www.kaigokensaku.mhlw.go.jp/34/index.php?action_kouhyou_detail_004_kani=true&JigyosyoCd=3490101262-00&ServiceCd=730&Type=search", "url2": "http://www.misasakai.or.jp/shisetsu/izumi.php" }, "geometry": { "type": "Point", "coordinates": [ 132.6627024, 34.5497991 ] } },
{ "type": "Feature", "properties": { "内容": "小規模多機能型居宅介護　響【小規模多機能型居宅介護】広島県安芸区矢野西3-1-11", "url": "https://www.kaigokensaku.mhlw.go.jp/34/index.php?action_kouhyou_detail_004_kani=true&JigyosyoCd=3490100991-00&ServiceCd=730&Type=search", "url2": "http://www.kounankai.jp" }, "geometry": { "type": "Point", "coordinates": [ 132.524951399999964, 34.3485867 ] } },
{ "type": "Feature", "properties": { "内容": "小規模多機能型居宅介護施設輝きゆきの家【小規模多機能型居宅介護】広島県広島市佐伯区湯来町白砂423‐2", "url": "https://www.kaigokensaku.mhlw.go.jp/34/index.php?action_kouhyou_detail_004_kani=true&JigyosyoCd=3490201500-00&ServiceCd=730&Type=search", "url2": "http://steer-care.co.jp" }, "geometry": { "type": "Point", "coordinates": [ 132.28199, 34.4159552 ] } },
{ "type": "Feature", "properties": { "内容": "小規模多機能　アイリーフ八幡の里【小規模多機能型居宅介護】広島市佐伯区八幡二丁目23番15号", "url": "https://www.kaigokensaku.mhlw.go.jp/34/index.php?action_kouhyou_detail_004_kani=true&JigyosyoCd=3490200122-00&ServiceCd=730&Type=search", "url2": "http://www.ilief.jp" }, "geometry": { "type": "Point", "coordinates": [ 132.355390400000033, 34.3894982 ] } },
{ "type": "Feature", "properties": { "内容": "小規模多機能型居宅介護施設　佐伯・楽々苑【小規模多機能型居宅介護】広島県広島市佐伯区楽々園二丁目1番34号しらさきビル", "url": "https://www.kaigokensaku.mhlw.go.jp/34/index.php?action_kouhyou_detail_004_kani=true&JigyosyoCd=3490201112-00&ServiceCd=730&Type=search", "url2": "https://www.ykbs-group.jp/" }, "geometry": { "type": "Point", "coordinates": [ 132.352598899999947, 34.3641232 ] } },
{ "type": "Feature", "properties": { "内容": "小規模多機能ホーム五日市・みどりの家【小規模多機能型居宅介護】広島県広島市佐伯区五日市中央5丁目1-18", "url": "https://www.kaigokensaku.mhlw.go.jp/34/index.php?action_kouhyou_detail_004_kani=true&JigyosyoCd=3490201328-00&ServiceCd=730&Type=search", "url2": "https://epocacs.co.jp/" }, "geometry": { "type": "Point", "coordinates": [ 132.357712499999934, 34.375217 ] } },
{ "type": "Feature", "properties": { "内容": "介護の助さん薬師が丘【小規模多機能型居宅介護】薬師が丘3丁目5-31", "url": "https://www.kaigokensaku.mhlw.go.jp/34/index.php?action_kouhyou_detail_004_kani=true&JigyosyoCd=3490201815-00&ServiceCd=730&Type=search", "url2": "http://kaigonosukesan.jimdofree.com" }, "geometry": { "type": "Point", "coordinates": [ 132.3486775, 34.3968954 ] } },
{ "type": "Feature", "properties": { "内容": "特定非営利活動法人　芸南たすけあい　小規模多機能型居宅介護事業所　ひばりヶ丘【小規模多機能型居宅介護】呉市焼山ひばりヶ丘町１－１２", "url": "https://www.kaigokensaku.mhlw.go.jp/34/index.php?action_kouhyou_detail_004_kani=true&JigyosyoCd=3490500075-00&ServiceCd=730&Type=search", "url2": "http://www.geinan.org" }, "geometry": { "type": "Point", "coordinates": [ 132.5509227, 34.2781663 ] } },
{ "type": "Feature", "properties": { "内容": "サンキ・ウエルビィ小規模多機能センター呉【小規模多機能型居宅介護】広島県呉市広古新開8丁目34番16号", "url": "https://www.kaigokensaku.mhlw.go.jp/34/index.php?action_kouhyou_detail_004_kani=true&JigyosyoCd=3490500224-00&ServiceCd=730&Type=search", "url2": null }, "geometry": { "type": "Point", "coordinates": [ 132.623980800000027, 34.2420033 ] } },
{ "type": "Feature", "properties": { "内容": "小規模多機能型居宅介護事業所　初音の家【小規模多機能型居宅介護】呉市警固屋１－１７－１", "url": "https://www.kaigokensaku.mhlw.go.jp/34/index.php?action_kouhyou_detail_004_kani=true&JigyosyoCd=3490500158-00&ServiceCd=730&Type=search", "url2": null }, "geometry": { "type": "Point", "coordinates": [ 132.549392265715028, 34.219191717863914 ] } },
{ "type": "Feature", "properties": { "内容": "小規模多機能型居宅介護事業所　常夏の家【小規模多機能型居宅介護】広島県呉市倉橋町石持154-1", "url": "https://www.kaigokensaku.mhlw.go.jp/34/index.php?action_kouhyou_detail_004_kani=true&JigyosyoCd=3490500240-00&ServiceCd=730&Type=search", "url2": null }, "geometry": { "type": "Point", "coordinates": [ 132.515856287881547, 34.097564372573764 ] } },
{ "type": "Feature", "properties": { "内容": "小規模多機能ホーム　べたにあ【小規模多機能型居宅介護】呉市中通四丁目9番17号", "url": "https://www.kaigokensaku.mhlw.go.jp/34/index.php?action_kouhyou_detail_004_kani=true&JigyosyoCd=3490500117-00&ServiceCd=730&Type=search", "url2": "http://www.bethania.or.jp" }, "geometry": { "type": "Point", "coordinates": [ 132.56759777028384, 34.247257807189641 ] } },
{ "type": "Feature", "properties": { "内容": "小規模多機能型居宅介護事業所　ぱーちぇ【小規模多機能型居宅介護】広島県呉市吉浦中町2-7-9", "url": "https://www.kaigokensaku.mhlw.go.jp/34/index.php?action_kouhyou_detail_004_kani=true&JigyosyoCd=3490500216-00&ServiceCd=730&Type=search", "url2": "https://st-pache.wixsite.com/2022" }, "geometry": { "type": "Point", "coordinates": [ 132.530460599999969, 34.2610518 ] } },
{ "type": "Feature", "properties": { "内容": "ドリームハウス聖恵【小規模多機能型居宅介護】竹原市忠海中町３丁目１５番７号", "url": "https://www.kaigokensaku.mhlw.go.jp/34/index.php?action_kouhyou_detail_004_kani=true&JigyosyoCd=3490700022-00&ServiceCd=730&Type=search", "url2": "http://www.seikeikai.ecweb.jp" }, "geometry": { "type": "Point", "coordinates": [ 132.985877822445673, 34.343275828643087 ] } },
{ "type": "Feature", "properties": { "内容": "小規模多機能型居宅介護事業所　宮浦西【小規模多機能型居宅介護】広島県三原市宮浦六丁目28番9号", "url": "https://www.kaigokensaku.mhlw.go.jp/34/index.php?action_kouhyou_detail_004_kani=true&JigyosyoCd=3490900093-00&ServiceCd=730&Type=search", "url2": "http://npokizuna.jp/" }, "geometry": { "type": "Point", "coordinates": [ 133.05846740000004, 34.391092 ] } },
{ "type": "Feature", "properties": { "内容": "小規模多機能型居宅介護事業所幸崎【小規模多機能型居宅介護】三原市幸崎能地３丁目２０－２１", "url": "https://www.kaigokensaku.mhlw.go.jp/34/index.php?action_kouhyou_detail_004_kani=true&JigyosyoCd=3490900226-00&ServiceCd=730&Type=search", "url2": "http://npokizuna.jp/" }, "geometry": { "type": "Point", "coordinates": [ 133.03625969999996, 34.340497800000016 ] } },
{ "type": "Feature", "properties": { "内容": "小規模多機能ホーム笑顔みはら【小規模多機能型居宅介護】広島県三原市沼田西町小原494番地1", "url": "https://www.kaigokensaku.mhlw.go.jp/34/index.php?action_kouhyou_detail_004_kani=true&JigyosyoCd=3490900028-00&ServiceCd=730&Type=search", "url2": "https://tots.jp/" }, "geometry": { "type": "Point", "coordinates": [ 132.992090500000018, 34.4013068 ] } },
{ "type": "Feature", "properties": { "内容": "小規模多機能ホーム　笑顔くい【小規模多機能型居宅介護】三原市久井町下津1614-1", "url": "https://www.kaigokensaku.mhlw.go.jp/34/index.php?action_kouhyou_detail_004_kani=true&JigyosyoCd=3490900069-00&ServiceCd=730&Type=search", "url2": "http://www.tots.jp" }, "geometry": { "type": "Point", "coordinates": [ 133.0373813, 34.5324314 ] } },
{ "type": "Feature", "properties": { "内容": "小規模多機能ホーム笑顔みなみ【小規模多機能型居宅介護】三原市皆実四丁目11番25号", "url": "https://www.kaigokensaku.mhlw.go.jp/34/index.php?action_kouhyou_detail_004_kani=true&JigyosyoCd=3490900119-00&ServiceCd=730&Type=search", "url2": "https://tots.jp/institution/detail.php?id=37" }, "geometry": { "type": "Point", "coordinates": [ 133.070872, 34.3932114 ] } },
{ "type": "Feature", "properties": { "内容": "小規模多機能ホームふぁみりぃ中之町【小規模多機能型居宅介護】広島県三原市中之町3丁目7番1号", "url": "https://www.kaigokensaku.mhlw.go.jp/34/index.php?action_kouhyou_detail_004_kani=true&JigyosyoCd=3490900200-00&ServiceCd=730&Type=search", "url2": "http://www.tots.jp" }, "geometry": { "type": "Point", "coordinates": [ 133.103392747221392, 34.414255915551877 ] } },
{ "type": "Feature", "properties": { "内容": "小規模多機能ホーム　笑顔わだ【小規模多機能型居宅介護】三原市和田１丁目2番6号小規模多機能ホーム　笑顔わだ", "url": "https://www.kaigokensaku.mhlw.go.jp/34/index.php?action_kouhyou_detail_004_kani=true&JigyosyoCd=3490900218-00&ServiceCd=730&Type=search", "url2": "http://www.tots.jp/" }, "geometry": { "type": "Point", "coordinates": [ 133.072899804368603, 34.386390584219704 ] } },
{ "type": "Feature", "properties": { "内容": "サンキ・ウエルビィ小規模多機能センター三原【小規模多機能型居宅介護】広島県三原市古浜二丁目3番11号", "url": "https://www.kaigokensaku.mhlw.go.jp/34/index.php?action_kouhyou_detail_004_kani=true&JigyosyoCd=3490900242-00&ServiceCd=730&Type=search", "url2": null }, "geometry": { "type": "Point", "coordinates": [ 133.090595600000029, 34.3966695 ] } },
{ "type": "Feature", "properties": { "内容": "小規模多機能型居宅介護サンライズみらい【小規模多機能型居宅介護】広島県三原市城町一丁目24番5号サンライズみらい", "url": "https://www.kaigokensaku.mhlw.go.jp/34/index.php?action_kouhyou_detail_004_kani=true&JigyosyoCd=3490900044-00&ServiceCd=730&Type=search", "url2": "http://www.snrs.or.jp/" }, "geometry": { "type": "Point", "coordinates": [ 133.085262356214344, 34.39998701381483 ] } },
{ "type": "Feature", "properties": { "内容": "医療法人　仁康会　クレメンティア　さくら【小規模多機能型居宅介護】広島県三原市下北方1丁目７番29号", "url": "https://www.kaigokensaku.mhlw.go.jp/34/index.php?action_kouhyou_detail_004_kani=true&JigyosyoCd=3490900085-00&ServiceCd=730&Type=search", "url2": "https://www.jinkokai.jp/" }, "geometry": { "type": "Point", "coordinates": [ 132.974579100000028, 34.4064534 ] } },
{ "type": "Feature", "properties": { "内容": "トータル・ケアサンライズ新倉【小規模多機能型居宅介護】三原市新倉三丁目4番14号", "url": "https://www.kaigokensaku.mhlw.go.jp/34/index.php?action_kouhyou_detail_004_kani=true&JigyosyoCd=3490900127-00&ServiceCd=730&Type=search", "url2": "http://www.snrs.or.jp" }, "geometry": { "type": "Point", "coordinates": [ 133.0452017, 34.3970245 ] } },
{ "type": "Feature", "properties": { "内容": "星の里・にしざこの家【小規模多機能型居宅介護】尾道市吉和町5116－1", "url": "https://www.kaigokensaku.mhlw.go.jp/34/index.php?action_kouhyou_detail_004_kani=true&JigyosyoCd=3491100081-00&ServiceCd=730&Type=search", "url2": "http://www.satukikai.com" }, "geometry": { "type": "Point", "coordinates": [ 133.163102400000071, 34.4038678 ] } },
{ "type": "Feature", "properties": { "内容": "小規模多機能ホームふぁみりぃ向東【小規模多機能型居宅介護】尾道市向東町1346-1", "url": "https://www.kaigokensaku.mhlw.go.jp/34/index.php?action_kouhyou_detail_004_kani=true&JigyosyoCd=3491100164-00&ServiceCd=730&Type=search", "url2": "http://www.tots.jp" }, "geometry": { "type": "Point", "coordinates": [ 133.208211099999971, 34.3943603 ] } },
{ "type": "Feature", "properties": { "内容": "星の里小規模多機能型居宅介護事業所【小規模多機能型居宅介護】広島県尾道市久保町1856番地", "url": "https://www.kaigokensaku.mhlw.go.jp/34/index.php?action_kouhyou_detail_004_kani=true&JigyosyoCd=3491100297-00&ServiceCd=730&Type=search", "url2": "http://www.satukikai.com/" }, "geometry": { "type": "Point", "coordinates": [ 133.211768729946925, 34.420792919364928 ] } },
{ "type": "Feature", "properties": { "内容": "ゆずっこホームむかい島【小規模多機能型居宅介護】広島県尾道市向島町5794-1", "url": "https://www.kaigokensaku.mhlw.go.jp/34/index.php?action_kouhyou_detail_004_kani=true&JigyosyoCd=3491100511-00&ServiceCd=730&Type=search", "url2": "https://yuzucco.com/" }, "geometry": { "type": "Point", "coordinates": [ 133.192057, 34.39253 ] } },
{ "type": "Feature", "properties": { "内容": "ゆずっこホームみなり【小規模多機能型居宅介護】広島県尾道市美ノ郷町三成1114-1", "url": "https://www.kaigokensaku.mhlw.go.jp/34/index.php?action_kouhyou_detail_004_kani=true&JigyosyoCd=3491100644-00&ServiceCd=730&Type=search", "url2": null }, "geometry": { "type": "Point", "coordinates": [ 133.1989273, 34.4471939 ] } },
{ "type": "Feature", "properties": { "内容": "因島医師会介護支援ホームうみかぜの丘【小規模多機能型居宅介護】尾道市因島中庄町1946番地", "url": "https://www.kaigokensaku.mhlw.go.jp/34/index.php?action_kouhyou_detail_004_kani=true&JigyosyoCd=3491100032-00&ServiceCd=730&Type=search", "url2": null }, "geometry": { "type": "Point", "coordinates": [ 133.153770479762272, 34.313321461879696 ] } },
{ "type": "Feature", "properties": { "内容": "小規模多機能ひまわり倶楽部【小規模多機能型居宅介護】広島県尾道市新浜2丁目８－１１", "url": "https://www.kaigokensaku.mhlw.go.jp/34/index.php?action_kouhyou_detail_004_kani=true&JigyosyoCd=3491100255-00&ServiceCd=730&Type=search", "url2": "http://www.himawari-gr.com" }, "geometry": { "type": "Point", "coordinates": [ 133.176885, 34.4008375 ] } },
{ "type": "Feature", "properties": { "内容": "小規模多機能ホーム　びんご倶楽部　高須【小規模多機能型居宅介護】尾道市高須町西新涯5568番地", "url": "https://www.kaigokensaku.mhlw.go.jp/34/index.php?action_kouhyou_detail_004_kani=true&JigyosyoCd=3491100271-00&ServiceCd=730&Type=search", "url2": "https://breakthrough-co.jp" }, "geometry": { "type": "Point", "coordinates": [ 133.23225530000002, 34.4278405 ] } },
{ "type": "Feature", "properties": { "内容": "小規模多機能ホーム楽生苑みのりの里【小規模多機能型居宅介護】広島県尾道市瀬戸田町林１２６９番地３小規模多機能ホーム楽生苑みのりの里", "url": "https://www.kaigokensaku.mhlw.go.jp/34/index.php?action_kouhyou_detail_004_kani=true&JigyosyoCd=3491100362-00&ServiceCd=730&Type=search", "url2": "http://www.rakusei.or.jp/" }, "geometry": { "type": "Point", "coordinates": [ 133.1064606, 34.3070992 ] } },
{ "type": "Feature", "properties": { "内容": "小規模多機能型居宅介護ようき向島【小規模多機能型居宅介護】広島県尾道市向島町5454番地1", "url": "https://www.kaigokensaku.mhlw.go.jp/34/index.php?action_kouhyou_detail_004_kani=true&JigyosyoCd=3491100404-00&ServiceCd=730&Type=search", "url2": "https://yo-ki.jp/" }, "geometry": { "type": "Point", "coordinates": [ 133.201334299999985, 34.3635247 ] } },
{ "type": "Feature", "properties": { "内容": "小規模ホーム　うらさき【小規模多機能型居宅介護】広島県尾道市浦崎町3598番地1", "url": "https://www.kaigokensaku.mhlw.go.jp/34/index.php?action_kouhyou_detail_004_kani=true&JigyosyoCd=3491100479-00&ServiceCd=730&Type=search", "url2": null }, "geometry": { "type": "Point", "coordinates": [ 133.277930800000036, 34.4147481 ] } },
{ "type": "Feature", "properties": { "内容": "小規模多機能ホーム　ひらり【小規模多機能型居宅介護】広島県尾道市御調町平320番地", "url": "https://www.kaigokensaku.mhlw.go.jp/34/index.php?action_kouhyou_detail_004_kani=true&JigyosyoCd=3491100537-00&ServiceCd=730&Type=search", "url2": null }, "geometry": { "type": "Point", "coordinates": [ 133.1617357, 34.5219813 ] } },
{ "type": "Feature", "properties": { "内容": "こころ庵【小規模多機能型居宅介護】尾道市高須町４７５４番地５", "url": "https://www.kaigokensaku.mhlw.go.jp/34/index.php?action_kouhyou_detail_004_kani=true&JigyosyoCd=3491100073-00&ServiceCd=730&Type=search", "url2": "https://www.happiness-kokoro.com/higashionomichi/kokoroa" }, "geometry": { "type": "Point", "coordinates": [ 133.23594, 34.4375231 ] } },
{ "type": "Feature", "properties": { "内容": "小規模多機能ホーム長江【小規模多機能型居宅介護】広島県尾道市長江二丁目７番８号", "url": "https://www.kaigokensaku.mhlw.go.jp/34/index.php?action_kouhyou_detail_004_kani=true&JigyosyoCd=3491100222-00&ServiceCd=730&Type=search", "url2": "https://nagae.sakura.ne.jp/access.html" }, "geometry": { "type": "Point", "coordinates": [ 133.199834686508211, 34.415213727247085 ] } },
{ "type": "Feature", "properties": { "内容": "こころ庵　尾道駅前【小規模多機能型居宅介護】広島県尾道市土堂一丁目１１番６号こころ尾道駅前ビル7階", "url": "https://www.kaigokensaku.mhlw.go.jp/34/index.php?action_kouhyou_detail_004_kani=true&JigyosyoCd=3491100370-00&ServiceCd=730&Type=search", "url2": "https://www.happiness-kokoro.com/onomichiekimae/kokoroan-onomichis" }, "geometry": { "type": "Point", "coordinates": [ 133.1963892, 34.4058704 ] } },
{ "type": "Feature", "properties": { "内容": "憩の家介護事業所【小規模多機能型居宅介護】尾道市瀬戸田町林1539-1", "url": "https://www.kaigokensaku.mhlw.go.jp/34/index.php?action_kouhyou_detail_004_kani=true&JigyosyoCd=3491100040-00&ServiceCd=730&Type=search", "url2": null }, "geometry": { "type": "Point", "coordinates": [ 133.108585943786352, 34.305152930590779 ] } },
{ "type": "Feature", "properties": { "内容": "小規模多機能ホーム　ひだまり【小規模多機能型居宅介護】広島県尾道市因島中庄町3805番地1", "url": "https://www.kaigokensaku.mhlw.go.jp/34/index.php?action_kouhyou_detail_004_kani=true&JigyosyoCd=3491100131-00&ServiceCd=730&Type=search", "url2": "http://hidamari-yuuki.com/company/" }, "geometry": { "type": "Point", "coordinates": [ 133.163056480859382, 34.33443609084172 ] } },
{ "type": "Feature", "properties": { "内容": "いきいき小規模ホームひかり苑【小規模多機能型居宅介護】尾道市原田町梶山田４０８１－１", "url": "https://www.kaigokensaku.mhlw.go.jp/34/index.php?action_kouhyou_detail_004_kani=true&JigyosyoCd=3491100172-00&ServiceCd=730&Type=search", "url2": "http://www.haradahikarikai.or.jp/" }, "geometry": { "type": "Point", "coordinates": [ 133.212286400000039, 34.4900686 ] } },
{ "type": "Feature", "properties": { "内容": "小規模多機能型居宅介護事業所　仁伍【小規模多機能型居宅介護】福山市木之庄町四丁目4番28号", "url": "https://www.kaigokensaku.mhlw.go.jp/34/index.php?action_kouhyou_detail_004_kani=true&JigyosyoCd=3491500207-00&ServiceCd=730&Type=search", "url2": "http://npokizuna.jp/" }, "geometry": { "type": "Point", "coordinates": [ 133.360879, 34.4968733 ] } },
{ "type": "Feature", "properties": { "内容": "小規模多機能型居宅介護事業所　向永谷【小規模多機能型居宅介護】福山市駅家町向永谷７２－１", "url": "https://www.kaigokensaku.mhlw.go.jp/34/index.php?action_kouhyou_detail_004_kani=true&JigyosyoCd=3491500538-00&ServiceCd=730&Type=search", "url2": "http://npokizuna.jp/" }, "geometry": { "type": "Point", "coordinates": [ 133.301296900000011, 34.535471 ] } },
{ "type": "Feature", "properties": { "内容": "小規模多機能ホーム　レインボー【小規模多機能型居宅介護】福山市東深津町四丁目15-23", "url": "https://www.kaigokensaku.mhlw.go.jp/34/index.php?action_kouhyou_detail_004_kani=true&JigyosyoCd=3491500629-00&ServiceCd=730&Type=search", "url2": null }, "geometry": { "type": "Point", "coordinates": [ 133.386586500000021, 34.488146299999983 ] } },
{ "type": "Feature", "properties": { "内容": "小規模多機能型居宅介護事業所　北本庄【小規模多機能型居宅介護】広島県福山市北本庄三丁目2番31号", "url": "https://www.kaigokensaku.mhlw.go.jp/34/index.php?action_kouhyou_detail_004_kani=true&JigyosyoCd=3491502161-00&ServiceCd=730&Type=search", "url2": "http://npokizuna.jp/?cn=100003" }, "geometry": { "type": "Point", "coordinates": [ 133.3448826, 34.4969293 ] } },
{ "type": "Feature", "properties": { "内容": "小規模多機能ホーム　スマイル千田【小規模多機能型居宅介護】福山市千田町三丁目５２－１４", "url": "https://www.kaigokensaku.mhlw.go.jp/34/index.php?action_kouhyou_detail_004_kani=true&JigyosyoCd=3491500280-00&ServiceCd=730&Type=search", "url2": "http://smile-fukuyama.com/" }, "geometry": { "type": "Point", "coordinates": [ 133.3795745, 34.5213321 ] } },
{ "type": "Feature", "properties": { "内容": "小規模多機能ホーム愛の郷戸手【小規模多機能型居宅介護】福山市新市町戸手２０９４－１", "url": "https://www.kaigokensaku.mhlw.go.jp/34/index.php?action_kouhyou_detail_004_kani=true&JigyosyoCd=3491500710-00&ServiceCd=730&Type=search", "url2": "http://elder-support.com" }, "geometry": { "type": "Point", "coordinates": [ 133.294458299999974, 34.5467948 ] } },
{ "type": "Feature", "properties": { "内容": "小規模多機能ホームひかり【小規模多機能型居宅介護】広島県福山市草戸町三丁目６番１号", "url": "https://www.kaigokensaku.mhlw.go.jp/34/index.php?action_kouhyou_detail_004_kani=true&JigyosyoCd=3491502468-00&ServiceCd=730&Type=search", "url2": "http://www.sanyo.or.jp" }, "geometry": { "type": "Point", "coordinates": [ 133.3591824, 34.4785157 ] } },
{ "type": "Feature", "properties": { "内容": "小規模多機能ホームゆうゆう御幸【小規模多機能型居宅介護】福山市御幸町上岩成７６７番地1", "url": "https://www.kaigokensaku.mhlw.go.jp/34/index.php?action_kouhyou_detail_004_kani=true&JigyosyoCd=3491502476-00&ServiceCd=730&Type=search", "url2": "https://www.careoth-senior.com/yuyu/" }, "geometry": { "type": "Point", "coordinates": [ 133.3414697, 34.5512577 ] } },
{ "type": "Feature", "properties": { "内容": "小規模多機能ホーム愛の郷　神辺【小規模多機能型居宅介護】福山市神辺町上御領３９１－１", "url": "https://www.kaigokensaku.mhlw.go.jp/34/index.php?action_kouhyou_detail_004_kani=true&JigyosyoCd=3491500173-00&ServiceCd=730&Type=search", "url2": "http://elder-support.com" }, "geometry": { "type": "Point", "coordinates": [ 133.404985300000021, 34.5662468 ] } },
{ "type": "Feature", "properties": { "内容": "小規模多機能ホーム　さぼく【小規模多機能型居宅介護】福山市瀬戸町山北465-1", "url": "https://www.kaigokensaku.mhlw.go.jp/34/index.php?action_kouhyou_detail_004_kani=true&JigyosyoCd=3491500256-00&ServiceCd=730&Type=search", "url2": "http://www.tots.jp/" }, "geometry": { "type": "Point", "coordinates": [ 133.315771700000028, 34.4713143 ] } },
{ "type": "Feature", "properties": { "内容": "小規模多機能ホーム　愛の郷引野【小規模多機能型居宅介護】福山市引野町北５丁目２２番１１号", "url": "https://www.kaigokensaku.mhlw.go.jp/34/index.php?action_kouhyou_detail_004_kani=true&JigyosyoCd=3491500314-00&ServiceCd=730&Type=search", "url2": "https://elder-support.com/facilities/" }, "geometry": { "type": "Point", "coordinates": [ 133.426037700000052, 34.5015507 ] } },
{ "type": "Feature", "properties": { "内容": "小規模多機能ホーム愛の郷道上【小規模多機能型居宅介護】福山市神辺町道上1126-1", "url": "https://www.kaigokensaku.mhlw.go.jp/34/index.php?action_kouhyou_detail_004_kani=true&JigyosyoCd=3491500439-00&ServiceCd=730&Type=search", "url2": "http://elder-support.com/" }, "geometry": { "type": "Point", "coordinates": [ 133.356914599999982, 34.5553893 ] } },
{ "type": "Feature", "properties": { "内容": "サンキ・ウエルビィ小規模多機能センター駅家【小規模多機能型居宅介護】広島県福山市駅家町倉光23-6", "url": "https://www.kaigokensaku.mhlw.go.jp/34/index.php?action_kouhyou_detail_004_kani=true&JigyosyoCd=3491500470-00&ServiceCd=730&Type=search", "url2": null }, "geometry": { "type": "Point", "coordinates": [ 133.327747199999976, 34.5440348 ] } },
{ "type": "Feature", "properties": { "内容": "サンキ・ウエルビィ小規模多機能センター山手【小規模多機能型居宅介護】広島県福山市山手町一丁目２番２１号", "url": "https://www.kaigokensaku.mhlw.go.jp/34/index.php?action_kouhyou_detail_004_kani=true&JigyosyoCd=3491500488-00&ServiceCd=730&Type=search", "url2": null }, "geometry": { "type": "Point", "coordinates": [ 133.329767100000026, 34.4915733 ] } },
{ "type": "Feature", "properties": { "内容": "小規模多機能ホーム笑顔【小規模多機能型居宅介護】広島県福山市神辺町十三軒屋161-1", "url": "https://www.kaigokensaku.mhlw.go.jp/34/index.php?action_kouhyou_detail_004_kani=true&JigyosyoCd=3491500520-00&ServiceCd=730&Type=search", "url2": "https://tots.jp/" }, "geometry": { "type": "Point", "coordinates": [ 133.353767800000014, 34.5484844 ] } },
{ "type": "Feature", "properties": { "内容": "小規模多機能ホーム　愛の郷　曙【小規模多機能型居宅介護】福山市曙町五丁目５－４", "url": "https://www.kaigokensaku.mhlw.go.jp/34/index.php?action_kouhyou_detail_004_kani=true&JigyosyoCd=3491500603-00&ServiceCd=730&Type=search", "url2": "http://www.elder-support.com" }, "geometry": { "type": "Point", "coordinates": [ 133.391073300000016, 34.4685927 ] } },
{ "type": "Feature", "properties": { "内容": "小規模多機能ホーム　愛の郷　新涯【小規模多機能型居宅介護】福山市新涯町２丁目９番１２号", "url": "https://www.kaigokensaku.mhlw.go.jp/34/index.php?action_kouhyou_detail_004_kani=true&JigyosyoCd=3491500686-00&ServiceCd=730&Type=search", "url2": "http://www.elder-support.com/" }, "geometry": { "type": "Point", "coordinates": [ 133.400041800000054, 34.4602884 ] } },
{ "type": "Feature", "properties": { "内容": "小規模多機能ホームゆうゆう金丸【小規模多機能型居宅介護】福山市新市町大字金丸５０６番地", "url": "https://www.kaigokensaku.mhlw.go.jp/34/index.php?action_kouhyou_detail_004_kani=true&JigyosyoCd=3491500801-00&ServiceCd=730&Type=search", "url2": "https://www.careoth-senior.com/yuyu/" }, "geometry": { "type": "Point", "coordinates": [ 133.26313719999996, 34.604296 ] } },
{ "type": "Feature", "properties": { "内容": "小規模多機能ホーム　愛の郷　東深津【小規模多機能型居宅介護】広島県福山市東深津町6丁目１－１小規模多機能ホーム　愛の郷　『東深津』", "url": "https://www.kaigokensaku.mhlw.go.jp/34/index.php?action_kouhyou_detail_004_kani=true&JigyosyoCd=3491500918-00&ServiceCd=730&Type=search", "url2": "http://www.elder-support.com" }, "geometry": { "type": "Point", "coordinates": [ 133.382958599999938, 34.4927237 ] } },
{ "type": "Feature", "properties": { "内容": "小規模多機能ホームゆうゆう今津【小規模多機能型居宅介護】福山市今津町３－５－１８", "url": "https://www.kaigokensaku.mhlw.go.jp/34/index.php?action_kouhyou_detail_004_kani=true&JigyosyoCd=3491501056-00&ServiceCd=730&Type=search", "url2": null }, "geometry": { "type": "Point", "coordinates": [ 133.25536790000001, 34.4528851 ] } },
{ "type": "Feature", "properties": { "内容": "小規模多機能ホームゆうゆう神辺【小規模多機能型居宅介護】福山市神辺町上御領1444-1", "url": "https://www.kaigokensaku.mhlw.go.jp/34/index.php?action_kouhyou_detail_004_kani=true&JigyosyoCd=3491501122-00&ServiceCd=730&Type=search", "url2": "http://k-yuyu.com" }, "geometry": { "type": "Point", "coordinates": [ 19.779185699999967, 60.1967789 ] } },
{ "type": "Feature", "properties": { "内容": "小規模多機能ホーム　愛の郷　芦田川【小規模多機能型居宅介護】福山市水呑町4015番地1", "url": "https://www.kaigokensaku.mhlw.go.jp/34/index.php?action_kouhyou_detail_004_kani=true&JigyosyoCd=3491501239-00&ServiceCd=730&Type=search", "url2": "http://www.elder-support.com/" }, "geometry": { "type": "Point", "coordinates": [ 133.374765799999977, 34.4550414 ] } },
{ "type": "Feature", "properties": { "内容": "小規模多機能型居宅介護　リーフ明神【小規模多機能型居宅介護】広島県福山市明神町二丁目6番8号地域密着型特別養護老人ホーム　リーフ明神", "url": "https://www.kaigokensaku.mhlw.go.jp/34/index.php?action_kouhyou_detail_004_kani=true&JigyosyoCd=3491501528-00&ServiceCd=730&Type=search", "url2": "https://ryokuju-kai.jp/" }, "geometry": { "type": "Point", "coordinates": [ 133.3989295, 34.4931015 ] } },
{ "type": "Feature", "properties": { "内容": "小規模多機能型居宅介護事業所北吉津【小規模多機能型居宅介護】広島県福山市北吉津町三丁目2番42号地域福祉センター北吉津", "url": "https://www.kaigokensaku.mhlw.go.jp/34/index.php?action_kouhyou_detail_004_kani=true&JigyosyoCd=3491501544-00&ServiceCd=730&Type=search", "url2": "http://npokizuna.jp/" }, "geometry": { "type": "Point", "coordinates": [ 133.362484399999971, 34.4985982 ] } },
{ "type": "Feature", "properties": { "内容": "小規模多機能ホームゆうゆう奈良津【小規模多機能型居宅介護】広島県福山市奈良津町１－２－１３", "url": "https://www.kaigokensaku.mhlw.go.jp/34/index.php?action_kouhyou_detail_004_kani=true&JigyosyoCd=3491501593-00&ServiceCd=730&Type=search", "url2": "https://www.careoth-senior.com/yuyu/" }, "geometry": { "type": "Point", "coordinates": [ 133.37276989999998, 34.4994009 ] } },
{ "type": "Feature", "properties": { "内容": "小規模多機能ホームゆうゆう松永【小規模多機能型居宅介護】福山市松永町五丁目３０番２２号", "url": "https://www.kaigokensaku.mhlw.go.jp/34/index.php?action_kouhyou_detail_004_kani=true&JigyosyoCd=3491501601-00&ServiceCd=730&Type=search", "url2": null }, "geometry": { "type": "Point", "coordinates": [ 133.261773299999959, 34.4439862 ] } },
{ "type": "Feature", "properties": { "内容": "小規模多機能ホームゆうゆう新市【小規模多機能型居宅介護】広島県福山市新市町大字新市888番地", "url": "https://www.kaigokensaku.mhlw.go.jp/34/index.php?action_kouhyou_detail_004_kani=true&JigyosyoCd=3491502658-00&ServiceCd=730&Type=search", "url2": "https://www.careoth-senior.com/yuyu/" }, "geometry": { "type": "Point", "coordinates": [ 133.2749085, 34.5581692 ] } },
{ "type": "Feature", "properties": { "内容": "小規模多機能型居宅介護ようき道上西【小規模多機能型居宅介護】福山市神辺町道上西１３３５－１", "url": "https://www.kaigokensaku.mhlw.go.jp/34/index.php?action_kouhyou_detail_004_kani=true&JigyosyoCd=3491500223-00&ServiceCd=730&Type=search", "url2": "https://yo-ki.jp/kaigo/small/" }, "geometry": { "type": "Point", "coordinates": [ 133.364001638542163, 34.560938713139244 ] } },
{ "type": "Feature", "properties": { "内容": "小規模多機能型居宅介護ようき道上北【小規模多機能型居宅介護】福山市神辺町道上1333-1", "url": "https://www.kaigokensaku.mhlw.go.jp/34/index.php?action_kouhyou_detail_004_kani=true&JigyosyoCd=3491500546-00&ServiceCd=730&Type=search", "url2": "https://yo-ki.jp/kaigo/small/" }, "geometry": { "type": "Point", "coordinates": [ 133.363488857627885, 34.561525790819871 ] } },
{ "type": "Feature", "properties": { "内容": "小規模多機能ホームめぐみ【小規模多機能型居宅介護】福山市南手城町三丁目4番30号", "url": "https://www.kaigokensaku.mhlw.go.jp/34/index.php?action_kouhyou_detail_004_kani=true&JigyosyoCd=3491500900-00&ServiceCd=730&Type=search", "url2": "http://tamuzu.jp/" }, "geometry": { "type": "Point", "coordinates": [ 133.393966245098625, 34.483245186549283 ] } },
{ "type": "Feature", "properties": { "内容": "小規模多機能型居宅介護ようき道上【小規模多機能型居宅介護】福山市神辺町道上１３３０－１", "url": "https://www.kaigokensaku.mhlw.go.jp/34/index.php?action_kouhyou_detail_004_kani=true&JigyosyoCd=3491501031-00&ServiceCd=730&Type=search", "url2": "https://yo-ki.jp/kaigo/small/small_michinoue/" }, "geometry": { "type": "Point", "coordinates": [ 133.3639028, 34.5617416 ] } },
{ "type": "Feature", "properties": { "内容": "小規模多機能ホームひより【小規模多機能型居宅介護】福山市御幸町森脇９４３－２", "url": "https://www.kaigokensaku.mhlw.go.jp/34/index.php?action_kouhyou_detail_004_kani=true&JigyosyoCd=3491501114-00&ServiceCd=730&Type=search", "url2": "http://tamuzu.jp/" }, "geometry": { "type": "Point", "coordinates": [ 133.345474200000012, 34.531430399999984 ] } },
{ "type": "Feature", "properties": { "内容": "小規模多機能型居宅介護ようき道上南【小規模多機能型居宅介護】福山市神辺町道上1331-1", "url": "https://www.kaigokensaku.mhlw.go.jp/34/index.php?action_kouhyou_detail_004_kani=true&JigyosyoCd=3491501320-00&ServiceCd=730&Type=search", "url2": "https://yo-ki.jp/" }, "geometry": { "type": "Point", "coordinates": [ 133.358311800000024, 34.5514008 ] } },
{ "type": "Feature", "properties": { "内容": "小規模多機能ホームことほぎ【小規模多機能型居宅介護】広島県福山市御幸町森脇975-1", "url": "https://www.kaigokensaku.mhlw.go.jp/34/index.php?action_kouhyou_detail_004_kani=true&JigyosyoCd=3491501551-00&ServiceCd=730&Type=search", "url2": "http://tamuzu.jp" }, "geometry": { "type": "Point", "coordinates": [ 133.345173669072665, 34.531162321715563 ] } },
{ "type": "Feature", "properties": { "内容": "小規模多機能型居宅介護まなぐら南【小規模多機能型居宅介護】広島県福山市駅家町万能倉65-1備後の里まなぐら南", "url": "https://www.kaigokensaku.mhlw.go.jp/34/index.php?action_kouhyou_detail_004_kani=true&JigyosyoCd=3491501627-00&ServiceCd=730&Type=search", "url2": null }, "geometry": { "type": "Point", "coordinates": [ 133.3414881, 34.5444681 ] } },
{ "type": "Feature", "properties": { "内容": "小規模多機能ホーム笑顔てしろ【小規模多機能型居宅介護】福山市手城町一丁目10番37号", "url": "https://www.kaigokensaku.mhlw.go.jp/34/index.php?action_kouhyou_detail_004_kani=true&JigyosyoCd=3491500991-00&ServiceCd=730&Type=search", "url2": "https://tots.jp/" }, "geometry": { "type": "Point", "coordinates": [ 133.3858672, 34.4852327 ] } },
{ "type": "Feature", "properties": { "内容": "いまから【小規模多機能型居宅介護】広島県福山市新市町739", "url": "https://www.kaigokensaku.mhlw.go.jp/34/index.php?action_kouhyou_detail_004_kani=true&JigyosyoCd=3491502377-00&ServiceCd=730&Type=search", "url2": "https://advance2003.com/" }, "geometry": { "type": "Point", "coordinates": [ 133.261821700000013, 34.6046746 ] } },
{ "type": "Feature", "properties": { "内容": "小規模多機能ホームチアフル【小規模多機能型居宅介護】広島県福山市佐波町705番地", "url": "https://www.kaigokensaku.mhlw.go.jp/34/index.php?action_kouhyou_detail_004_kani=true&JigyosyoCd=3491502435-00&ServiceCd=730&Type=search", "url2": "https://cheerful-kaigo.com/company02.html" }, "geometry": { "type": "Point", "coordinates": [ 133.337803799999989, 34.4830317 ] } },
{ "type": "Feature", "properties": { "内容": "小規模多機能型居宅介護事業所　鞆の浦・さくらホーム【小規模多機能型居宅介護】福山市鞆町鞆５５２", "url": "https://www.kaigokensaku.mhlw.go.jp/34/index.php?action_kouhyou_detail_004_kani=true&JigyosyoCd=3491500132-00&ServiceCd=730&Type=search", "url2": "https://www.tomo-sakurahome.net/" }, "geometry": { "type": "Point", "coordinates": [ 133.383524599999987, 34.3841013 ] } },
{ "type": "Feature", "properties": { "内容": "小規模多機能ホームユー・アンド・ミー【小規模多機能型居宅介護】福山市内海町ロ２４２１番地", "url": "https://www.kaigokensaku.mhlw.go.jp/34/index.php?action_kouhyou_detail_004_kani=true&JigyosyoCd=3491500512-00&ServiceCd=730&Type=search", "url2": "https://www.youandme-ltd.com/" }, "geometry": { "type": "Point", "coordinates": [ 133.291845800000033, 34.3571717 ] } },
{ "type": "Feature", "properties": { "内容": "小規模多機能ホーム風花【小規模多機能型居宅介護】広島県福山市山手町1385-1", "url": "https://www.kaigokensaku.mhlw.go.jp/34/index.php?action_kouhyou_detail_004_kani=true&JigyosyoCd=3491500579-00&ServiceCd=730&Type=search", "url2": "https://ikoi-kaigo.jp/guide/guide06/" }, "geometry": { "type": "Point", "coordinates": [ 133.329317606745974, 34.493766583220598 ] } },
{ "type": "Feature", "properties": { "内容": "オリーブハウスえきや【小規模多機能型居宅介護】福山市駅家町上山守437-8", "url": "https://www.kaigokensaku.mhlw.go.jp/34/index.php?action_kouhyou_detail_004_kani=true&JigyosyoCd=3491500587-00&ServiceCd=730&Type=search", "url2": "https://olivehouse-group.jp/house2/" }, "geometry": { "type": "Point", "coordinates": [ 133.330583049137459, 34.535656064228391 ] } },
{ "type": "Feature", "properties": { "内容": "鞆の浦さくら荘【小規模多機能型居宅介護】福山市鞆町後地2113番地5", "url": "https://www.kaigokensaku.mhlw.go.jp/34/index.php?action_kouhyou_detail_004_kani=true&JigyosyoCd=3491500645-00&ServiceCd=730&Type=search", "url2": "http://www.tomo-sakurahome.net/" }, "geometry": { "type": "Point", "coordinates": [ 133.383524599999987, 34.3841013 ] } },
{ "type": "Feature", "properties": { "内容": "小規模多機能ホーム憩【小規模多機能型居宅介護】福山市木之庄町五丁目１８番２２号", "url": "https://www.kaigokensaku.mhlw.go.jp/34/index.php?action_kouhyou_detail_004_kani=true&JigyosyoCd=3491500728-00&ServiceCd=730&Type=search", "url2": "https://ikoi-kaigo.jp" }, "geometry": { "type": "Point", "coordinates": [ 133.357331899999963, 34.4989648 ] } },
{ "type": "Feature", "properties": { "内容": "オリーブハウス千田【小規模多機能型居宅介護】広島県福山市千田町三丁目6番6号", "url": "https://www.kaigokensaku.mhlw.go.jp/34/index.php?action_kouhyou_detail_004_kani=true&JigyosyoCd=3491500843-00&ServiceCd=730&Type=search", "url2": "http://olivehouse-group.jp/" }, "geometry": { "type": "Point", "coordinates": [ 133.367264299999988, 34.5197404 ] } },
{ "type": "Feature", "properties": { "内容": "多機能ケアサービス　白ゆり新市【小規模多機能型居宅介護】広島県福山市新市町大字宮内６３４番地２", "url": "https://www.kaigokensaku.mhlw.go.jp/34/index.php?action_kouhyou_detail_004_kani=true&JigyosyoCd=3491500934-00&ServiceCd=730&Type=search", "url2": null }, "geometry": { "type": "Point", "coordinates": [ 133.2721431, 34.5647925 ] } },
{ "type": "Feature", "properties": { "内容": "小規模多機能ホーム芦花【小規模多機能型居宅介護】広島県福山市駅家町上山守196番地1ケアモール芦花内", "url": "https://www.kaigokensaku.mhlw.go.jp/34/index.php?action_kouhyou_detail_004_kani=true&JigyosyoCd=3491501288-00&ServiceCd=730&Type=search", "url2": "http://www.kobatake.or.jp/" }, "geometry": { "type": "Point", "coordinates": [ 133.32992790000003, 34.5343634 ] } },
{ "type": "Feature", "properties": { "内容": "多機能ケアサービス白ゆり川南【小規模多機能型居宅介護】福山市神辺町川南3178－1", "url": "https://www.kaigokensaku.mhlw.go.jp/34/index.php?action_kouhyou_detail_004_kani=true&JigyosyoCd=3491501312-00&ServiceCd=730&Type=search", "url2": null }, "geometry": { "type": "Point", "coordinates": [ 133.381071199999951, 34.5401802 ] } },
{ "type": "Feature", "properties": { "内容": "小規模多機能ホームゆみ【小規模多機能型居宅介護】広島県福山市内海町ロ2552番地ゆみシルバーハウス", "url": "https://www.kaigokensaku.mhlw.go.jp/34/index.php?action_kouhyou_detail_004_kani=true&JigyosyoCd=3491501353-00&ServiceCd=730&Type=search", "url2": "https://www.youandme-ltd.com/" }, "geometry": { "type": "Point", "coordinates": [ 133.291173189535584, 34.356037950110007 ] } },
{ "type": "Feature", "properties": { "内容": "沼隈社会福祉協会小規模多機能型居宅介護ふくし【小規模多機能型居宅介護】広島県福山市沼隈町草深1889-26", "url": "https://www.kaigokensaku.mhlw.go.jp/34/index.php?action_kouhyou_detail_004_kani=true&JigyosyoCd=3491501429-00&ServiceCd=730&Type=search", "url2": "http://www.numakuma-fukushi.com/" }, "geometry": { "type": "Point", "coordinates": [ 133.319330600000058, 34.3896459 ] } },
{ "type": "Feature", "properties": { "内容": "多機能ケアサービス白ゆり神辺【小規模多機能型居宅介護】広島県福山市神辺町新湯野38-1", "url": "https://www.kaigokensaku.mhlw.go.jp/34/index.php?action_kouhyou_detail_004_kani=true&JigyosyoCd=3491501668-00&ServiceCd=730&Type=search", "url2": "https://shirayuri-group.com/branch/kannabe-3/" }, "geometry": { "type": "Point", "coordinates": [ 133.390464800000018, 34.5571951 ] } },
{ "type": "Feature", "properties": { "内容": "小規模多機能あいる三吉【小規模多機能型居宅介護】広島県福山市三吉町5丁目3番5号", "url": "https://www.kaigokensaku.mhlw.go.jp/34/index.php?action_kouhyou_detail_004_kani=true&JigyosyoCd=3491501932-00&ServiceCd=730&Type=search", "url2": null }, "geometry": { "type": "Point", "coordinates": [ 133.377765, 34.4975574 ] } },
{ "type": "Feature", "properties": { "内容": "小規模多機能　あいる加茂【小規模多機能型居宅介護】広島県福山市加茂町下加茂394-1", "url": "https://www.kaigokensaku.mhlw.go.jp/34/index.php?action_kouhyou_detail_004_kani=true&JigyosyoCd=3491502187-00&ServiceCd=730&Type=search", "url2": null }, "geometry": { "type": "Point", "coordinates": [ 133.3434282, 34.5546414 ] } },
{ "type": "Feature", "properties": { "内容": "小規模多機能ホームチアフル福山西【小規模多機能型居宅介護】広島県福山市本郷町2880-1", "url": "https://www.kaigokensaku.mhlw.go.jp/34/index.php?action_kouhyou_detail_004_kani=true&JigyosyoCd=3491502203-00&ServiceCd=730&Type=search", "url2": "https://cheerful-kaigo.com/" }, "geometry": { "type": "Point", "coordinates": [ 133.24731460000001, 34.4801876 ] } },
{ "type": "Feature", "properties": { "内容": "アクティブワン小規模多機能【小規模多機能型居宅介護】広島県福山市春日町1-6-2総合リハビリケアセンター　アクティブワン", "url": "https://www.kaigokensaku.mhlw.go.jp/34/index.php?action_kouhyou_detail_004_kani=true&JigyosyoCd=3491502278-00&ServiceCd=730&Type=search", "url2": "https://activeone.qolservice.co.jp/" }, "geometry": { "type": "Point", "coordinates": [ 133.401058321965479, 34.506023606908144 ] } },
{ "type": "Feature", "properties": { "内容": "ＳＯＭＰＯケア福山東　小規模多機能【小規模多機能型居宅介護】福山市南蔵王町6-10-19", "url": "https://www.kaigokensaku.mhlw.go.jp/34/index.php?action_kouhyou_detail_004_kani=true&JigyosyoCd=3491500074-00&ServiceCd=730&Type=search", "url2": "https://www.sompocare.com/service/zaitaku/takinou/Z000980" }, "geometry": { "type": "Point", "coordinates": [ 133.39982329999998, 34.505650299999985 ] } },
{ "type": "Feature", "properties": { "内容": "小規模多機能ホーム和楽【小規模多機能型居宅介護】広島県福山市駅家町倉光５３２番地", "url": "https://www.kaigokensaku.mhlw.go.jp/34/index.php?action_kouhyou_detail_004_kani=true&JigyosyoCd=3491500777-00&ServiceCd=730&Type=search", "url2": null }, "geometry": { "type": "Point", "coordinates": [ 133.32045672754748, 34.545457251382203 ] } },
{ "type": "Feature", "properties": { "内容": "小規模多機能ホーム　ケア・ガーデン楓【小規模多機能型居宅介護】福山市御幸町中津原４４０－１", "url": "https://www.kaigokensaku.mhlw.go.jp/34/index.php?action_kouhyou_detail_004_kani=true&JigyosyoCd=3491500868-00&ServiceCd=730&Type=search", "url2": "http://kaede4433.com" }, "geometry": { "type": "Point", "coordinates": [ 133.353034799999932, 34.5186959 ] } },
{ "type": "Feature", "properties": { "内容": "小規模多機能ホームかざぐるま【小規模多機能型居宅介護】福山市御幸町上岩成９０７-１番地", "url": "https://www.kaigokensaku.mhlw.go.jp/34/index.php?action_kouhyou_detail_004_kani=true&JigyosyoCd=3491501262-00&ServiceCd=730&Type=search", "url2": null }, "geometry": { "type": "Point", "coordinates": [ 133.344264793917887, 34.54561320852693 ] } },
{ "type": "Feature", "properties": { "内容": "小規模多機能型居宅介護事業所愛燦燦てしろ・いわせ【小規模多機能型居宅介護】広島県福山市南手城町四丁目２０番８号愛燦燦てしろ・いわせ", "url": "https://www.kaigokensaku.mhlw.go.jp/34/index.php?action_kouhyou_detail_004_kani=true&JigyosyoCd=3491501346-00&ServiceCd=730&Type=search", "url2": null }, "geometry": { "type": "Point", "coordinates": [ 133.397394403704794, 34.481896457622263 ] } },
{ "type": "Feature", "properties": { "内容": "小規模多機能ホームケアコンシェルジュ楓【小規模多機能型居宅介護】広島県福山市北本庄２丁目2番12号", "url": "https://www.kaigokensaku.mhlw.go.jp/34/index.php?action_kouhyou_detail_004_kani=true&JigyosyoCd=3491501445-00&ServiceCd=730&Type=search", "url2": "http://kaede4433.com" }, "geometry": { "type": "Point", "coordinates": [ 133.349663, 34.4961483 ] } },
{ "type": "Feature", "properties": { "内容": "小規模多機能ホーム和楽戸手【小規模多機能型居宅介護】広島県福山市新市町大字戸手934-2セカンドハウス和楽", "url": "https://www.kaigokensaku.mhlw.go.jp/34/index.php?action_kouhyou_detail_004_kani=true&JigyosyoCd=3491501486-00&ServiceCd=730&Type=search", "url2": null }, "geometry": { "type": "Point", "coordinates": [ 133.2889338, 34.5454809 ] } },
{ "type": "Feature", "properties": { "内容": "のどか小規模多機能ホーム南蔵王【小規模多機能型居宅介護】広島県福山市南蔵王町6‐32‐3", "url": "https://www.kaigokensaku.mhlw.go.jp/34/index.php?action_kouhyou_detail_004_kani=true&JigyosyoCd=3491501635-00&ServiceCd=730&Type=search", "url2": "https://pro-aid.jp/" }, "geometry": { "type": "Point", "coordinates": [ 133.405978499999947, 34.5010397 ] } },
{ "type": "Feature", "properties": { "内容": "小規模多機能ホーム　イル・マーレ【小規模多機能型居宅介護】広島県福山市加茂町下加茂２０２", "url": "https://www.kaigokensaku.mhlw.go.jp/34/index.php?action_kouhyou_detail_004_kani=true&JigyosyoCd=3491501700-00&ServiceCd=730&Type=search", "url2": null }, "geometry": { "type": "Point", "coordinates": [ 133.343001400000048, 34.5592917 ] } },
{ "type": "Feature", "properties": { "内容": "ライフサポートざおう【小規模多機能型居宅介護】福山市蔵王町３９６５－１１", "url": "https://www.kaigokensaku.mhlw.go.jp/34/index.php?action_kouhyou_detail_004_kani=true&JigyosyoCd=3491500371-00&ServiceCd=730&Type=search", "url2": "http://life-support.ne.jp/" }, "geometry": { "type": "Point", "coordinates": [ 133.39809809999997, 34.517499300000019 ] } },
{ "type": "Feature", "properties": { "内容": "小規模多機能ホーム　ケア・ビレッジ春里【小規模多機能型居宅介護】広島県福山市新市町大字戸手661番地1", "url": "https://www.kaigokensaku.mhlw.go.jp/34/index.php?action_kouhyou_detail_004_kani=true&JigyosyoCd=3491500660-00&ServiceCd=730&Type=search", "url2": "http://pure-syunri.com" }, "geometry": { "type": "Point", "coordinates": [ 133.299118499999963, 34.5554887 ] } },
{ "type": "Feature", "properties": { "内容": "小規模多機能ホーム　おひぃさん【小規模多機能型居宅介護】広島県福山市神辺町三谷254", "url": "https://www.kaigokensaku.mhlw.go.jp/34/index.php?action_kouhyou_detail_004_kani=true&JigyosyoCd=3491500694-00&ServiceCd=730&Type=search", "url2": null }, "geometry": { "type": "Point", "coordinates": [ 133.389197244180309, 34.602330031047877 ] } },
{ "type": "Feature", "properties": { "内容": "小規模多機能ホーム水呑【小規模多機能型居宅介護】広島県福山市水呑町3733-3", "url": "https://www.kaigokensaku.mhlw.go.jp/34/index.php?action_kouhyou_detail_004_kani=true&JigyosyoCd=3491500736-00&ServiceCd=730&Type=search", "url2": null }, "geometry": { "type": "Point", "coordinates": [ 133.399789199999987, 34.4379827 ] } },
{ "type": "Feature", "properties": { "内容": "小規模多機能型居宅介護　バラの家【小規模多機能型居宅介護】福山市多治米町1丁目２８番１１号", "url": "https://www.kaigokensaku.mhlw.go.jp/34/index.php?action_kouhyou_detail_004_kani=true&JigyosyoCd=3491501098-00&ServiceCd=730&Type=search", "url2": null }, "geometry": { "type": "Point", "coordinates": [ 133.3819403, 34.472158900000011 ] } },
{ "type": "Feature", "properties": { "内容": "ガーデンヴィラ西新涯【小規模多機能型居宅介護】福山市西新涯町二丁目２０番２号", "url": "https://www.kaigokensaku.mhlw.go.jp/34/index.php?action_kouhyou_detail_004_kani=true&JigyosyoCd=3491501296-00&ServiceCd=730&Type=search", "url2": "http://gardenvilla.info/" }, "geometry": { "type": "Point", "coordinates": [ 133.383119807479005, 34.456484467832446 ] } },
{ "type": "Feature", "properties": { "内容": "メディケアきのしょうリハビリの里小規模多機能ホーム【小規模多機能型居宅介護】広島県福山市木之庄町二丁目13番28号", "url": "https://www.kaigokensaku.mhlw.go.jp/34/index.php?action_kouhyou_detail_004_kani=true&JigyosyoCd=3491501569-00&ServiceCd=730&Type=search", "url2": "https://www.iwasaki-seikeigeka.com/" }, "geometry": { "type": "Point", "coordinates": [ 133.353637700000036, 34.4992675 ] } },
{ "type": "Feature", "properties": { "内容": "小規模多機能ホームさんわぁど【小規模多機能型居宅介護】広島県福山市新市町大字相方327番地1", "url": "https://www.kaigokensaku.mhlw.go.jp/34/index.php?action_kouhyou_detail_004_kani=true&JigyosyoCd=3491501585-00&ServiceCd=730&Type=search", "url2": null }, "geometry": { "type": "Point", "coordinates": [ 133.278392486889857, 34.54338438117707 ] } },
{ "type": "Feature", "properties": { "内容": "小規模多機能ホーム　オークヒルズ　ふぁみ～ゆ【小規模多機能型居宅介護】広島県福山市東村町７９５４番地１", "url": "https://www.kaigokensaku.mhlw.go.jp/34/index.php?action_kouhyou_detail_004_kani=true&JigyosyoCd=3491501643-00&ServiceCd=730&Type=search", "url2": null }, "geometry": { "type": "Point", "coordinates": [ 133.227283664417996, 34.460709783890323 ] } },
{ "type": "Feature", "properties": { "内容": "小規模多機能型居宅介護事業所愛燦燦おうじ【小規模多機能型居宅介護】広島県福山市王子町2-19-18", "url": "https://www.kaigokensaku.mhlw.go.jp/34/index.php?action_kouhyou_detail_004_kani=true&JigyosyoCd=3491502765-00&ServiceCd=730&Type=search", "url2": "https://scs-group.jp/ouji/" }, "geometry": { "type": "Point", "coordinates": [ 133.385727820697639, 34.488160897647795 ] } },
{ "type": "Feature", "properties": { "内容": "小規模多機能ホームゆうゆう上安井【小規模多機能型居宅介護】広島県福山市新市町上安井416番地1", "url": "https://www.kaigokensaku.mhlw.go.jp/34/index.php?action_kouhyou_detail_004_kani=true&JigyosyoCd=3491502807-00&ServiceCd=730&Type=search", "url2": "https://www.careoth-senior.com/yuyu/" }, "geometry": { "type": "Point", "coordinates": [ 133.2727181, 34.5890829 ] } },
{ "type": "Feature", "properties": { "内容": "小規模多機能ホームゆうゆう神谷川せせらぎ【小規模多機能型居宅介護】広島県福山市新市町新市258番地１ゆうゆう神谷川せせらぎ", "url": "https://www.kaigokensaku.mhlw.go.jp/34/index.php?action_kouhyou_detail_004_kani=true&JigyosyoCd=3491502815-00&ServiceCd=730&Type=search", "url2": "https://www.careoth-senior.com/yuyu/" }, "geometry": { "type": "Point", "coordinates": [ 133.276976, 34.5580792 ] } },
{ "type": "Feature", "properties": { "内容": "小規模多機能ホームゆうゆう神谷川【小規模多機能型居宅介護】広島県福山市新市町新市258番地２ゆうゆう神谷川", "url": "https://www.kaigokensaku.mhlw.go.jp/34/index.php?action_kouhyou_detail_004_kani=true&JigyosyoCd=3491502823-00&ServiceCd=730&Type=search", "url2": null }, "geometry": { "type": "Point", "coordinates": [ 133.2767931, 34.5580543 ] } },
{ "type": "Feature", "properties": { "内容": "小規模多機能ホームゆうゆう南本庄【小規模多機能型居宅介護】広島県福山市南本庄五丁目５番６号", "url": "https://www.kaigokensaku.mhlw.go.jp/34/index.php?action_kouhyou_detail_004_kani=true&JigyosyoCd=3491502948-00&ServiceCd=730&Type=search", "url2": "https://www.careoth-senior.com/yuyu/" }, "geometry": { "type": "Point", "coordinates": [ 133.3498319, 34.481226 ] } },
{ "type": "Feature", "properties": { "内容": "ライフサポートきらり【小規模多機能型居宅介護】福山市蔵王町3965-13", "url": "https://www.kaigokensaku.mhlw.go.jp/34/index.php?action_kouhyou_detail_004_kani=true&JigyosyoCd=3491501049-00&ServiceCd=730&Type=search", "url2": "http://life-support.ne.jp/" }, "geometry": { "type": "Point", "coordinates": [ 133.398573, 34.5175048 ] } },
{ "type": "Feature", "properties": { "内容": "ほんまち家【小規模多機能型居宅介護】府中市府中町759-1", "url": "https://www.kaigokensaku.mhlw.go.jp/34/index.php?action_kouhyou_detail_004_kani=true&JigyosyoCd=3491700021-00&ServiceCd=730&Type=search", "url2": "https://www.keisenkaihakodaen.net/" }, "geometry": { "type": "Point", "coordinates": [ 133.228957499999979, 34.5754849 ] } },
{ "type": "Feature", "properties": { "内容": "セイフティー信和小規模多機能型居宅介護事業所【小規模多機能型居宅介護】広島県府中市中須町１０６５番地１４", "url": "https://www.kaigokensaku.mhlw.go.jp/34/index.php?action_kouhyou_detail_004_kani=true&JigyosyoCd=3491700039-00&ServiceCd=730&Type=search", "url2": "https://safety-sinwa.com/" }, "geometry": { "type": "Point", "coordinates": [ 133.255497600000012, 34.558337 ] } },
{ "type": "Feature", "properties": { "内容": "小規模多機能型居宅介護たんぽぽハウス【小規模多機能型居宅介護】広島県府中市上下町深江１３３番地２", "url": "https://www.kaigokensaku.mhlw.go.jp/34/index.php?action_kouhyou_detail_004_kani=true&JigyosyoCd=3491700047-00&ServiceCd=730&Type=search", "url2": "https://koshinkai-fuchu.com/" }, "geometry": { "type": "Point", "coordinates": [ 133.102922184655796, 34.703758898772314 ] } },
{ "type": "Feature", "properties": { "内容": "小規模多機能ホームゆうゆう国府【小規模多機能型居宅介護】広島県府中市高木町８３０番地１ゆうゆう国府", "url": "https://www.kaigokensaku.mhlw.go.jp/34/index.php?action_kouhyou_detail_004_kani=true&JigyosyoCd=3491700054-00&ServiceCd=730&Type=search", "url2": "https://www.careoth-senior.com/yuyu/" }, "geometry": { "type": "Point", "coordinates": [ 133.2509923, 34.559384 ] } },
{ "type": "Feature", "properties": { "内容": "小規模多機能型居宅介護事業所　藤原別荘【小規模多機能型居宅介護】三次市甲奴町西野８５", "url": "https://www.kaigokensaku.mhlw.go.jp/34/index.php?action_kouhyou_detail_004_kani=true&JigyosyoCd=3491900027-00&ServiceCd=730&Type=search", "url2": "http://www.yuukifukushikai.com" }, "geometry": { "type": "Point", "coordinates": [ 133.075101200000063, 34.7064995 ] } },
{ "type": "Feature", "properties": { "内容": "小規模多機能型居宅介護事業所　三良坂【小規模多機能型居宅介護】三次市三良坂町三良坂１７８９番地２", "url": "https://www.kaigokensaku.mhlw.go.jp/34/index.php?action_kouhyou_detail_004_kani=true&JigyosyoCd=3491900043-00&ServiceCd=730&Type=search", "url2": "http://yuukifukushikai.com" }, "geometry": { "type": "Point", "coordinates": [ 132.953280409786998, 34.7606225 ] } },
{ "type": "Feature", "properties": { "内容": "小規模多機能型居宅介護事業所ゆうしゃいん三次【小規模多機能型居宅介護】広島県三次市畠敷町２３８－１", "url": "https://www.kaigokensaku.mhlw.go.jp/34/index.php?action_kouhyou_detail_004_kani=true&JigyosyoCd=3491900068-00&ServiceCd=730&Type=search", "url2": "http://www.yuukifukushikai.com/" }, "geometry": { "type": "Point", "coordinates": [ 132.869847199999981, 34.8090568 ] } },
{ "type": "Feature", "properties": { "内容": "小規模多機能ホーム　すいれん【小規模多機能型居宅介護】三次市三次町１７７９－２", "url": "https://www.kaigokensaku.mhlw.go.jp/34/index.php?action_kouhyou_detail_004_kani=true&JigyosyoCd=3491900076-00&ServiceCd=730&Type=search", "url2": "http://jishokai.jp" }, "geometry": { "type": "Point", "coordinates": [ 132.843560600000046, 34.8122811 ] } },
{ "type": "Feature", "properties": { "内容": "小規模多機能型居宅介護事業所ゆうしゃいん塩町【小規模多機能型居宅介護】三次市塩町２１１２－４", "url": "https://www.kaigokensaku.mhlw.go.jp/34/index.php?action_kouhyou_detail_004_kani=true&JigyosyoCd=3491900118-00&ServiceCd=730&Type=search", "url2": "http://www.yuukifukushikai.com/" }, "geometry": { "type": "Point", "coordinates": [ 132.91369629999997, 34.7758896 ] } },
{ "type": "Feature", "properties": { "内容": "かわにし小規模多機能施設【小規模多機能型居宅介護】広島県三次市三若町2654", "url": "https://www.kaigokensaku.mhlw.go.jp/34/index.php?action_kouhyou_detail_004_kani=true&JigyosyoCd=3491900175-00&ServiceCd=730&Type=search", "url2": "http://www.shoujin.or.jp/" }, "geometry": { "type": "Point", "coordinates": [ 132.889849410311854, 34.716492714857829 ] } },
{ "type": "Feature", "properties": { "内容": "かわち小規模多機能施設「ぬくもり」【小規模多機能型居宅介護】広島県三次市下川立町488番地2", "url": "https://www.kaigokensaku.mhlw.go.jp/34/index.php?action_kouhyou_detail_004_kani=true&JigyosyoCd=3491900225-00&ServiceCd=730&Type=search", "url2": "https://nukumori-miyoshi.jp/" }, "geometry": { "type": "Point", "coordinates": [ 132.789383439581258, 34.735637460471601 ] } },
{ "type": "Feature", "properties": { "内容": "小規模多機能　ひなや【小規模多機能型居宅介護】三次市東酒屋町２０６番地１", "url": "https://www.kaigokensaku.mhlw.go.jp/34/index.php?action_kouhyou_detail_004_kani=true&JigyosyoCd=3491900092-00&ServiceCd=730&Type=search", "url2": "https://keishin-care.com/" }, "geometry": { "type": "Point", "coordinates": [ 132.872303200000033, 34.7863848 ] } },
{ "type": "Feature", "properties": { "内容": "多機能ホーム　ひより【小規模多機能型居宅介護】広島県庄原市西城町大佐5148-1", "url": "https://www.kaigokensaku.mhlw.go.jp/34/index.php?action_kouhyou_detail_004_kani=true&JigyosyoCd=3492100171-00&ServiceCd=730&Type=search", "url2": "https://saijyofukushikai.jp/" }, "geometry": { "type": "Point", "coordinates": [ 133.1298571, 34.9570759 ] } },
{ "type": "Feature", "properties": { "内容": "小規模多機能ホーム本町相扶園【小規模多機能型居宅介護】庄原市西本町1-22-45", "url": "https://www.kaigokensaku.mhlw.go.jp/34/index.php?action_kouhyou_detail_004_kani=true&JigyosyoCd=3492100072-00&ServiceCd=730&Type=search", "url2": "http://www.soufuen.or.jp/" }, "geometry": { "type": "Point", "coordinates": [ 133.015922199999977, 34.8543153 ] } },
{ "type": "Feature", "properties": { "内容": "小規模多機能型居宅介護事業所ゆうしゃいん庄原【小規模多機能型居宅介護】庄原市宮内町美湯6353-1", "url": "https://www.kaigokensaku.mhlw.go.jp/34/index.php?action_kouhyou_detail_004_kani=true&JigyosyoCd=3492100106-00&ServiceCd=730&Type=search", "url2": "http://www.yuukifukushikai.com/" }, "geometry": { "type": "Point", "coordinates": [ 133.039583, 34.8558819 ] } },
{ "type": "Feature", "properties": { "内容": "小規模多機能型居宅介護　花ばたけ【小規模多機能型居宅介護】広島県庄原市三日市町289番地", "url": "https://www.kaigokensaku.mhlw.go.jp/34/index.php?action_kouhyou_detail_004_kani=true&JigyosyoCd=3492100148-00&ServiceCd=730&Type=search", "url2": "http:seijin-kai.com/" }, "geometry": { "type": "Point", "coordinates": [ 133.004215400000021, 34.853604 ] } },
{ "type": "Feature", "properties": { "内容": "姫りんご【小規模多機能型居宅介護】広島県庄原市東城町内堀1098番地4姫りんご", "url": "https://www.kaigokensaku.mhlw.go.jp/34/index.php?action_kouhyou_detail_004_kani=true&JigyosyoCd=3492100155-00&ServiceCd=730&Type=search", "url2": "https://www.alice.or.jp/" }, "geometry": { "type": "Point", "coordinates": [ 133.249565697965863, 34.998915028125232 ] } },
{ "type": "Feature", "properties": { "内容": "もみじの丘帝釈【小規模多機能型居宅介護】広島県庄原市東城町帝釈未渡2022-2", "url": "https://www.kaigokensaku.mhlw.go.jp/34/index.php?action_kouhyou_detail_004_kani=true&JigyosyoCd=3492100163-00&ServiceCd=730&Type=search", "url2": "http://www.alice.or.jp" }, "geometry": { "type": "Point", "coordinates": [ 133.197810314703105, 34.87063502173315 ] } },
{ "type": "Feature", "properties": { "内容": "小規模多機能型居宅介護みのり【小規模多機能型居宅介護】大竹市元町１丁目１番５号", "url": "https://www.kaigokensaku.mhlw.go.jp/34/index.php?action_kouhyou_detail_004_kani=true&JigyosyoCd=3492300037-00&ServiceCd=730&Type=search", "url2": null }, "geometry": { "type": "Point", "coordinates": [ 132.216949699999986, 34.2069022 ] } },
{ "type": "Feature", "properties": { "内容": "ルミナス小方ヶ丘【小規模多機能型居宅介護】広島県大竹市小方ヶ丘6番12号", "url": "https://www.kaigokensaku.mhlw.go.jp/34/index.php?action_kouhyou_detail_004_kani=true&JigyosyoCd=3492300086-00&ServiceCd=730&Type=search", "url2": "http://www.ccsnet.ne.jp/~luminous/technical.html" }, "geometry": { "type": "Point", "coordinates": [ 132.21366372156524, 34.239181792970655 ] } },
{ "type": "Feature", "properties": { "内容": "小規模多機能ホーム　みのりの里河内【小規模多機能型居宅介護】東広島市河内町下河内10194-15", "url": "https://www.kaigokensaku.mhlw.go.jp/34/index.php?action_kouhyou_detail_004_kani=true&JigyosyoCd=3492500032-00&ServiceCd=730&Type=search", "url2": "https://higashinokai.jp/" }, "geometry": { "type": "Point", "coordinates": [ 132.90107839999996, 34.4662789 ] } },
{ "type": "Feature", "properties": { "内容": "小規模多機能ホームみのりの里安芸津【小規模多機能型居宅介護】東広島市安芸津町風早１３５１－４", "url": "https://www.kaigokensaku.mhlw.go.jp/34/index.php?action_kouhyou_detail_004_kani=true&JigyosyoCd=3492500040-00&ServiceCd=730&Type=search", "url2": "https://higashinokai.jp/" }, "geometry": { "type": "Point", "coordinates": [ 132.797944, 34.312597 ] } },
{ "type": "Feature", "properties": { "内容": "小規模多機能ホーム　ふぁみりぃ黒瀬【小規模多機能型居宅介護】東広島市黒瀬町楢原262番地6", "url": "https://www.kaigokensaku.mhlw.go.jp/34/index.php?action_kouhyou_detail_004_kani=true&JigyosyoCd=3492500065-00&ServiceCd=730&Type=search", "url2": "https://tots.jp/institution/" }, "geometry": { "type": "Point", "coordinates": [ 132.670572099999958, 34.3254039 ] } },
{ "type": "Feature", "properties": { "内容": "サンキ・ウエルビィ小規模多機能センター西条【小規模多機能型居宅介護】広島県東広島市西条町下見4360-1", "url": "https://www.kaigokensaku.mhlw.go.jp/34/index.php?action_kouhyou_detail_004_kani=true&JigyosyoCd=3492500438-00&ServiceCd=730&Type=search", "url2": null }, "geometry": { "type": "Point", "coordinates": [ 132.7173119, 34.4122287 ] } },
{ "type": "Feature", "properties": { "内容": "小規模多機能ホーム　ふぁみりぃ　高屋【小規模多機能型居宅介護】東広島市高屋町檜山27-1", "url": "https://www.kaigokensaku.mhlw.go.jp/34/index.php?action_kouhyou_detail_004_kani=true&JigyosyoCd=3492500107-00&ServiceCd=730&Type=search", "url2": "https://tots.jp/" }, "geometry": { "type": "Point", "coordinates": [ 132.760113400000023, 34.442184 ] } },
{ "type": "Feature", "properties": { "内容": "小規模多機能型居宅介護事業所　能良の里【小規模多機能型居宅介護】東広島市豊栄町能良12番地", "url": "https://www.kaigokensaku.mhlw.go.jp/34/index.php?action_kouhyou_detail_004_kani=true&JigyosyoCd=3492500057-00&ServiceCd=730&Type=search", "url2": "https://www.koujinkai21.or.jp/" }, "geometry": { "type": "Point", "coordinates": [ 132.842062009631348, 34.54113587125682 ] } },
{ "type": "Feature", "properties": { "内容": "小規模多機能ホームもやい志和【小規模多機能型居宅介護】東広島市志和町冠584番地", "url": "https://www.kaigokensaku.mhlw.go.jp/34/index.php?action_kouhyou_detail_004_kani=true&JigyosyoCd=3492500024-00&ServiceCd=730&Type=search", "url2": "http://www.moyaishiwa.com" }, "geometry": { "type": "Point", "coordinates": [ 132.642056899999943, 34.4607192 ] } },
{ "type": "Feature", "properties": { "内容": "小規模多機能型居宅介護　たかやの郷【小規模多機能型居宅介護】広島県東広島市高屋町杵原1826番1", "url": "https://www.kaigokensaku.mhlw.go.jp/34/index.php?action_kouhyou_detail_004_kani=true&JigyosyoCd=3492500362-00&ServiceCd=730&Type=search", "url2": "https://hmh.or.jp/takaya/" }, "geometry": { "type": "Point", "coordinates": [ 132.7850523, 34.4562171 ] } },
{ "type": "Feature", "properties": { "内容": "小規模多機能ホームふくとみ【小規模多機能型居宅介護】東広島市福富町久芳892番地10", "url": "https://www.kaigokensaku.mhlw.go.jp/34/index.php?action_kouhyou_detail_004_kani=true&JigyosyoCd=3492500081-00&ServiceCd=730&Type=search", "url2": null }, "geometry": { "type": "Point", "coordinates": [ 132.7936555, 34.555423 ] } },
{ "type": "Feature", "properties": { "内容": "小規模多機能型居宅介護事業所　佐方【小規模多機能型居宅介護】広島県廿日市市佐方四丁目9番15号", "url": "https://www.kaigokensaku.mhlw.go.jp/34/index.php?action_kouhyou_detail_004_kani=true&JigyosyoCd=3492700160-00&ServiceCd=730&Type=search", "url2": "http://npokizuna.jp" }, "geometry": { "type": "Point", "coordinates": [ 132.344202900000028, 34.3648924 ] } },
{ "type": "Feature", "properties": { "内容": "サンキ・ウエルビィ小規模多機能センター廿日市【小規模多機能型居宅介護】広島県廿日市市下平良1-6-17", "url": "https://www.kaigokensaku.mhlw.go.jp/34/index.php?action_kouhyou_detail_004_kani=true&JigyosyoCd=3492700129-00&ServiceCd=730&Type=search", "url2": null }, "geometry": { "type": "Point", "coordinates": [ 132.332435700000019, 34.3491216 ] } },
{ "type": "Feature", "properties": { "内容": "小規模多機能ホーム宮内温泉湯治の館ひまわり【小規模多機能型居宅介護】廿日市市宮内字佐原田4215番地1", "url": "https://www.kaigokensaku.mhlw.go.jp/34/index.php?action_kouhyou_detail_004_kani=true&JigyosyoCd=3492700095-00&ServiceCd=730&Type=search", "url2": "http://www.miyauchi.or.jp/" }, "geometry": { "type": "Point", "coordinates": [ 132.299355287033109, 34.340397018266223 ] } },
{ "type": "Feature", "properties": { "内容": "小規模多機能ホーム　ふぁみりぃ安芸高田【小規模多機能型居宅介護】安芸高田市甲田町上小原４５０１番地１", "url": "https://www.kaigokensaku.mhlw.go.jp/34/index.php?action_kouhyou_detail_004_kani=true&JigyosyoCd=3493600070-00&ServiceCd=730&Type=search", "url2": "http://www.tots.jp/" }, "geometry": { "type": "Point", "coordinates": [ 132.755588699999947, 34.6848614 ] } },
{ "type": "Feature", "properties": { "内容": "小規模多機能型居宅介護施設　高田・楽々苑【小規模多機能型居宅介護】広島県安芸高田市美土里町本郷1317番地1", "url": "https://www.kaigokensaku.mhlw.go.jp/34/index.php?action_kouhyou_detail_004_kani=true&JigyosyoCd=3493600054-00&ServiceCd=730&Type=search", "url2": null }, "geometry": { "type": "Point", "coordinates": [ 132.627897800000028, 34.7271716 ] } },
{ "type": "Feature", "properties": { "内容": "小規模多機能型居宅介護　ケアホーム匠【小規模多機能型居宅介護】安芸高田市吉田町常友４８６番地", "url": "https://www.kaigokensaku.mhlw.go.jp/34/index.php?action_kouhyou_detail_004_kani=true&JigyosyoCd=3493600047-00&ServiceCd=730&Type=search", "url2": null }, "geometry": { "type": "Point", "coordinates": [ 132.690386799999942, 34.655014 ] } },
{ "type": "Feature", "properties": { "内容": "小規模多機能型居宅介護事業所　鹿川【小規模多機能型居宅介護】江田島市能美町鹿川字郷2758-1", "url": "https://www.kaigokensaku.mhlw.go.jp/34/index.php?action_kouhyou_detail_004_kani=true&JigyosyoCd=3495000030-00&ServiceCd=730&Type=search", "url2": "http//npokizuna.jp" }, "geometry": { "type": "Point", "coordinates": [ 132.443130200000041, 34.2050821 ] } },
{ "type": "Feature", "properties": { "内容": "小規模多機能型居宅介護施設　やまぼうし【小規模多機能型居宅介護】広島県江田島市江田島町津久茂２丁目５－1", "url": "https://www.kaigokensaku.mhlw.go.jp/34/index.php?action_kouhyou_detail_004_kani=true&JigyosyoCd=3495000071-00&ServiceCd=730&Type=search", "url2": "http://yoshida-hospital.jp/yamaboushi/" }, "geometry": { "type": "Point", "coordinates": [ 132.450653500000044, 34.248566 ] } },
{ "type": "Feature", "properties": { "内容": "小規模多機能ホーム府中みどり園【小規模多機能型居宅介護】広島県安芸郡府中町浜田２丁目３番２５号", "url": "https://www.kaigokensaku.mhlw.go.jp/34/index.php?action_kouhyou_detail_004_kani=true&JigyosyoCd=3493200228-00&ServiceCd=730&Type=search", "url2": "https://midori-kai.or.jp/midorien/" }, "geometry": { "type": "Point", "coordinates": [ 132.507766, 34.3876959 ] } },
{ "type": "Feature", "properties": { "内容": "小規模多機能ホームなだの郷府中【小規模多機能型居宅介護】広島県安芸郡府中町本町２丁目１－９", "url": "https://www.kaigokensaku.mhlw.go.jp/34/index.php?action_kouhyou_detail_004_kani=true&JigyosyoCd=3493200046-00&ServiceCd=730&Type=search", "url2": "https://www.kotonear.com/hyakuju/service.html" }, "geometry": { "type": "Point", "coordinates": [ 139.17628209999998, 37.7392975 ] } },
{ "type": "Feature", "properties": { "内容": "ニックスマルチケア安芸府中【小規模多機能型居宅介護】広島県安芸郡府中町瀬戸ハイム三丁目16番2号", "url": "https://www.kaigokensaku.mhlw.go.jp/34/index.php?action_kouhyou_detail_004_kani=true&JigyosyoCd=3493200194-00&ServiceCd=730&Type=search", "url2": "https://www.nix-net.co.jp/" }, "geometry": { "type": "Point", "coordinates": [ 132.517522631352222, 34.391767901767032 ] } },
{ "type": "Feature", "properties": { "内容": "小規模多機能型居宅介護海田じらく房【小規模多機能型居宅介護】広島県安芸郡海田町蟹原二丁目６番２号", "url": "https://www.kaigokensaku.mhlw.go.jp/34/index.php?action_kouhyou_detail_004_kani=true&JigyosyoCd=3493200053-00&ServiceCd=730&Type=search", "url2": "https://jiraku.or.jp/service/residence/kaita_jiraku/" }, "geometry": { "type": "Point", "coordinates": [ 132.546293200000036, 34.3730809 ] } },
{ "type": "Feature", "properties": { "内容": "小規模多機能ホーム　舞良戸【小規模多機能型居宅介護】広島県安芸郡熊野町城之堀二丁目28番38号", "url": "https://www.kaigokensaku.mhlw.go.jp/34/index.php?action_kouhyou_detail_004_kani=true&JigyosyoCd=3493100030-00&ServiceCd=730&Type=search", "url2": "https://www.seijokaikumano.com/" }, "geometry": { "type": "Point", "coordinates": [ 132.58130129999995, 34.3457683 ] } },
{ "type": "Feature", "properties": { "内容": "小規模多機能ホームたいよう【小規模多機能型居宅介護】広島県安芸郡熊野町平谷3丁目11番9号", "url": "https://www.kaigokensaku.mhlw.go.jp/34/index.php?action_kouhyou_detail_004_kani=true&JigyosyoCd=3493100055-00&ServiceCd=730&Type=search", "url2": "https://www.big-advance.site/c/149/1792" }, "geometry": { "type": "Point", "coordinates": [ 132.556932310450719, 34.331730709038176 ] } },
{ "type": "Feature", "properties": { "内容": "小規模多機能型居宅介護　ひより【小規模多機能型居宅介護】広島県安芸郡熊野町萩原四丁目6番7号", "url": "https://www.kaigokensaku.mhlw.go.jp/34/index.php?action_kouhyou_detail_004_kani=true&JigyosyoCd=3493100014-00&ServiceCd=730&Type=search", "url2": "https://www.big-advance.site/c/149/1617" }, "geometry": { "type": "Point", "coordinates": [ 132.598796900000025, 34.3388422 ] } },
{ "type": "Feature", "properties": { "内容": "安芸太田町社協　小規模多機能型居宅介護事業所ふれあい【小規模多機能型居宅介護】広島県山県郡安芸太田町大字戸河内８００番地１", "url": "https://www.kaigokensaku.mhlw.go.jp/34/index.php?action_kouhyou_detail_004_kani=true&JigyosyoCd=3493500072-00&ServiceCd=730&Type=search", "url2": "http://www.akiota-shakyo.jp/" }, "geometry": { "type": "Point", "coordinates": [ 132.226629799999955, 34.5778749 ] } },
{ "type": "Feature", "properties": { "内容": "安芸太田町社協小規模多機能型居宅介護事業所ひまわり【小規模多機能型居宅介護】広島県山県郡安芸太田町大字中筒賀1634番地", "url": "https://www.kaigokensaku.mhlw.go.jp/34/index.php?action_kouhyou_detail_004_kani=true&JigyosyoCd=3493500080-00&ServiceCd=730&Type=search", "url2": null }, "geometry": { "type": "Point", "coordinates": [ 132.249714600000061, 34.563716 ] } },
{ "type": "Feature", "properties": { "内容": "ちよだ小規模多機能ホーム【小規模多機能型居宅介護】広島県山県郡北広島町壬生1260-1", "url": "https://www.kaigokensaku.mhlw.go.jp/34/index.php?action_kouhyou_detail_004_kani=true&JigyosyoCd=3493500031-00&ServiceCd=730&Type=search", "url2": "http://www.m-meiwakai.jp" }, "geometry": { "type": "Point", "coordinates": [ 132.550537186508166, 34.687926151851045 ] } },
{ "type": "Feature", "properties": { "内容": "とよひら小規模多機能ホーム【小規模多機能型居宅介護】広島県山県郡北広島町阿坂4705北広島町豊平診療所", "url": "https://www.kaigokensaku.mhlw.go.jp/34/index.php?action_kouhyou_detail_004_kani=true&JigyosyoCd=3493500049-00&ServiceCd=730&Type=search", "url2": "http://www.m-meiwakai.jp" }, "geometry": { "type": "Point", "coordinates": [ 132.449737641912861, 34.628294927709746 ] } },
{ "type": "Feature", "properties": { "内容": "芸北小規模多機能ホーム【小規模多機能型居宅介護】広島県山県郡北広島町米沢字中ノ原436番地13", "url": "https://www.kaigokensaku.mhlw.go.jp/34/index.php?action_kouhyou_detail_004_kani=true&JigyosyoCd=3493500114-00&ServiceCd=730&Type=search", "url2": "http://www.m-meiwakai.jp" }, "geometry": { "type": "Point", "coordinates": [ 132.353625400000027, 34.7439114 ] } },
{ "type": "Feature", "properties": { "内容": "小規模多機能ホームふぁみりぃせら【小規模多機能型居宅介護】広島県世羅郡世羅町本郷９６６番地１", "url": "https://www.kaigokensaku.mhlw.go.jp/34/index.php?action_kouhyou_detail_004_kani=true&JigyosyoCd=3494200011-00&ServiceCd=730&Type=search", "url2": "http://www.tots.jp/" }, "geometry": { "type": "Point", "coordinates": [ 133.0433524, 34.5867695 ] } }
]
}
