{
"type": "FeatureCollection",
"name": "geo_34_定期巡回・随時対応型訪問介護看護",
"crs": { "type": "name", "properties": { "name": "urn:ogc:def:crs:OGC:1.3:CRS84" } },
"features": [
{ "type": "Feature", "properties": { "内容": "あっとほーむ24【定期巡回・随時対応型訪問介護看護】広島県広島市中区広瀬町3番29号", "url": "https://www.kaigokensaku.mhlw.go.jp/34/index.php?action_kouhyou_detail_004_kani=true&JigyosyoCd=3470214648-00&ServiceCd=760&Type=search", "url2": null }, "geometry": { "type": "Point", "coordinates": [ 132.4457236, 34.4006147 ] } },
{ "type": "Feature", "properties": { "内容": "IGL訪問サービス舟入24【定期巡回・随時対応型訪問介護看護】広島県広島市中区舟入南1-8-8IGLケアホームベルビュー広島", "url": "https://www.kaigokensaku.mhlw.go.jp/34/index.php?action_kouhyou_detail_004_kani=true&JigyosyoCd=3490201419-00&ServiceCd=760&Type=search", "url2": "http://www.igl.or.jp" }, "geometry": { "type": "Point", "coordinates": [ 132.4404782, 34.3777694 ] } },
{ "type": "Feature", "properties": { "内容": "定期巡回サービス土屋広島【定期巡回・随時対応型訪問介護看護】広島県広島市中区宝町5-10ウイング宝町サード1906号室", "url": "https://www.kaigokensaku.mhlw.go.jp/34/index.php?action_kouhyou_detail_004_kani=true&JigyosyoCd=3490201690-00&ServiceCd=760&Type=search", "url2": "https://tcy.co.jp/" }, "geometry": { "type": "Point", "coordinates": [ 132.461802299999988, 34.3851539 ] } },
{ "type": "Feature", "properties": { "内容": "サンキ・ウエルビィ介護センター江波（定期・随時）【定期巡回・随時対応型訪問介護看護】広島県広島市中区江波二本松一丁目１０番３号ウエルビィ江波１階", "url": "https://www.kaigokensaku.mhlw.go.jp/34/index.php?action_kouhyou_detail_004_kani=true&JigyosyoCd=3490200783-00&ServiceCd=760&Type=search", "url2": null }, "geometry": { "type": "Point", "coordinates": [ 132.43209939999997, 34.3692877 ] } },
{ "type": "Feature", "properties": { "内容": "エコール24中央【定期巡回・随時対応型訪問介護看護】広島市中区南竹屋町7番8号", "url": "https://www.kaigokensaku.mhlw.go.jp/34/index.php?action_kouhyou_detail_004_kani=true&JigyosyoCd=3490200817-00&ServiceCd=760&Type=search", "url2": "https://www.nihonkijun.jp/" }, "geometry": { "type": "Point", "coordinates": [ 132.4605507, 34.380575700000016 ] } },
{ "type": "Feature", "properties": { "内容": "ウィズユー【定期巡回・随時対応型訪問介護看護】広島県広島市東区温品2丁目22-9202号", "url": "https://www.kaigokensaku.mhlw.go.jp/34/index.php?action_kouhyou_detail_004_kani=true&JigyosyoCd=3490101320-00&ServiceCd=760&Type=search", "url2": "https://www.lile-style.biz/company-infomation/" }, "geometry": { "type": "Point", "coordinates": [ 132.49992850000001, 34.3911303 ] } },
{ "type": "Feature", "properties": { "内容": "ニックスヘルパー・ナース24【定期巡回・随時対応型訪問介護看護】広島市東区尾長東二丁目7番28号", "url": "https://www.kaigokensaku.mhlw.go.jp/34/index.php?action_kouhyou_detail_004_kani=true&JigyosyoCd=3490100512-00&ServiceCd=760&Type=search", "url2": "http://www.nix-net.co.jp/" }, "geometry": { "type": "Point", "coordinates": [ 132.488258203571377, 34.398075053351967 ] } },
{ "type": "Feature", "properties": { "内容": "定期巡回・随時対応型訪問介護看護生協くさつ24【定期巡回・随時対応型訪問介護看護】広島市西区草津東1丁目11-19", "url": "https://www.kaigokensaku.mhlw.go.jp/34/index.php?action_kouhyou_detail_004_kani=true&JigyosyoCd=3490201062-00&ServiceCd=760&Type=search", "url2": "http://www.hch.coop" }, "geometry": { "type": "Point", "coordinates": [ 132.40633379999997, 34.3788256 ] } },
{ "type": "Feature", "properties": { "内容": "定期巡回・随時対応型訪問介護看護生協かんおん24【定期巡回・随時対応型訪問介護看護】広島県広島市西区観音町16-19生協けんこうプラザ", "url": "https://www.kaigokensaku.mhlw.go.jp/34/index.php?action_kouhyou_detail_004_kani=true&JigyosyoCd=3490201252-00&ServiceCd=760&Type=search", "url2": "http://www.hch.coop/" }, "geometry": { "type": "Point", "coordinates": [ 132.437074899999971, 34.3945054 ] } },
{ "type": "Feature", "properties": { "内容": "定期巡回・随時対応型訪問介護看護事業所川内【定期巡回・随時対応型訪問介護看護】安佐南区川内五丁目1番49号", "url": "https://www.kaigokensaku.mhlw.go.jp/34/index.php?action_kouhyou_detail_004_kani=true&JigyosyoCd=3490200890-00&ServiceCd=760&Type=search", "url2": "http://npokizuna.jp/" }, "geometry": { "type": "Point", "coordinates": [ 132.488939100000039, 34.4669706 ] } },
{ "type": "Feature", "properties": { "内容": "ＩＧＬ訪問サービス上安２４【定期巡回・随時対応型訪問介護看護】広島市安佐南区上安六丁目３１番２号", "url": "https://www.kaigokensaku.mhlw.go.jp/34/index.php?action_kouhyou_detail_004_kani=true&JigyosyoCd=3490200841-00&ServiceCd=760&Type=search", "url2": "http://www.igl.or.jp/kourei/teiki_junkai.html" }, "geometry": { "type": "Point", "coordinates": [ 132.444401606082096, 34.483937323046405 ] } },
{ "type": "Feature", "properties": { "内容": "ふじケア24川内【定期巡回・随時対応型訪問介護看護】広島県広島市安佐南区川内1丁目15-1ネクストビューふじ川内", "url": "https://www.kaigokensaku.mhlw.go.jp/34/index.php?action_kouhyou_detail_004_kani=true&JigyosyoCd=3490200833-00&ServiceCd=760&Type=search", "url2": "http://www.fujibiru.co.jp/" }, "geometry": { "type": "Point", "coordinates": [ 132.484923400000071, 34.4586112 ] } },
{ "type": "Feature", "properties": { "内容": "ふれあいケア24西原【定期巡回・随時対応型訪問介護看護】広島市安佐南区西原八丁目16番-16号-1VillaFeliceEast101号室", "url": "https://www.kaigokensaku.mhlw.go.jp/34/index.php?action_kouhyou_detail_004_kani=true&JigyosyoCd=3490201518-00&ServiceCd=760&Type=search", "url2": null }, "geometry": { "type": "Point", "coordinates": [ 132.4741606, 34.443647400000032 ] } },
{ "type": "Feature", "properties": { "内容": "ヘルパーステーションあすか大町24【定期巡回・随時対応型訪問介護看護】広島県広島市安佐南区中須一丁目26番12号あすかケアプラザ", "url": "https://www.kaigokensaku.mhlw.go.jp/34/index.php?action_kouhyou_detail_004_kani=true&JigyosyoCd=3490201567-00&ServiceCd=760&Type=search", "url2": "https://asuka-net.or.jp/" }, "geometry": { "type": "Point", "coordinates": [ 132.4717039, 34.4612026 ] } },
{ "type": "Feature", "properties": { "内容": "定期巡回ふれあい協同【定期巡回・随時対応型訪問介護看護】広島県広島市安佐南区西原9丁目8-22", "url": "https://www.kaigokensaku.mhlw.go.jp/34/index.php?action_kouhyou_detail_004_kani=true&JigyosyoCd=3490201609-00&ServiceCd=760&Type=search", "url2": "http://www.hiroshimairyo.coop/kyodo/junkai/" }, "geometry": { "type": "Point", "coordinates": [ 132.4719208, 34.4469862 ] } },
{ "type": "Feature", "properties": { "内容": "エコール24安佐南【定期巡回・随時対応型訪問介護看護】広島市安佐南区大町東一丁目18番44号", "url": "https://www.kaigokensaku.mhlw.go.jp/34/index.php?action_kouhyou_detail_004_kani=true&JigyosyoCd=3490200718-00&ServiceCd=760&Type=search", "url2": "https://www.nihonkijun.jp/" }, "geometry": { "type": "Point", "coordinates": [ 132.465458962951658, 34.453203773548523 ] } },
{ "type": "Feature", "properties": { "内容": "メリィケア【定期巡回・随時対応型訪問介護看護】広島県広島市安佐南区大塚西三丁目1-20", "url": "https://www.kaigokensaku.mhlw.go.jp/34/index.php?action_kouhyou_detail_004_kani=true&JigyosyoCd=3490201294-00&ServiceCd=760&Type=search", "url2": "http://merry-house.jp/" }, "geometry": { "type": "Point", "coordinates": [ 132.391920226458154, 34.446287878271619 ] } },
{ "type": "Feature", "properties": { "内容": "ホームケアソワン【定期巡回・随時対応型訪問介護看護】広島県広島市安佐南区西原4-36-13-108", "url": "https://www.kaigokensaku.mhlw.go.jp/34/index.php?action_kouhyou_detail_004_kani=true&JigyosyoCd=3490101429-00&ServiceCd=760&Type=search", "url2": null }, "geometry": { "type": "Point", "coordinates": [ 127.7500099, 26.24984790000001 ] } },
{ "type": "Feature", "properties": { "内容": "ふかわ・くにくさ定期巡回・随時対応型訪問介護看護事業所【定期巡回・随時対応型訪問介護看護】広島県広島市安佐北区上深川町１８６番地１", "url": "https://www.kaigokensaku.mhlw.go.jp/34/index.php?action_kouhyou_detail_004_kani=true&JigyosyoCd=3490100769-00&ServiceCd=760&Type=search", "url2": "https://www.kunikusa.or.jp" }, "geometry": { "type": "Point", "coordinates": [ 132.552550699999983, 34.4734042 ] } },
{ "type": "Feature", "properties": { "内容": "くらしさ介護ステーションたかとり【定期巡回・随時対応型訪問介護看護】広島県広島市安佐北区三入六丁目１８番６号", "url": "https://www.kaigokensaku.mhlw.go.jp/34/index.php?action_kouhyou_detail_004_kani=true&JigyosyoCd=3490101361-00&ServiceCd=760&Type=search", "url2": null }, "geometry": { "type": "Point", "coordinates": [ 132.529668261158946, 34.546008472410946 ] } },
{ "type": "Feature", "properties": { "内容": "エコール24安佐北【定期巡回・随時対応型訪問介護看護】広島市安佐北区亀崎一丁目2番33号", "url": "https://www.kaigokensaku.mhlw.go.jp/34/index.php?action_kouhyou_detail_004_kani=true&JigyosyoCd=3490100710-00&ServiceCd=760&Type=search", "url2": "https://www.nihonkijun.jp/" }, "geometry": { "type": "Point", "coordinates": [ 132.523809379762241, 34.481823737167822 ] } },
{ "type": "Feature", "properties": { "内容": "定期巡回随時対応型訪問介護看護スープ矢野【定期巡回・随時対応型訪問介護看護】広島県広島市安芸区矢野西4丁目30−18スープ矢野", "url": "https://www.kaigokensaku.mhlw.go.jp/34/index.php?action_kouhyou_detail_004_kani=true&JigyosyoCd=3490101460-00&ServiceCd=760&Type=search", "url2": "https://care.s-brillant.co.jp/nursing-home/soup-yano" }, "geometry": { "type": "Point", "coordinates": [ 132.523859728836072, 34.349594575957155 ] } },
{ "type": "Feature", "properties": { "内容": "ニックス安芸ヘルパー・ナース24【定期巡回・随時対応型訪問介護看護】広島県広島市安芸区船越南2丁目6-6", "url": "https://www.kaigokensaku.mhlw.go.jp/34/index.php?action_kouhyou_detail_004_kani=true&JigyosyoCd=3490100892-00&ServiceCd=760&Type=search", "url2": "http://www.nix-net.co.jp" }, "geometry": { "type": "Point", "coordinates": [ 132.521612299999987, 34.3735341 ] } },
{ "type": "Feature", "properties": { "内容": "定期巡回メニーピープル広島西【定期巡回・随時対応型訪問介護看護】広島県広島市佐伯区五月が丘1-33-3401", "url": "https://www.kaigokensaku.mhlw.go.jp/34/index.php?action_kouhyou_detail_004_kani=true&JigyosyoCd=3490201765-00&ServiceCd=760&Type=search", "url2": "https://www.manypeople.co.jp/" }, "geometry": { "type": "Point", "coordinates": [ 132.405733199999986, 34.4189572 ] } },
{ "type": "Feature", "properties": { "内容": "ニックス佐伯ヘルパー・ナース24【定期巡回・随時対応型訪問介護看護】広島市佐伯区三筋一丁目9-3", "url": "https://www.kaigokensaku.mhlw.go.jp/34/index.php?action_kouhyou_detail_004_kani=true&JigyosyoCd=3490201021-00&ServiceCd=760&Type=search", "url2": "https://www.nix-net.co.jp/" }, "geometry": { "type": "Point", "coordinates": [ 132.346863776404945, 34.365223457331744 ] } },
{ "type": "Feature", "properties": { "内容": "定期巡回・随時対応型訪問介護看護スープ五日市【定期巡回・随時対応型訪問介護看護】広島県広島市佐伯区五日市中央5丁目13－16", "url": "https://www.kaigokensaku.mhlw.go.jp/34/index.php?action_kouhyou_detail_004_kani=true&JigyosyoCd=3490201682-00&ServiceCd=760&Type=search", "url2": "https://care.s-brillant.co.jp" }, "geometry": { "type": "Point", "coordinates": [ 132.353303899999986, 34.373914 ] } },
{ "type": "Feature", "properties": { "内容": "定期巡回随時対応型訪問介護看護生協いつかいち24【定期巡回・随時対応型訪問介護看護】広島県広島市佐伯区千同1丁目21-16", "url": "https://www.kaigokensaku.mhlw.go.jp/34/index.php?action_kouhyou_detail_004_kani=true&JigyosyoCd=3490201724-00&ServiceCd=760&Type=search", "url2": "itsuka24@hch.coop" }, "geometry": { "type": "Point", "coordinates": [ 132.3521529, 34.3769346 ] } },
{ "type": "Feature", "properties": { "内容": "ほほえみ広島西［定期巡回・随時対応］【定期巡回・随時対応型訪問介護看護】広島県広島市佐伯区八幡東四丁目26番5号", "url": "https://www.kaigokensaku.mhlw.go.jp/34/index.php?action_kouhyou_detail_004_kani=true&JigyosyoCd=3490201898-00&ServiceCd=760&Type=search", "url2": "http://hohoemi-gr.jp" }, "geometry": { "type": "Point", "coordinates": [ 132.365394, 34.3946312 ] } },
{ "type": "Feature", "properties": { "内容": "定期巡回・随時対応型訪問介護看護事業所e-こころ【定期巡回・随時対応型訪問介護看護】広島県呉市広本町一丁目５番２８号", "url": "https://www.kaigokensaku.mhlw.go.jp/34/index.php?action_kouhyou_detail_004_kani=true&JigyosyoCd=3490500364-00&ServiceCd=760&Type=search", "url2": null }, "geometry": { "type": "Point", "coordinates": [ 132.618364700000029, 34.2318628 ] } },
{ "type": "Feature", "properties": { "内容": "定期巡回・随時対応型訪問介護看護事業所下北方【定期巡回・随時対応型訪問介護看護】広島県三原市下北方一丁目7番22号すまいる下北方", "url": "https://www.kaigokensaku.mhlw.go.jp/34/index.php?action_kouhyou_detail_004_kani=true&JigyosyoCd=3490900408-00&ServiceCd=760&Type=search", "url2": "http://npokizuna.jp/" }, "geometry": { "type": "Point", "coordinates": [ 132.974682800000011, 34.4065506 ] } },
{ "type": "Feature", "properties": { "内容": "定期巡回・随時対応型訪問介護サンライズみはら【定期巡回・随時対応型訪問介護看護】広島県三原市宮浦四丁目4番29号", "url": "https://www.kaigokensaku.mhlw.go.jp/34/index.php?action_kouhyou_detail_004_kani=true&JigyosyoCd=3490900309-00&ServiceCd=760&Type=search", "url2": "http://www.snrs.or.jp" }, "geometry": { "type": "Point", "coordinates": [ 133.063230800000042, 34.398783 ] } },
{ "type": "Feature", "properties": { "内容": "定期巡回随時対応型訪問介護看護　きらら【定期巡回・随時対応型訪問介護看護】広島県尾道市門田町１番39号", "url": "https://www.kaigokensaku.mhlw.go.jp/34/index.php?action_kouhyou_detail_004_kani=true&JigyosyoCd=3491100545-00&ServiceCd=760&Type=search", "url2": null }, "geometry": { "type": "Point", "coordinates": [ 133.18650619999994, 34.4164135 ] } },
{ "type": "Feature", "properties": { "内容": "定期巡回・随時対応型訪問介護看護いちょうの樹【定期巡回・随時対応型訪問介護看護】広島県尾道市向東町8614-1尾道いちょうの樹", "url": "https://www.kaigokensaku.mhlw.go.jp/34/index.php?action_kouhyou_detail_004_kani=true&JigyosyoCd=3491100438-00&ServiceCd=760&Type=search", "url2": "http://ichonoki.com/" }, "geometry": { "type": "Point", "coordinates": [ 133.219630667778119, 34.398610303097115 ] } },
{ "type": "Feature", "properties": { "内容": "定期巡回　長江【定期巡回・随時対応型訪問介護看護】広島県尾道市山波町３４３番地", "url": "https://www.kaigokensaku.mhlw.go.jp/34/index.php?action_kouhyou_detail_004_kani=true&JigyosyoCd=3491100446-00&ServiceCd=760&Type=search", "url2": "https://nagae.sakura.ne.jp/" }, "geometry": { "type": "Point", "coordinates": [ 133.227771409700438, 34.423341234612778 ] } },
{ "type": "Feature", "properties": { "内容": "訪問介護事業所　輝き　みなりの家【定期巡回・随時対応型訪問介護看護】広島県尾道市美ノ郷町三成2800-1", "url": "https://www.kaigokensaku.mhlw.go.jp/34/index.php?action_kouhyou_detail_004_kani=true&JigyosyoCd=3491100602-00&ServiceCd=760&Type=search", "url2": "https://care.s-brillant.co.jp/" }, "geometry": { "type": "Point", "coordinates": [ 133.196443035538863, 34.444851917548114 ] } },
{ "type": "Feature", "properties": { "内容": "ケアステーションしんがい【定期巡回・随時対応型訪問介護看護】広島県福山市新涯町三丁目19番27号", "url": "https://www.kaigokensaku.mhlw.go.jp/34/index.php?action_kouhyou_detail_004_kani=true&JigyosyoCd=3491502260-00&ServiceCd=760&Type=search", "url2": "https://www.sanyo.or.jp/shingai/" }, "geometry": { "type": "Point", "coordinates": [ 133.392431499999986, 34.460732 ] } },
{ "type": "Feature", "properties": { "内容": "定期巡回・随時対応型訪問介護看護事業所仁伍【定期巡回・随時対応型訪問介護看護】広島県福山市木之庄町五丁目９番１８号すまいる仁伍", "url": "https://www.kaigokensaku.mhlw.go.jp/34/index.php?action_kouhyou_detail_004_kani=true&JigyosyoCd=3491501825-00&ServiceCd=760&Type=search", "url2": "http://npokizuna.jp/" }, "geometry": { "type": "Point", "coordinates": [ 133.3609166, 34.4978352 ] } },
{ "type": "Feature", "properties": { "内容": "定期巡回・随時対応型訪問介護看護ゆうき【定期巡回・随時対応型訪問介護看護】広島県福山市御幸町上岩成813サービス付き高齢者向け住宅かがやきの家", "url": "https://www.kaigokensaku.mhlw.go.jp/34/index.php?action_kouhyou_detail_004_kani=true&JigyosyoCd=3491502716-00&ServiceCd=760&Type=search", "url2": "http://yuuki-kagayaki.com" }, "geometry": { "type": "Point", "coordinates": [ 133.342080900000013, 34.5477696 ] } },
{ "type": "Feature", "properties": { "内容": "永和会多機能看護介護ステーション【定期巡回・随時対応型訪問介護看護】福山市東村町466番地2", "url": "https://www.kaigokensaku.mhlw.go.jp/34/index.php?action_kouhyou_detail_004_kani=true&JigyosyoCd=3491501247-00&ServiceCd=760&Type=search", "url2": "http://www.eiwa-kai.or.jp/" }, "geometry": { "type": "Point", "coordinates": [ 133.240720991888566, 34.46143253399466 ] } },
{ "type": "Feature", "properties": { "内容": "定期巡回・随時対応型訪問介護看護事業所備後の里【定期巡回・随時対応型訪問介護看護】広島県福山市駅家町万能倉96-1", "url": "https://www.kaigokensaku.mhlw.go.jp/34/index.php?action_kouhyou_detail_004_kani=true&JigyosyoCd=3491502492-00&ServiceCd=760&Type=search", "url2": "http://www.bingonosato.jp" }, "geometry": { "type": "Point", "coordinates": [ 133.340745, 34.5439169 ] } },
{ "type": "Feature", "properties": { "内容": "定期巡回随時対応型とうわ【定期巡回・随時対応型訪問介護看護】広島県福山市春日町7丁目6番27号", "url": "https://www.kaigokensaku.mhlw.go.jp/34/index.php?action_kouhyou_detail_004_kani=true&JigyosyoCd=3491501221-00&ServiceCd=760&Type=search", "url2": "http://www.toukoukai.or.jp/" }, "geometry": { "type": "Point", "coordinates": [ 133.415207900000041, 34.5087723 ] } },
{ "type": "Feature", "properties": { "内容": "定期・随時訪問介護オールウェイズ【定期巡回・随時対応型訪問介護看護】福山市駅家町大字法成寺125-2", "url": "https://www.kaigokensaku.mhlw.go.jp/34/index.php?action_kouhyou_detail_004_kani=true&JigyosyoCd=3491501270-00&ServiceCd=760&Type=search", "url2": "http://ekiya-sakura.jp" }, "geometry": { "type": "Point", "coordinates": [ 133.325640114680482, 34.554848760798599 ] } },
{ "type": "Feature", "properties": { "内容": "てらおか定期巡回・随時対応型訪問介護看護ステーション【定期巡回・随時対応型訪問介護看護】広島県福山市新市町新市56番地1ローカルコモンズ・ウィル内", "url": "https://www.kaigokensaku.mhlw.go.jp/34/index.php?action_kouhyou_detail_004_kani=true&JigyosyoCd=3491501502-00&ServiceCd=760&Type=search", "url2": null }, "geometry": { "type": "Point", "coordinates": [ 133.279045699999983, 34.5503662 ] } },
{ "type": "Feature", "properties": { "内容": "ありがとう安心定期便【定期巡回・随時対応型訪問介護看護】広島県福山市春日町浦上1224番地", "url": "https://www.kaigokensaku.mhlw.go.jp/34/index.php?action_kouhyou_detail_004_kani=true&JigyosyoCd=3491502013-00&ServiceCd=760&Type=search", "url2": "https://takinouarigatou.com" }, "geometry": { "type": "Point", "coordinates": [ 133.41871279999998, 34.5242358 ] } },
{ "type": "Feature", "properties": { "内容": "定期巡回　鏡山【定期巡回・随時対応型訪問介護看護】広島県福山市神村町3704番地1ケアホーム鏡山", "url": "https://www.kaigokensaku.mhlw.go.jp/34/index.php?action_kouhyou_detail_004_kani=true&JigyosyoCd=3491501874-00&ServiceCd=760&Type=search", "url2": "https://nagae.sakura.ne.jp/" }, "geometry": { "type": "Point", "coordinates": [ 133.27252969999995, 34.4588067 ] } },
{ "type": "Feature", "properties": { "内容": "ケアステーションざおう【定期巡回・随時対応型訪問介護看護】広島県福山市蔵王町７１６２番地１", "url": "https://www.kaigokensaku.mhlw.go.jp/34/index.php?action_kouhyou_detail_004_kani=true&JigyosyoCd=3491502286-00&ServiceCd=760&Type=search", "url2": "https://kenseigroup.jp/publics/index/27/" }, "geometry": { "type": "Point", "coordinates": [ 133.402323251589962, 34.517048521166714 ] } },
{ "type": "Feature", "properties": { "内容": "定期巡回随時対応型訪問介護看護事業所　想【定期巡回・随時対応型訪問介護看護】広島県福山市御幸町大字森脇1088-1", "url": "https://www.kaigokensaku.mhlw.go.jp/34/index.php?action_kouhyou_detail_004_kani=true&JigyosyoCd=3491502674-00&ServiceCd=760&Type=search", "url2": "https://live-salvation.co.jp" }, "geometry": { "type": "Point", "coordinates": [ 133.3499828, 34.5331613 ] } },
{ "type": "Feature", "properties": { "内容": "ウェルケアステーションしんがい【定期巡回・随時対応型訪問介護看護】広島県福山市新涯町五丁目２８番３３号", "url": "https://www.kaigokensaku.mhlw.go.jp/34/index.php?action_kouhyou_detail_004_kani=true&JigyosyoCd=3491502849-00&ServiceCd=760&Type=search", "url2": "https://kenseigroup.jp/publics/index/27/" }, "geometry": { "type": "Point", "coordinates": [ 133.3917635, 34.45713 ] } },
{ "type": "Feature", "properties": { "内容": "ゆうゆう手城いつでもサポート訪問介護看護【定期巡回・随時対応型訪問介護看護】広島県福山市南手城町4丁目5-28フルリール松浦Ⅱ　106", "url": "https://www.kaigokensaku.mhlw.go.jp/34/index.php?action_kouhyou_detail_004_kani=true&JigyosyoCd=3491502880-00&ServiceCd=760&Type=search", "url2": "https://www.careoth.com/" }, "geometry": { "type": "Point", "coordinates": [ 133.4004468, 34.4843096 ] } },
{ "type": "Feature", "properties": { "内容": "いつでもサポート訪問介護看護【定期巡回・随時対応型訪問介護看護】府中市高木町20番地１", "url": "https://www.kaigokensaku.mhlw.go.jp/34/index.php?action_kouhyou_detail_004_kani=true&JigyosyoCd=3491700104-00&ServiceCd=760&Type=search", "url2": "http://k-yuyu.com/" }, "geometry": { "type": "Point", "coordinates": [ 133.254861399999982, 34.5619672 ] } },
{ "type": "Feature", "properties": { "内容": "定期巡回随時対応型訪問介護看護事業所ゆーさぽセイワ24【定期巡回・随時対応型訪問介護看護】広島県府中市土生町1636-1", "url": "https://www.kaigokensaku.mhlw.go.jp/34/index.php?action_kouhyou_detail_004_kani=true&JigyosyoCd=3491700179-00&ServiceCd=760&Type=search", "url2": "https://www.seiwakai-hiroshima.jp/" }, "geometry": { "type": "Point", "coordinates": [ 133.2262643, 34.5710714 ] } },
{ "type": "Feature", "properties": { "内容": "定期巡回・随時対応型訪問介護看護事業所ゆうしゃいん【定期巡回・随時対応型訪問介護看護】三次市吉舎町吉舎606定期巡回・随時対応型訪問介護看護事業所ゆうしゃいん", "url": "https://www.kaigokensaku.mhlw.go.jp/34/index.php?action_kouhyou_detail_004_kani=true&JigyosyoCd=3491900191-00&ServiceCd=760&Type=search", "url2": "http://www.yuukifukushikai.com/" }, "geometry": { "type": "Point", "coordinates": [ 132.992868700000031, 34.7142669 ] } },
{ "type": "Feature", "properties": { "内容": "ＪＡひろしま定期巡回・随時対応型訪問介護看護事業所【定期巡回・随時対応型訪問介護看護】広島県三次市十日市東三丁目１番１号", "url": "https://www.kaigokensaku.mhlw.go.jp/34/index.php?action_kouhyou_detail_004_kani=true&JigyosyoCd=3491900241-00&ServiceCd=760&Type=search", "url2": "https://www.jahiroshima.or.jp" }, "geometry": { "type": "Point", "coordinates": [ 132.859866, 34.806766199999977 ] } },
{ "type": "Feature", "properties": { "内容": "定期巡回・随時対応型訪問介護看護あかり【定期巡回・随時対応型訪問介護看護】広島県庄原市川北町５３４－３", "url": "https://www.kaigokensaku.mhlw.go.jp/34/index.php?action_kouhyou_detail_004_kani=true&JigyosyoCd=3492100189-00&ServiceCd=760&Type=search", "url2": "https://saijyofukushikai.jp/" }, "geometry": { "type": "Point", "coordinates": [ 133.0026139, 34.887397 ] } },
{ "type": "Feature", "properties": { "内容": "定期巡回・随時対応型訪問介護看護かがやき２４【定期巡回・随時対応型訪問介護看護】大竹市元町１丁目１－５", "url": "https://www.kaigokensaku.mhlw.go.jp/34/index.php?action_kouhyou_detail_004_kani=true&JigyosyoCd=3492300078-00&ServiceCd=760&Type=search", "url2": null }, "geometry": { "type": "Point", "coordinates": [ 132.216949699999986, 34.2069022 ] } },
{ "type": "Feature", "properties": { "内容": "定期巡回・随時対応型訪問介護看護　あったかい手【定期巡回・随時対応型訪問介護看護】高屋町造賀241－1", "url": "https://www.kaigokensaku.mhlw.go.jp/34/index.php?action_kouhyou_detail_004_kani=true&JigyosyoCd=3492500461-00&ServiceCd=760&Type=search", "url2": "https://life-care-takasago.jp" }, "geometry": { "type": "Point", "coordinates": [ 132.750147, 34.476132 ] } },
{ "type": "Feature", "properties": { "内容": "生協ひろしま地域サポート廿日市【定期巡回・随時対応型訪問介護看護】広島県廿日市市大野原１―２―１０", "url": "https://www.kaigokensaku.mhlw.go.jp/34/index.php?action_kouhyou_detail_004_kani=true&JigyosyoCd=3492700350-00&ServiceCd=760&Type=search", "url2": "https://www.hiroshima.coop/" }, "geometry": { "type": "Point", "coordinates": [ 140.654410500000012, 35.8916392 ] } },
{ "type": "Feature", "properties": { "内容": "四季が丘せせらぎ園定期巡回随時対応型訪問介護看護事業所【定期巡回・随時対応型訪問介護看護】広島県廿日市市四季が丘八丁目1番地3", "url": "https://www.kaigokensaku.mhlw.go.jp/34/index.php?action_kouhyou_detail_004_kani=true&JigyosyoCd=3492700186-00&ServiceCd=760&Type=search", "url2": "http://www.saikisatsukikai.jp/" }, "geometry": { "type": "Point", "coordinates": [ 132.290687199999979, 34.3480877 ] } },
{ "type": "Feature", "properties": { "内容": "エコール24廿日市【定期巡回・随時対応型訪問介護看護】広島県廿日市市城内二丁目7番2号", "url": "https://www.kaigokensaku.mhlw.go.jp/34/index.php?action_kouhyou_detail_004_kani=true&JigyosyoCd=3492700376-00&ServiceCd=760&Type=search", "url2": "https://www.nihonkijun.jp/" }, "geometry": { "type": "Point", "coordinates": [ 132.337452808598357, 34.360876881510379 ] } },
{ "type": "Feature", "properties": { "内容": "あんしん江能２４【定期巡回・随時対応型訪問介護看護】江田島市大柿町飛渡瀬4022番地", "url": "https://www.kaigokensaku.mhlw.go.jp/34/index.php?action_kouhyou_detail_004_kani=true&JigyosyoCd=3495000089-00&ServiceCd=760&Type=search", "url2": "http://enou01.com/" }, "geometry": { "type": "Point", "coordinates": [ 132.466458699999947, 34.2145063 ] } },
{ "type": "Feature", "properties": { "内容": "ニックス安芸府中ヘルパー・ナース24【定期巡回・随時対応型訪問介護看護】広島県安芸郡府中町瀬戸ハイム三丁目16番2号", "url": "https://www.kaigokensaku.mhlw.go.jp/34/index.php?action_kouhyou_detail_004_kani=true&JigyosyoCd=3493200202-00&ServiceCd=760&Type=search", "url2": "http://www.nix-net.co.jp" }, "geometry": { "type": "Point", "coordinates": [ 132.517120299999988, 34.3897316 ] } },
{ "type": "Feature", "properties": { "内容": "あけぼの訪問介護事業所【定期巡回・随時対応型訪問介護看護】広島県山県郡北広島町壬生915-4", "url": "https://www.kaigokensaku.mhlw.go.jp/34/index.php?action_kouhyou_detail_004_kani=true&JigyosyoCd=3493500098-00&ServiceCd=760&Type=search", "url2": "https://m-meiwakai.jp/daycareservice/houmon-service/akebono_hkj/" }, "geometry": { "type": "Point", "coordinates": [ 132.553040099999947, 34.6803683 ] } }
]
}
