{
"type": "FeatureCollection",
"name": "geo_34_短期入所療養介護(療養病床を有する病院等）",
"crs": { "type": "name", "properties": { "name": "urn:ogc:def:crs:OGC:1.3:CRS84" } },
"features": [
{ "type": "Feature", "properties": { "内容": "医療法人社団　古川医院【短期入所療養介護(療養病床を有する病院等）】広島市南区東雲本町1丁目1番2号", "url": "https://www.kaigokensaku.mhlw.go.jp/34/index.php?action_kouhyou_detail_004_kani=true&JigyosyoCd=3410114247-00&ServiceCd=&Type=search", "url2": "http://www.furukawa-iin.com/" }, "geometry": { "type": "Point", "coordinates": [ 132.483970699999986, 34.3843257 ] } },
{ "type": "Feature", "properties": { "内容": "西原セントラルクリニック【短期入所療養介護(療養病床を有する病院等）】広島県広島市安佐南区西原８丁目３３番３号", "url": "https://www.kaigokensaku.mhlw.go.jp/34/index.php?action_kouhyou_detail_004_kani=true&JigyosyoCd=3470210588-00&ServiceCd=&Type=search", "url2": "http://koenkai-gr.jp" }, "geometry": { "type": "Point", "coordinates": [ 132.474295791540499, 34.443174905006835 ] } },
{ "type": "Feature", "properties": { "内容": "毘沙門クリニック【短期入所療養介護(療養病床を有する病院等）】広島市安佐南区緑井3丁目40-30", "url": "https://www.kaigokensaku.mhlw.go.jp/34/index.php?action_kouhyou_detail_004_kani=true&JigyosyoCd=3410222354-00&ServiceCd=&Type=search", "url2": "http://www.asuka-net.or.jp" }, "geometry": { "type": "Point", "coordinates": [ 132.4692933, 34.4769328 ] } },
{ "type": "Feature", "properties": { "内容": "高橋内科小児科医院【短期入所療養介護(療養病床を有する病院等）】広島市安佐南区緑井二丁目12番25号", "url": "https://www.kaigokensaku.mhlw.go.jp/34/index.php?action_kouhyou_detail_004_kani=true&JigyosyoCd=3410216091-00&ServiceCd=&Type=search", "url2": "http://www.asuka-net.or.jp" }, "geometry": { "type": "Point", "coordinates": [ 132.470185099999981, 34.4675117 ] } },
{ "type": "Feature", "properties": { "内容": "医療法人　楽生会　馬場病院【短期入所療養介護(療養病床を有する病院等）】広島県竹原市下野町1744", "url": "https://www.kaigokensaku.mhlw.go.jp/34/index.php?action_kouhyou_detail_004_kani=true&JigyosyoCd=3410710143-00&ServiceCd=&Type=search", "url2": "https://rakuseikai.jp" }, "geometry": { "type": "Point", "coordinates": [ 132.888255, 34.3351397 ] } },
{ "type": "Feature", "properties": { "内容": "奥坊クリニック【短期入所療養介護(療養病床を有する病院等）】福山市西桜町１丁目６番１号", "url": "https://www.kaigokensaku.mhlw.go.jp/34/index.php?action_kouhyou_detail_004_kani=true&JigyosyoCd=3411511581-00&ServiceCd=&Type=search", "url2": "http://www.okunobou.or.jp/" }, "geometry": { "type": "Point", "coordinates": [ 133.357746300000031, 34.4840828 ] } },
{ "type": "Feature", "properties": { "内容": "徳永医院【短期入所療養介護(療養病床を有する病院等）】広島県安芸高田市甲田町高田原1419-1", "url": "https://www.kaigokensaku.mhlw.go.jp/34/index.php?action_kouhyou_detail_004_kani=true&JigyosyoCd=3413610704-00&ServiceCd=&Type=search", "url2": null }, "geometry": { "type": "Point", "coordinates": [ 132.7565108, 34.6970849 ] } },
{ "type": "Feature", "properties": { "内容": "山本整形外科病院【短期入所療養介護(療養病床を有する病院等）】安芸郡海田町堀川町２－２３", "url": "https://www.kaigokensaku.mhlw.go.jp/34/index.php?action_kouhyou_detail_004_kani=true&JigyosyoCd=3413210711-00&ServiceCd=&Type=search", "url2": null }, "geometry": { "type": "Point", "coordinates": [ 132.530947500000025, 34.3684371 ] } }
]
}
