{
"type": "FeatureCollection",
"name": "geo_34_介護老人福祉施設",
"crs": { "type": "name", "properties": { "name": "urn:ogc:def:crs:OGC:1.3:CRS84" } },
"features": [
{ "type": "Feature", "properties": { "内容": "特別養護老人ホーム悠悠タウン江波【介護老人福祉施設】広島市中区江波西2丁目14-8", "url": "https://www.kaigokensaku.mhlw.go.jp/34/index.php?action_kouhyou_detail_004_kani=true&JigyosyoCd=3470201389-00&ServiceCd=510&Type=search", "url2": "https://www.city.hiroshima.med.or.jp/hma/youyou/eba/tokuyou.html" }, "geometry": { "type": "Point", "coordinates": [ 132.428835599999957, 34.3680629 ] } },
{ "type": "Feature", "properties": { "内容": "特別養護老人ホームおりーぶえん【介護老人福祉施設】広島県広島市中区吉島東二丁目17番5号", "url": "https://www.kaigokensaku.mhlw.go.jp/34/index.php?action_kouhyou_detail_004_kani=true&JigyosyoCd=3470205083-00&ServiceCd=510&Type=search", "url2": "http://www.seikeikai.server-shared.com/ori-bu/" }, "geometry": { "type": "Point", "coordinates": [ 132.449735, 34.3697738 ] } },
{ "type": "Feature", "properties": { "内容": "特別養護老人ホーム　へさか福寿苑【介護老人福祉施設】広島市東区戸坂大上1丁目5番1-8号", "url": "https://www.kaigokensaku.mhlw.go.jp/34/index.php?action_kouhyou_detail_004_kani=true&JigyosyoCd=3470105226-00&ServiceCd=510&Type=search", "url2": "https://kakitsubata-fukushikai.com" }, "geometry": { "type": "Point", "coordinates": [ 132.490013299999987, 34.4272686 ] } },
{ "type": "Feature", "properties": { "内容": "介護老人福祉施設寿老園【介護老人福祉施設】広島市東区山根町38番23号", "url": "https://www.kaigokensaku.mhlw.go.jp/34/index.php?action_kouhyou_detail_004_kani=true&JigyosyoCd=3470101407-00&ServiceCd=510&Type=search", "url2": "http://www.jurouen.or.jp" }, "geometry": { "type": "Point", "coordinates": [ 132.483822799999984, 34.4059455 ] } },
{ "type": "Feature", "properties": { "内容": "特別養護老人ホーム神田山長生園【介護老人福祉施設】広島市東区牛田新町１丁目１８番１号", "url": "https://www.kaigokensaku.mhlw.go.jp/34/index.php?action_kouhyou_detail_004_kani=true&JigyosyoCd=3470101761-00&ServiceCd=510&Type=search", "url2": "http://www.tyoseien.jp" }, "geometry": { "type": "Point", "coordinates": [ 132.473509199999967, 34.4195971 ] } },
{ "type": "Feature", "properties": { "内容": "特別養護老人ホーム　虹の里【介護老人福祉施設】広島市東区馬木2-1398-1", "url": "https://www.kaigokensaku.mhlw.go.jp/34/index.php?action_kouhyou_detail_004_kani=true&JigyosyoCd=3470101845-00&ServiceCd=510&Type=search", "url2": "http://nijinosato.info" }, "geometry": { "type": "Point", "coordinates": [ 132.5278985, 34.4381714 ] } },
{ "type": "Feature", "properties": { "内容": "特別養護老人ホームあけぼの寿老園【介護老人福祉施設】広島県広島市東区曙1-1-28", "url": "https://www.kaigokensaku.mhlw.go.jp/34/index.php?action_kouhyou_detail_004_kani=true&JigyosyoCd=3470109152-00&ServiceCd=510&Type=search", "url2": "http:/www.jurouen.or.jp" }, "geometry": { "type": "Point", "coordinates": [ 132.488183099999986, 34.3960682 ] } },
{ "type": "Feature", "properties": { "内容": "特別養護老人ホーム第二光明【介護老人福祉施設】広島県広島市東区牛田本町6-1-1", "url": "https://www.kaigokensaku.mhlw.go.jp/34/index.php?action_kouhyou_detail_004_kani=true&JigyosyoCd=3470109384-00&ServiceCd=510&Type=search", "url2": "http://komyogakuen.jp" }, "geometry": { "type": "Point", "coordinates": [ 132.467468199999985, 34.4151308 ] } },
{ "type": "Feature", "properties": { "内容": "特別養護老人ホーム　蓬莱園【介護老人福祉施設】広島市東区東山町1番9号", "url": "https://www.kaigokensaku.mhlw.go.jp/34/index.php?action_kouhyou_detail_004_kani=true&JigyosyoCd=3470101811-00&ServiceCd=510&Type=search", "url2": "http:/www.kokemakai.jp/" }, "geometry": { "type": "Point", "coordinates": [ 132.491328355225392, 34.398588864478086 ] } },
{ "type": "Feature", "properties": { "内容": "介護老人福祉施設　サンヒルズ広島【介護老人福祉施設】広島市東区中山上1丁目24番1号", "url": "https://www.kaigokensaku.mhlw.go.jp/34/index.php?action_kouhyou_detail_004_kani=true&JigyosyoCd=3470107081-00&ServiceCd=510&Type=search", "url2": "https://joukou.or.jp/" }, "geometry": { "type": "Point", "coordinates": [ 132.4947965, 34.4174502 ] } },
{ "type": "Feature", "properties": { "内容": "特別養護老人ホームふくだの里【介護老人福祉施設】広島市東区福田５丁目１１６５番地３", "url": "https://www.kaigokensaku.mhlw.go.jp/34/index.php?action_kouhyou_detail_004_kani=true&JigyosyoCd=3470100946-00&ServiceCd=510&Type=search", "url2": "http://joukou.or.jp" }, "geometry": { "type": "Point", "coordinates": [ 132.542532833729496, 34.453804840438622 ] } },
{ "type": "Feature", "properties": { "内容": "特別養護老人ホーム　温品荘【介護老人福祉施設】広島市東区温品七丁目１２番３５号", "url": "https://www.kaigokensaku.mhlw.go.jp/34/index.php?action_kouhyou_detail_004_kani=true&JigyosyoCd=3470101837-00&ServiceCd=510&Type=search", "url2": "http://nukushinasou.jp/index.html" }, "geometry": { "type": "Point", "coordinates": [ 132.509623, 34.4140287 ] } },
{ "type": "Feature", "properties": { "内容": "虹の里　第２特別養護老人ホーム【介護老人福祉施設】広島県広島市東区馬木三丁目26-2-4", "url": "https://www.kaigokensaku.mhlw.go.jp/34/index.php?action_kouhyou_detail_004_kani=true&JigyosyoCd=3470108048-00&ServiceCd=510&Type=search", "url2": "http://nijinosato.info" }, "geometry": { "type": "Point", "coordinates": [ 132.53092879999997, 34.435277200000016 ] } },
{ "type": "Feature", "properties": { "内容": "ＩＧＬナーシングホーム信愛の郷【介護老人福祉施設】広島県広島市南区本浦町8番39号", "url": "https://www.kaigokensaku.mhlw.go.jp/34/index.php?action_kouhyou_detail_004_kani=true&JigyosyoCd=3470110275-00&ServiceCd=510&Type=search", "url2": "https://www.igl.or.jp/" }, "geometry": { "type": "Point", "coordinates": [ 132.486342758197054, 34.374314890371203 ] } },
{ "type": "Feature", "properties": { "内容": "特別養護老人ホームひうな荘【介護老人福祉施設】広島市南区日宇那町30-1", "url": "https://www.kaigokensaku.mhlw.go.jp/34/index.php?action_kouhyou_detail_004_kani=true&JigyosyoCd=3470101852-00&ServiceCd=510&Type=search", "url2": "https://www.misasakai.or.jp/" }, "geometry": { "type": "Point", "coordinates": [ 132.492701, 34.3656837 ] } },
{ "type": "Feature", "properties": { "内容": "特別養護老人ホーム光清苑【介護老人福祉施設】広島市南区出汐2丁目3番46号", "url": "https://www.kaigokensaku.mhlw.go.jp/34/index.php?action_kouhyou_detail_004_kani=true&JigyosyoCd=3470101472-00&ServiceCd=510&Type=search", "url2": "https://kousei-g.net" }, "geometry": { "type": "Point", "coordinates": [ 132.476007799999934, 34.376207 ] } },
{ "type": "Feature", "properties": { "内容": "特別養護老人ホーム輝き【介護老人福祉施設】広島市南区北大河町39-1", "url": "https://www.kaigokensaku.mhlw.go.jp/34/index.php?action_kouhyou_detail_004_kani=true&JigyosyoCd=3470101860-00&ServiceCd=510&Type=search", "url2": "https://kagayaki-houshikai.or.jp" }, "geometry": { "type": "Point", "coordinates": [ 132.48234333002469, 34.371513483626266 ] } },
{ "type": "Feature", "properties": { "内容": "特別養護老人ホーム　広島平和養老館【介護老人福祉施設】広島市南区似島町字東大谷３０７３－５", "url": "https://www.kaigokensaku.mhlw.go.jp/34/index.php?action_kouhyou_detail_004_kani=true&JigyosyoCd=3470101878-00&ServiceCd=510&Type=search", "url2": "http://heiwa-youroukan.jp/contents/index.html" }, "geometry": { "type": "Point", "coordinates": [ 132.433078499999965, 34.3117363 ] } },
{ "type": "Feature", "properties": { "内容": "特別養護老人ホームでじま・くにくさ【介護老人福祉施設】広島市南区出島1丁目18番17号", "url": "https://www.kaigokensaku.mhlw.go.jp/34/index.php?action_kouhyou_detail_004_kani=true&JigyosyoCd=3470107099-00&ServiceCd=510&Type=search", "url2": "http://www.kunikusa.or.jp/" }, "geometry": { "type": "Point", "coordinates": [ 132.454959799999983, 34.3610776 ] } },
{ "type": "Feature", "properties": { "内容": "特別養護老人ホーム　広島和光園【介護老人福祉施設】広島市南区宇品東三丁目６－２６", "url": "https://www.kaigokensaku.mhlw.go.jp/34/index.php?action_kouhyou_detail_004_kani=true&JigyosyoCd=3470101035-00&ServiceCd=510&Type=search", "url2": "https://wakoen.or.jp/" }, "geometry": { "type": "Point", "coordinates": [ 132.473025, 34.3642944 ] } },
{ "type": "Feature", "properties": { "内容": "特別養護老人ホームサンシャイン南蟹屋【介護老人福祉施設】広島市南区南蟹屋一丁目８番１２号", "url": "https://www.kaigokensaku.mhlw.go.jp/34/index.php?action_kouhyou_detail_004_kani=true&JigyosyoCd=3470104286-00&ServiceCd=510&Type=search", "url2": "https://www.sunshine-m.jp/" }, "geometry": { "type": "Point", "coordinates": [ 132.483623299999977, 34.3896057 ] } },
{ "type": "Feature", "properties": { "内容": "特別養護老人ホーム　広島八景園【介護老人福祉施設】広島市南区仁保１丁目１番２０号", "url": "https://www.kaigokensaku.mhlw.go.jp/34/index.php?action_kouhyou_detail_004_kani=true&JigyosyoCd=3470106737-00&ServiceCd=510&Type=search", "url2": "http://hakkeien.hiroshimakosei.or.jp/" }, "geometry": { "type": "Point", "coordinates": [ 132.494328399999972, 34.3737384 ] } },
{ "type": "Feature", "properties": { "内容": "特別養護老人ホーム第二いこいの園【介護老人福祉施設】広島市西区己斐上五丁目８４７－１", "url": "https://www.kaigokensaku.mhlw.go.jp/34/index.php?action_kouhyou_detail_004_kani=true&JigyosyoCd=3470201660-00&ServiceCd=510&Type=search", "url2": "http://www.habatakinosato.jp/" }, "geometry": { "type": "Point", "coordinates": [ 132.4254479, 34.4245877 ] } },
{ "type": "Feature", "properties": { "内容": "特別養護老人ホーム　くすの木苑【介護老人福祉施設】広島市西区福島町二丁目３３－３０", "url": "https://www.kaigokensaku.mhlw.go.jp/34/index.php?action_kouhyou_detail_004_kani=true&JigyosyoCd=3470201116-00&ServiceCd=510&Type=search", "url2": "http://kusunokien.or.jp/" }, "geometry": { "type": "Point", "coordinates": [ 132.430271, 34.3918301 ] } },
{ "type": "Feature", "properties": { "内容": "特別養護老人ホーム三滝苑【介護老人福祉施設】広島市西区三滝本町２丁目１番１－２７号", "url": "https://www.kaigokensaku.mhlw.go.jp/34/index.php?action_kouhyou_detail_004_kani=true&JigyosyoCd=3470201207-00&ServiceCd=510&Type=search", "url2": "https://www.mitakien.net" }, "geometry": { "type": "Point", "coordinates": [ 132.4496858, 34.4199608 ] } },
{ "type": "Feature", "properties": { "内容": "特別養護老人ホーム千歳園【介護老人福祉施設】広島市西区山田新町二丁目7番2号", "url": "https://www.kaigokensaku.mhlw.go.jp/34/index.php?action_kouhyou_detail_004_kani=true&JigyosyoCd=3470201769-00&ServiceCd=510&Type=search", "url2": "http://www.dohen.or.jp/intro/older/chitoseen01/" }, "geometry": { "type": "Point", "coordinates": [ 132.38692960000003, 34.3992063 ] } },
{ "type": "Feature", "properties": { "内容": "特別養護老人ホーム第三いこいの園【介護老人福祉施設】広島市西区己斐上六丁目939-1", "url": "https://www.kaigokensaku.mhlw.go.jp/34/index.php?action_kouhyou_detail_004_kani=true&JigyosyoCd=3470209721-00&ServiceCd=510&Type=search", "url2": "http://habatakinosato.jp" }, "geometry": { "type": "Point", "coordinates": [ 132.4237286, 34.4216491 ] } },
{ "type": "Feature", "properties": { "内容": "特別養護老人ホームこころ楠木【介護老人福祉施設】広島県広島市西区楠木町四丁目16番6号", "url": "https://www.kaigokensaku.mhlw.go.jp/34/index.php?action_kouhyou_detail_004_kani=true&JigyosyoCd=3470214663-00&ServiceCd=510&Type=search", "url2": "https://kokorohome.wordpress.com/" }, "geometry": { "type": "Point", "coordinates": [ 132.458283600000016, 34.4150346 ] } },
{ "type": "Feature", "properties": { "内容": "特別養護老人ホーム　リバーサイド中広【介護老人福祉施設】広島市西区中広町二丁目15番15号", "url": "https://www.kaigokensaku.mhlw.go.jp/34/index.php?action_kouhyou_detail_004_kani=true&JigyosyoCd=3470202148-00&ServiceCd=510&Type=search", "url2": "http://www.touaikai.com" }, "geometry": { "type": "Point", "coordinates": [ 132.439259200000038, 34.4037013 ] } },
{ "type": "Feature", "properties": { "内容": "特別養護老人ホームともの家【介護老人福祉施設】広島県広島市西区鈴が峰町41-18", "url": "https://www.kaigokensaku.mhlw.go.jp/34/index.php?action_kouhyou_detail_004_kani=true&JigyosyoCd=3470211610-00&ServiceCd=510&Type=search", "url2": "http://tomoe-fukushikai.or.jp/" }, "geometry": { "type": "Point", "coordinates": [ 132.392912499999966, 34.3801504 ] } },
{ "type": "Feature", "properties": { "内容": "ＩＧＬナーシングホームシャレー【介護老人福祉施設】広島市安佐南区上安6丁目31番2号", "url": "https://www.kaigokensaku.mhlw.go.jp/34/index.php?action_kouhyou_detail_004_kani=true&JigyosyoCd=3470212170-00&ServiceCd=510&Type=search", "url2": "http://www.igl.or.jp/" }, "geometry": { "type": "Point", "coordinates": [ 132.444589700000051, 34.4834758 ] } },
{ "type": "Feature", "properties": { "内容": "特別養護老人ホーム和楽荘【介護老人福祉施設】広島県広島市安佐南区伴西5丁目1432番地1", "url": "https://www.kaigokensaku.mhlw.go.jp/34/index.php?action_kouhyou_detail_004_kani=true&JigyosyoCd=3470201470-00&ServiceCd=510&Type=search", "url2": "http://www.warakusou.or.jp" }, "geometry": { "type": "Point", "coordinates": [ 132.375621, 34.459405 ] } },
{ "type": "Feature", "properties": { "内容": "特別養護老人ホーム　菜の華【介護老人福祉施設】広島市安佐南区西原１丁目18番5号", "url": "https://www.kaigokensaku.mhlw.go.jp/34/index.php?action_kouhyou_detail_004_kani=true&JigyosyoCd=3470201496-00&ServiceCd=510&Type=search", "url2": "https://www.seijokaikumano.com/" }, "geometry": { "type": "Point", "coordinates": [ 132.464386900000022, 34.4350235 ] } },
{ "type": "Feature", "properties": { "内容": "特別養護老人ホーム友愛園【介護老人福祉施設】広島市安佐南区伴東二丁目30番11号", "url": "https://www.kaigokensaku.mhlw.go.jp/34/index.php?action_kouhyou_detail_004_kani=true&JigyosyoCd=3470202080-00&ServiceCd=510&Type=search", "url2": "http://www.yuuaien.jp" }, "geometry": { "type": "Point", "coordinates": [ 132.415507276057497, 34.475029348114084 ] } },
{ "type": "Feature", "properties": { "内容": "特別養護老人ホームやすらぎの里広域公園【介護老人福祉施設】広島市安佐南区大塚西４丁目２番20号", "url": "https://www.kaigokensaku.mhlw.go.jp/34/index.php?action_kouhyou_detail_004_kani=true&JigyosyoCd=3470208913-00&ServiceCd=510&Type=search", "url2": "https://care-net.biz/34/heiwakai/" }, "geometry": { "type": "Point", "coordinates": [ 132.3986582, 34.4359411 ] } },
{ "type": "Feature", "properties": { "内容": "特別養護老人ホーム和【介護老人福祉施設】広島県広島市安佐南区山本新町四丁目３番１１号", "url": "https://www.kaigokensaku.mhlw.go.jp/34/index.php?action_kouhyou_detail_004_kani=true&JigyosyoCd=3470213152-00&ServiceCd=510&Type=search", "url2": null }, "geometry": { "type": "Point", "coordinates": [ 132.43672719999995, 34.4479519 ] } },
{ "type": "Feature", "properties": { "内容": "特別養護老人ホーム　慈光園【介護老人福祉施設】広島市安佐南区高取北一丁目17番41号", "url": "https://www.kaigokensaku.mhlw.go.jp/34/index.php?action_kouhyou_detail_004_kani=true&JigyosyoCd=3470201561-00&ServiceCd=510&Type=search", "url2": "http://www.jikouen.jp" }, "geometry": { "type": "Point", "coordinates": [ 132.441337400000066, 34.4773848 ] } },
{ "type": "Feature", "properties": { "内容": "特別養護老人ホーム川内の里【介護老人福祉施設】広島市安佐南区川内一丁目２１番２９号", "url": "https://www.kaigokensaku.mhlw.go.jp/34/index.php?action_kouhyou_detail_004_kani=true&JigyosyoCd=3470203575-00&ServiceCd=510&Type=search", "url2": "http://www.kawauchinosato.net" }, "geometry": { "type": "Point", "coordinates": [ 132.4849372, 34.4565076 ] } },
{ "type": "Feature", "properties": { "内容": "特別養護老人ホーム新都西風苑【介護老人福祉施設】広島市安佐南区大塚東3丁目3番9号", "url": "https://www.kaigokensaku.mhlw.go.jp/34/index.php?action_kouhyou_detail_004_kani=true&JigyosyoCd=3470209846-00&ServiceCd=510&Type=search", "url2": "http://shintoseifuen.or.jp/" }, "geometry": { "type": "Point", "coordinates": [ 132.414267703179945, 34.434572909741469 ] } },
{ "type": "Feature", "properties": { "内容": "特別養護老人ホーム　春日野園【介護老人福祉施設】広島市安佐南区山本新町二丁目18番9－14号", "url": "https://www.kaigokensaku.mhlw.go.jp/34/index.php?action_kouhyou_detail_004_kani=true&JigyosyoCd=3470207907-00&ServiceCd=510&Type=search", "url2": "https://www.saka-group.jp/kasuganoen/" }, "geometry": { "type": "Point", "coordinates": [ 132.434480200000053, 34.4405083 ] } },
{ "type": "Feature", "properties": { "内容": "特別養護老人ホーム　白木の郷【介護老人福祉施設】広島市安佐北区白木町大字小越10230番地", "url": "https://www.kaigokensaku.mhlw.go.jp/34/index.php?action_kouhyou_detail_004_kani=true&JigyosyoCd=3470101886-00&ServiceCd=510&Type=search", "url2": "http://www.misasakai.or.jp/" }, "geometry": { "type": "Point", "coordinates": [ 132.672559611416659, 34.553055466163286 ] } },
{ "type": "Feature", "properties": { "内容": "従来型特別養護老人ホ－ム　リアライヴ高陽【介護老人福祉施設】広島市安佐北区真亀一丁目1-8", "url": "https://www.kaigokensaku.mhlw.go.jp/34/index.php?action_kouhyou_detail_004_kani=true&JigyosyoCd=3470101894-00&ServiceCd=510&Type=search", "url2": "https://misasakai.ecat.jp/catalog/products/detail?id=23" }, "geometry": { "type": "Point", "coordinates": [ 132.520246134069794, 34.481508236096566 ] } },
{ "type": "Feature", "properties": { "内容": "ユニット型特別養護老人ホーム　三篠園【介護老人福祉施設】広島県広島市安佐北区白木町大字井原1244番地", "url": "https://www.kaigokensaku.mhlw.go.jp/34/index.php?action_kouhyou_detail_004_kani=true&JigyosyoCd=3470109020-00&ServiceCd=510&Type=search", "url2": "https://misasakai.ecat.jp/catalog/products/detail?id=26" }, "geometry": { "type": "Point", "coordinates": [ 132.68038219999994, 34.5941281 ] } },
{ "type": "Feature", "properties": { "内容": "特別養護老人ホーム　リアライヴ高陽【介護老人福祉施設】広島市安佐北区真亀一丁目1-8", "url": "https://www.kaigokensaku.mhlw.go.jp/34/index.php?action_kouhyou_detail_004_kani=true&JigyosyoCd=3470109368-00&ServiceCd=510&Type=search", "url2": "https://misasakai.ecat.jp/catalog/products/detail?id=23" }, "geometry": { "type": "Point", "coordinates": [ 132.520158600000059, 34.4814171 ] } },
{ "type": "Feature", "properties": { "内容": "特別養護老人ホーム高陽荘【介護老人福祉施設】広島県広島市安佐北区深川八丁目36番7号", "url": "https://www.kaigokensaku.mhlw.go.jp/34/index.php?action_kouhyou_detail_004_kani=true&JigyosyoCd=3470109657-00&ServiceCd=510&Type=search", "url2": "http://www.misasakai.or.jp/shisetsu/koyoso.php" }, "geometry": { "type": "Point", "coordinates": [ 132.540085500000032, 34.4693483 ] } },
{ "type": "Feature", "properties": { "内容": "特別養護老人ホーム　白木ツジマチ【介護老人福祉施設】広島県広島市安佐北区白木町小越218番地2高齢者総合福祉施設　白木ツジマチ", "url": "https://www.kaigokensaku.mhlw.go.jp/34/index.php?action_kouhyou_detail_004_kani=true&JigyosyoCd=3470110184-00&ServiceCd=510&Type=search", "url2": "https://www.misasakai.or.jp/shisetsu/izumi.php" }, "geometry": { "type": "Point", "coordinates": [ 132.66269555541993, 34.55225694374495 ] } },
{ "type": "Feature", "properties": { "内容": "特別養護老人ホーム谷和の里【介護老人福祉施設】広島市安佐北区可部町綾ヶ谷2175", "url": "https://www.kaigokensaku.mhlw.go.jp/34/index.php?action_kouhyou_detail_004_kani=true&JigyosyoCd=3470101902-00&ServiceCd=510&Type=search", "url2": "http://katsugikai.jp" }, "geometry": { "type": "Point", "coordinates": [ 132.484735399999977, 34.562537 ] } },
{ "type": "Feature", "properties": { "内容": "特別養護老人ホーム　山まゆ【介護老人福祉施設】広島市安佐北区大林町字根谷１６２番地の２", "url": "https://www.kaigokensaku.mhlw.go.jp/34/index.php?action_kouhyou_detail_004_kani=true&JigyosyoCd=3470102918-00&ServiceCd=510&Type=search", "url2": "http://www.kabedaimonjikai.or.jp" }, "geometry": { "type": "Point", "coordinates": [ 132.548149400000057, 34.5507647 ] } },
{ "type": "Feature", "properties": { "内容": "特別養護老人ホーム　可部南静養園カルム【介護老人福祉施設】広島市安佐北区可部南二丁目19番33号", "url": "https://www.kaigokensaku.mhlw.go.jp/34/index.php?action_kouhyou_detail_004_kani=true&JigyosyoCd=3470107990-00&ServiceCd=510&Type=search", "url2": "http://www.dohen.or.jp/" }, "geometry": { "type": "Point", "coordinates": [ 132.518857600000047, 34.5009592 ] } },
{ "type": "Feature", "properties": { "内容": "特別養護老人ホーム亀山の里【介護老人福祉施設】広島県広島市安佐北区亀山九丁目10番25号亀山の里", "url": "https://www.kaigokensaku.mhlw.go.jp/34/index.php?action_kouhyou_detail_004_kani=true&JigyosyoCd=3470109277-00&ServiceCd=510&Type=search", "url2": "http://katsugikai.jp" }, "geometry": { "type": "Point", "coordinates": [ 132.480523299999987, 34.535028800000035 ] } },
{ "type": "Feature", "properties": { "内容": "特別養護老人ホームこころ【介護老人福祉施設】広島県広島市安佐北区安佐町鈴張2688番地", "url": "https://www.kaigokensaku.mhlw.go.jp/34/index.php?action_kouhyou_detail_004_kani=true&JigyosyoCd=3470109319-00&ServiceCd=510&Type=search", "url2": "https://kokorohome.wordpress.com" }, "geometry": { "type": "Point", "coordinates": [ 132.456506200000035, 34.5813431 ] } },
{ "type": "Feature", "properties": { "内容": "特別養護老人ホームナーシングホームゆうゆう【介護老人福祉施設】広島市安佐北区安佐町後山12415番地5", "url": "https://www.kaigokensaku.mhlw.go.jp/34/index.php?action_kouhyou_detail_004_kani=true&JigyosyoCd=3470101449-00&ServiceCd=510&Type=search", "url2": "http://www.igl.or.jp/kourei/yuuyuu.html" }, "geometry": { "type": "Point", "coordinates": [ 132.445097499999946, 34.5004379 ] } },
{ "type": "Feature", "properties": { "内容": "特別養護老人ホーム第二ナーシングホームゆうゆう【介護老人福祉施設】広島市安佐北区安佐町後山12415番地1", "url": "https://www.kaigokensaku.mhlw.go.jp/34/index.php?action_kouhyou_detail_004_kani=true&JigyosyoCd=3470101456-00&ServiceCd=510&Type=search", "url2": "http://www.igl.or.jp/kourei/2yuuyuu.html" }, "geometry": { "type": "Point", "coordinates": [ 132.444317, 34.5005989 ] } },
{ "type": "Feature", "properties": { "内容": "特別養護老人ホーム　なごみの郷【介護老人福祉施設】広島市安佐北区落合南町196-1", "url": "https://www.kaigokensaku.mhlw.go.jp/34/index.php?action_kouhyou_detail_004_kani=true&JigyosyoCd=3470102538-00&ServiceCd=510&Type=search", "url2": "http://www.nagominosato.jp" }, "geometry": { "type": "Point", "coordinates": [ 132.514232099999958, 34.4615802 ] } },
{ "type": "Feature", "properties": { "内容": "特別養護老人ホームみくに【介護老人福祉施設】広島市安佐北区安佐町大字久地字日ノ浦３２４０番地６５", "url": "https://www.kaigokensaku.mhlw.go.jp/34/index.php?action_kouhyou_detail_004_kani=true&JigyosyoCd=3470101118-00&ServiceCd=510&Type=search", "url2": "https://mikuni04.com/" }, "geometry": { "type": "Point", "coordinates": [ 132.399046399999946, 34.4900966 ] } },
{ "type": "Feature", "properties": { "内容": "特別養護老人ホームくちた園【介護老人福祉施設】広島県広島市安佐北区口田南一丁目9番8号", "url": "https://www.kaigokensaku.mhlw.go.jp/34/index.php?action_kouhyou_detail_004_kani=true&JigyosyoCd=3470108345-00&ServiceCd=510&Type=search", "url2": "http://kuchitaen.site" }, "geometry": { "type": "Point", "coordinates": [ 132.491611698147608, 34.454547544003582 ] } },
{ "type": "Feature", "properties": { "内容": "特別養護老人ホーム可部南静養園アシステ【介護老人福祉施設】広島県広島市安佐北区可部南二丁目１９番３３号", "url": "https://www.kaigokensaku.mhlw.go.jp/34/index.php?action_kouhyou_detail_004_kani=true&JigyosyoCd=3470101779-00&ServiceCd=510&Type=search", "url2": "http://www.dohen.or.jp" }, "geometry": { "type": "Point", "coordinates": [ 132.5190332, 34.501029 ] } },
{ "type": "Feature", "properties": { "内容": "特別養護老人ホーム瀬野川ホーム【介護老人福祉施設】広島市安芸区中野東二丁目３４番１号", "url": "https://www.kaigokensaku.mhlw.go.jp/34/index.php?action_kouhyou_detail_004_kani=true&JigyosyoCd=3470101670-00&ServiceCd=510&Type=search", "url2": "http://www.jiraku.or.jp" }, "geometry": { "type": "Point", "coordinates": [ 132.571218300000027, 34.3876269 ] } },
{ "type": "Feature", "properties": { "内容": "特別養護老人ホーム　くにくさ苑【介護老人福祉施設】広島市安芸区阿戸町418番地の1", "url": "https://www.kaigokensaku.mhlw.go.jp/34/index.php?action_kouhyou_detail_004_kani=true&JigyosyoCd=3470101910-00&ServiceCd=510&Type=search", "url2": "http://www.kunikusa.or.jp/" }, "geometry": { "type": "Point", "coordinates": [ 132.624039, 34.3734895 ] } },
{ "type": "Feature", "properties": { "内容": "特別養護老人ホーム　矢野【介護老人福祉施設】広島県広島市安芸区矢野西三丁目１－１１", "url": "https://www.kaigokensaku.mhlw.go.jp/34/index.php?action_kouhyou_detail_004_kani=true&JigyosyoCd=3470109343-00&ServiceCd=510&Type=search", "url2": "https://www.kounankai.jp/" }, "geometry": { "type": "Point", "coordinates": [ 132.525160612303154, 34.34873728489589 ] } },
{ "type": "Feature", "properties": { "内容": "特別養護老人ホーム　あきなかの【介護老人福祉施設】広島県広島市安芸区中野三丁目9-5在宅複合施設あきなかの　二階", "url": "https://www.kaigokensaku.mhlw.go.jp/34/index.php?action_kouhyou_detail_004_kani=true&JigyosyoCd=3470107172-00&ServiceCd=510&Type=search", "url2": "http://www.jiraku.or.jp" }, "geometry": { "type": "Point", "coordinates": [ 132.564474300000029, 34.3927844 ] } },
{ "type": "Feature", "properties": { "内容": "ユニット型特別養護老人ホーム楽々園kisui【介護老人福祉施設】広島県広島市佐伯区楽々園五丁目15番22号高齢者総合福祉施設楽々園kisui", "url": "https://www.kaigokensaku.mhlw.go.jp/34/index.php?action_kouhyou_detail_004_kani=true&JigyosyoCd=3470214457-00&ServiceCd=510&Type=search", "url2": "https://www.misasakai.or.jp/shisetsu/rakurakuenkisui.php" }, "geometry": { "type": "Point", "coordinates": [ 132.3515611, 34.3595812 ] } },
{ "type": "Feature", "properties": { "内容": "従来型特別養護老人ホーム楽々園kisui【介護老人福祉施設】広島県広島市佐伯区楽々園五丁目15番22号高齢者総合福祉施設楽々園kisui", "url": "https://www.kaigokensaku.mhlw.go.jp/34/index.php?action_kouhyou_detail_004_kani=true&JigyosyoCd=3470214465-00&ServiceCd=510&Type=search", "url2": "https://www.misasakai.or.jp/shisetsu/rakurakuenkisui.php" }, "geometry": { "type": "Point", "coordinates": [ 132.3515611, 34.3595812 ] } },
{ "type": "Feature", "properties": { "内容": "特別養護老人ホームこころ三清荘【介護老人福祉施設】広島県広島市佐伯区石内北一丁目1番11号", "url": "https://www.kaigokensaku.mhlw.go.jp/34/index.php?action_kouhyou_detail_004_kani=true&JigyosyoCd=3470210976-00&ServiceCd=510&Type=search", "url2": "http://www.keizankai.or.jp/" }, "geometry": { "type": "Point", "coordinates": [ 132.375707069450414, 34.445448677979847 ] } },
{ "type": "Feature", "properties": { "内容": "特別養護老人ホームいつかいち福寿苑【介護老人福祉施設】広島市佐伯区坪井一丁目31番7号", "url": "https://www.kaigokensaku.mhlw.go.jp/34/index.php?action_kouhyou_detail_004_kani=true&JigyosyoCd=3470213186-00&ServiceCd=510&Type=search", "url2": "https://www.itukaichi-fukuzyuen-web.com/" }, "geometry": { "type": "Point", "coordinates": [ 132.35101, 34.3750748 ] } },
{ "type": "Feature", "properties": { "内容": "特別養護老人ホーム　令和の郷【介護老人福祉施設】広島県広島市佐伯区湯来町大字白砂字棡市場151番地", "url": "https://www.kaigokensaku.mhlw.go.jp/34/index.php?action_kouhyou_detail_004_kani=true&JigyosyoCd=3470214473-00&ServiceCd=510&Type=search", "url2": "https://www.shirasago-fukushikai.jp" }, "geometry": { "type": "Point", "coordinates": [ 132.289926364418022, 34.419154202900444 ] } },
{ "type": "Feature", "properties": { "内容": "特別養護老人ホーム鈴が峰【介護老人福祉施設】広島市佐伯区五日市町皆賀104番27", "url": "https://www.kaigokensaku.mhlw.go.jp/34/index.php?action_kouhyou_detail_004_kani=true&JigyosyoCd=3470202742-00&ServiceCd=510&Type=search", "url2": "https://www.misasakai.or.jp/" }, "geometry": { "type": "Point", "coordinates": [ 132.3723473, 34.3818052 ] } },
{ "type": "Feature", "properties": { "内容": "特別養護老人ホーム　陽光の家【介護老人福祉施設】広島市佐伯区三宅六丁目105番地", "url": "https://www.kaigokensaku.mhlw.go.jp/34/index.php?action_kouhyou_detail_004_kani=true&JigyosyoCd=3470201264-00&ServiceCd=510&Type=search", "url2": "https://www.pia-gr.or.jp/pia/soujyukai/" }, "geometry": { "type": "Point", "coordinates": [ 132.336148200000025, 34.380021 ] } },
{ "type": "Feature", "properties": { "内容": "特別養護老人ホーム石内慈光園【介護老人福祉施設】広島県広島市佐伯区五日市町石内６４０５番地の１", "url": "https://www.kaigokensaku.mhlw.go.jp/34/index.php?action_kouhyou_detail_004_kani=true&JigyosyoCd=3470201579-00&ServiceCd=510&Type=search", "url2": "http://www.jikouen.jp/ishiutijikouen.html" }, "geometry": { "type": "Point", "coordinates": [ 132.3679952, 34.4039496 ] } },
{ "type": "Feature", "properties": { "内容": "特別養護老人ホーム　湯来保養園【介護老人福祉施設】広島市佐伯区湯来町大字白砂82番地の4", "url": "https://www.kaigokensaku.mhlw.go.jp/34/index.php?action_kouhyou_detail_004_kani=true&JigyosyoCd=3473300436-00&ServiceCd=510&Type=search", "url2": "http://www.yukihoyouen.join-us.jp/" }, "geometry": { "type": "Point", "coordinates": [ 132.283679799999959, 34.4142581 ] } },
{ "type": "Feature", "properties": { "内容": "特別養護老人ホーム　やすらぎの里【介護老人福祉施設】広島市佐伯区五月が丘４丁目１５－６", "url": "https://www.kaigokensaku.mhlw.go.jp/34/index.php?action_kouhyou_detail_004_kani=true&JigyosyoCd=3470201587-00&ServiceCd=510&Type=search", "url2": "https://care-net.biz/34/heiwakai/b51_1.php" }, "geometry": { "type": "Point", "coordinates": [ 132.403405099999986, 34.4313363 ] } },
{ "type": "Feature", "properties": { "内容": "特別養護老人ホーム温養院【介護老人福祉施設】呉市焼山中央6丁目6番13号", "url": "https://www.kaigokensaku.mhlw.go.jp/34/index.php?action_kouhyou_detail_004_kani=true&JigyosyoCd=3470500442-00&ServiceCd=510&Type=search", "url2": "http://kure-dousai.jp/" }, "geometry": { "type": "Point", "coordinates": [ 132.5659071, 34.2900097 ] } },
{ "type": "Feature", "properties": { "内容": "特別養護老人ホーム　成寿園【介護老人福祉施設】呉市広町字白石免田13010番地", "url": "https://www.kaigokensaku.mhlw.go.jp/34/index.php?action_kouhyou_detail_004_kani=true&JigyosyoCd=3470500665-00&ServiceCd=510&Type=search", "url2": "http://www.seijukai-welfare.jp/top.html" }, "geometry": { "type": "Point", "coordinates": [ 132.632540899999981, 34.2505192 ] } },
{ "type": "Feature", "properties": { "内容": "特別養護老人ホームあすらや荘【介護老人福祉施設】呉市郷原町2380番地", "url": "https://www.kaigokensaku.mhlw.go.jp/34/index.php?action_kouhyou_detail_004_kani=true&JigyosyoCd=3470500939-00&ServiceCd=510&Type=search", "url2": "http://www.misasakai.or.jp" }, "geometry": { "type": "Point", "coordinates": [ 132.648738099999946, 34.2957483 ] } },
{ "type": "Feature", "properties": { "内容": "特別養護老人ホームコスモス園【介護老人福祉施設】呉市焼山北三丁目２１番５号", "url": "https://www.kaigokensaku.mhlw.go.jp/34/index.php?action_kouhyou_detail_004_kani=true&JigyosyoCd=3470500947-00&ServiceCd=510&Type=search", "url2": "http://hakujukai.jp" }, "geometry": { "type": "Point", "coordinates": [ 132.552974899999981, 34.3092656 ] } },
{ "type": "Feature", "properties": { "内容": "特別養護老人ホーム　常楽園【介護老人福祉施設】呉市警固屋9丁目1番1号", "url": "https://www.kaigokensaku.mhlw.go.jp/34/index.php?action_kouhyou_detail_004_kani=true&JigyosyoCd=3470500954-00&ServiceCd=510&Type=search", "url2": "http://kure-dousai.jp/" }, "geometry": { "type": "Point", "coordinates": [ 132.5465405, 34.1953409 ] } },
{ "type": "Feature", "properties": { "内容": "特別養護老人ホーム　あかさき園【介護老人福祉施設】呉市音戸町畑１丁目２番５１号", "url": "https://www.kaigokensaku.mhlw.go.jp/34/index.php?action_kouhyou_detail_004_kani=true&JigyosyoCd=3473100505-00&ServiceCd=510&Type=search", "url2": "http://www.hakujukai.jp" }, "geometry": { "type": "Point", "coordinates": [ 132.533969599999978, 34.1621003 ] } },
{ "type": "Feature", "properties": { "内容": "特別養護老人ホーム春香園【介護老人福祉施設】広島県呉市安浦町内海北一丁目2-42", "url": "https://www.kaigokensaku.mhlw.go.jp/34/index.php?action_kouhyou_detail_004_kani=true&JigyosyoCd=3470503800-00&ServiceCd=510&Type=search", "url2": "http://www.syunkaen.or.jp/" }, "geometry": { "type": "Point", "coordinates": [ 132.7377540079639, 34.286125956856495 ] } },
{ "type": "Feature", "properties": { "内容": "特別養護老人ホーム　後楽荘【介護老人福祉施設】呉市焼山町字打田６２３番地", "url": "https://www.kaigokensaku.mhlw.go.jp/34/index.php?action_kouhyou_detail_004_kani=true&JigyosyoCd=3470500533-00&ServiceCd=510&Type=search", "url2": "http://www.koraku.jp" }, "geometry": { "type": "Point", "coordinates": [ 132.541901199999984, 34.2866459 ] } },
{ "type": "Feature", "properties": { "内容": "特別養護老人ホーム延寿荘【介護老人福祉施設】呉市広町字中横路2445番地", "url": "https://www.kaigokensaku.mhlw.go.jp/34/index.php?action_kouhyou_detail_004_kani=true&JigyosyoCd=3470500624-00&ServiceCd=510&Type=search", "url2": "https://aieikai.jp" }, "geometry": { "type": "Point", "coordinates": [ 132.609522182234173, 34.245065024176604 ] } },
{ "type": "Feature", "properties": { "内容": "特別養護老人ホーム　栃ノ木荘【介護老人福祉施設】呉市栃原町字中倉150-2", "url": "https://www.kaigokensaku.mhlw.go.jp/34/index.php?action_kouhyou_detail_004_kani=true&JigyosyoCd=3470500756-00&ServiceCd=510&Type=search", "url2": "http://www.honjofukushikai.or.jp" }, "geometry": { "type": "Point", "coordinates": [ 132.58605433621517, 34.287098010038015 ] } },
{ "type": "Feature", "properties": { "内容": "特別養護老人ホーム郷原の里【介護老人福祉施設】広島県呉市郷原町字鵯畑11882番地12", "url": "https://www.kaigokensaku.mhlw.go.jp/34/index.php?action_kouhyou_detail_004_kani=true&JigyosyoCd=3470500962-00&ServiceCd=510&Type=search", "url2": "http://www.gouharanosato.com/" }, "geometry": { "type": "Point", "coordinates": [ 132.639369735582022, 34.29243699747385 ] } },
{ "type": "Feature", "properties": { "内容": "特別養護老人ホームかるが【介護老人福祉施設】呉市狩留賀町3番16号", "url": "https://www.kaigokensaku.mhlw.go.jp/34/index.php?action_kouhyou_detail_004_kani=true&JigyosyoCd=3470502109-00&ServiceCd=510&Type=search", "url2": "http://www.karugakai.jp/" }, "geometry": { "type": "Point", "coordinates": [ 132.514981400000011, 34.2651399 ] } },
{ "type": "Feature", "properties": { "内容": "特別養護老人ホーム　たちばな苑【介護老人福祉施設】呉市倉橋町１４６４９番地", "url": "https://www.kaigokensaku.mhlw.go.jp/34/index.php?action_kouhyou_detail_004_kani=true&JigyosyoCd=3473100422-00&ServiceCd=510&Type=search", "url2": "https://www.tachibanaen.jp/tbtyrh.html" }, "geometry": { "type": "Point", "coordinates": [ 132.543614400000024, 34.0999342 ] } },
{ "type": "Feature", "properties": { "内容": "特別養護老人ホーム　豊寿園【介護老人福祉施設】呉市豊町大長６０００番地", "url": "https://www.kaigokensaku.mhlw.go.jp/34/index.php?action_kouhyou_detail_004_kani=true&JigyosyoCd=3473900391-00&ServiceCd=510&Type=search", "url2": null }, "geometry": { "type": "Point", "coordinates": [ 132.853104300000041, 34.1868307 ] } },
{ "type": "Feature", "properties": { "内容": "特別養護老人ホーム　恵の海【介護老人福祉施設】呉市川尻町西6丁目10-1", "url": "https://www.kaigokensaku.mhlw.go.jp/34/index.php?action_kouhyou_detail_004_kani=true&JigyosyoCd=3474000258-00&ServiceCd=510&Type=search", "url2": "http://www.fukushinomori.or.jp" }, "geometry": { "type": "Point", "coordinates": [ 132.685287099999982, 34.2171864 ] } },
{ "type": "Feature", "properties": { "内容": "特別養護老人ホーム　瀬戸内園【介護老人福祉施設】竹原市港町四丁目５番１号", "url": "https://www.kaigokensaku.mhlw.go.jp/34/index.php?action_kouhyou_detail_004_kani=true&JigyosyoCd=3470700232-00&ServiceCd=510&Type=search", "url2": "http://www.matobakai.or.jp/" }, "geometry": { "type": "Point", "coordinates": [ 132.919100599999979, 34.329435 ] } },
{ "type": "Feature", "properties": { "内容": "特別養護老人ホーム宗越園【介護老人福祉施設】広島県竹原市吉名町宗越７９３番地", "url": "https://www.kaigokensaku.mhlw.go.jp/34/index.php?action_kouhyou_detail_004_kani=true&JigyosyoCd=3470700299-00&ServiceCd=510&Type=search", "url2": "https://munakoshi.or.jp/" }, "geometry": { "type": "Point", "coordinates": [ 132.874979199999984, 34.3062188 ] } },
{ "type": "Feature", "properties": { "内容": "特別養護老人ホーム　ハートフル竹原中央【介護老人福祉施設】竹原市中央三丁目10番14号", "url": "https://www.kaigokensaku.mhlw.go.jp/34/index.php?action_kouhyou_detail_004_kani=true&JigyosyoCd=3470700414-00&ServiceCd=510&Type=search", "url2": "http://www.jinjyukai-takehara.or.jp" }, "geometry": { "type": "Point", "coordinates": [ 132.908946300000025, 34.3438329 ] } },
{ "type": "Feature", "properties": { "内容": "特別養護老人ホームすなみ荘【介護老人福祉施設】三原市須波ハイツ二丁目26番27号", "url": "https://www.kaigokensaku.mhlw.go.jp/34/index.php?action_kouhyou_detail_004_kani=true&JigyosyoCd=3470900337-00&ServiceCd=510&Type=search", "url2": "https://matsutomo.or.jp" }, "geometry": { "type": "Point", "coordinates": [ 133.076811462426804, 34.354299957823315 ] } },
{ "type": "Feature", "properties": { "内容": "特別養護老人ホーム　白滝園【介護老人福祉施設】広島県三原市小泉町116番地1", "url": "https://www.kaigokensaku.mhlw.go.jp/34/index.php?action_kouhyou_detail_004_kani=true&JigyosyoCd=3470901657-00&ServiceCd=510&Type=search", "url2": "https://mihara-nozomi.jp" }, "geometry": { "type": "Point", "coordinates": [ 132.989458300000024, 34.3718417 ] } },
{ "type": "Feature", "properties": { "内容": "特別養護老人ホームくすのき・めぐみ苑【介護老人福祉施設】広島県三原市城町3-6-1", "url": "https://www.kaigokensaku.mhlw.go.jp/34/index.php?action_kouhyou_detail_004_kani=true&JigyosyoCd=3470901780-00&ServiceCd=510&Type=search", "url2": "http://matsutomo.or.jp/kusunokimegumien/" }, "geometry": { "type": "Point", "coordinates": [ 133.082879100000014, 34.3967584 ] } },
{ "type": "Feature", "properties": { "内容": "特別養護老人ホーム　三原慶雲寮【介護老人福祉施設】三原市小坂町1550番地", "url": "https://www.kaigokensaku.mhlw.go.jp/34/index.php?action_kouhyou_detail_004_kani=true&JigyosyoCd=3470900477-00&ServiceCd=510&Type=search", "url2": "https://keiunryo.or.jp" }, "geometry": { "type": "Point", "coordinates": [ 133.010954399999946, 34.4314059 ] } },
{ "type": "Feature", "properties": { "内容": "特別養護老人ホーム梅菅園【介護老人福祉施設】三原市下北方2丁目9番1号", "url": "https://www.kaigokensaku.mhlw.go.jp/34/index.php?action_kouhyou_detail_004_kani=true&JigyosyoCd=3473900383-00&ServiceCd=510&Type=search", "url2": "https://baikanen.jp/" }, "geometry": { "type": "Point", "coordinates": [ 132.973715299999981, 34.4105057 ] } },
{ "type": "Feature", "properties": { "内容": "特別養護老人ホーム　亀甲園【介護老人福祉施設】三原市久井町江木１６１番地１", "url": "https://www.kaigokensaku.mhlw.go.jp/34/index.php?action_kouhyou_detail_004_kani=true&JigyosyoCd=3474100231-00&ServiceCd=510&Type=search", "url2": "http://www.kikkou-en.or.jp/tokuyo" }, "geometry": { "type": "Point", "coordinates": [ 133.039583799999946, 34.5394139 ] } },
{ "type": "Feature", "properties": { "内容": "特別養護老人ホームサンライズ大池【介護老人福祉施設】三原市深町583番地", "url": "https://www.kaigokensaku.mhlw.go.jp/34/index.php?action_kouhyou_detail_004_kani=true&JigyosyoCd=3470900493-00&ServiceCd=510&Type=search", "url2": "http://www.snrs.or.jp" }, "geometry": { "type": "Point", "coordinates": [ 133.12884239999994, 34.4313276 ] } },
{ "type": "Feature", "properties": { "内容": "特別養護老人ホーム　浦崎寮（ユニット型）【介護老人福祉施設】尾道市浦崎町3594番地", "url": "https://www.kaigokensaku.mhlw.go.jp/34/index.php?action_kouhyou_detail_004_kani=true&JigyosyoCd=3471100572-00&ServiceCd=510&Type=search", "url2": null }, "geometry": { "type": "Point", "coordinates": [ 133.269112700000051, 34.4045965 ] } },
{ "type": "Feature", "properties": { "内容": "特別養護老人ホーム星の里【介護老人福祉施設】尾道市久保町1786番地", "url": "https://www.kaigokensaku.mhlw.go.jp/34/index.php?action_kouhyou_detail_004_kani=true&JigyosyoCd=3471100622-00&ServiceCd=510&Type=search", "url2": "http://www.satukikai.com/" }, "geometry": { "type": "Point", "coordinates": [ 133.210137600000053, 34.421205 ] } },
{ "type": "Feature", "properties": { "内容": "特別養護老人ホームひかり苑【介護老人福祉施設】尾道市原田町梶山田3609番地", "url": "https://www.kaigokensaku.mhlw.go.jp/34/index.php?action_kouhyou_detail_004_kani=true&JigyosyoCd=3471100366-00&ServiceCd=510&Type=search", "url2": "http://www.haradahikarikai.or.jp" }, "geometry": { "type": "Point", "coordinates": [ 133.213014199999947, 34.4895325 ] } },
{ "type": "Feature", "properties": { "内容": "特別養護老人ホーム　ほたるの里【介護老人福祉施設】尾道市因島中庄町1030-1", "url": "https://www.kaigokensaku.mhlw.go.jp/34/index.php?action_kouhyou_detail_004_kani=true&JigyosyoCd=3471101554-00&ServiceCd=510&Type=search", "url2": "http://aokage.jp" }, "geometry": { "type": "Point", "coordinates": [ 133.176371900000021, 34.31074310000001 ] } },
{ "type": "Feature", "properties": { "内容": "特別養護老人ホームクレアール楽生苑【介護老人福祉施設】広島県尾道市瀬戸田町林西沖田１２６９番地10", "url": "https://www.kaigokensaku.mhlw.go.jp/34/index.php?action_kouhyou_detail_004_kani=true&JigyosyoCd=3471102362-00&ServiceCd=510&Type=search", "url2": "https://www.rakusei.or.jp/" }, "geometry": { "type": "Point", "coordinates": [ 133.106311399999981, 34.306591 ] } },
{ "type": "Feature", "properties": { "内容": "特別養護老人ホームしまなみ苑【介護老人福祉施設】尾道市因島三庄町3404-21", "url": "https://www.kaigokensaku.mhlw.go.jp/34/index.php?action_kouhyou_detail_004_kani=true&JigyosyoCd=3471300206-00&ServiceCd=510&Type=search", "url2": "http://www.aokage.jp/" }, "geometry": { "type": "Point", "coordinates": [ 133.196823600000016, 34.2869017 ] } },
{ "type": "Feature", "properties": { "内容": "特別養護老人ホーム楽生苑【介護老人福祉施設】尾道市瀬戸田町林1288番地6", "url": "https://www.kaigokensaku.mhlw.go.jp/34/index.php?action_kouhyou_detail_004_kani=true&JigyosyoCd=3473900409-00&ServiceCd=510&Type=search", "url2": "https://www.rakusei.or.jp" }, "geometry": { "type": "Point", "coordinates": [ 133.102939600000013, 34.3055299 ] } },
{ "type": "Feature", "properties": { "内容": "公立みつぎ総合病院特別養護老人ホーム「ふれあい」【介護老人福祉施設】尾道市御調町高尾１３４８番地６", "url": "https://www.kaigokensaku.mhlw.go.jp/34/index.php?action_kouhyou_detail_004_kani=true&JigyosyoCd=3474100223-00&ServiceCd=510&Type=search", "url2": "http://www.mitsugibyouin.com/" }, "geometry": { "type": "Point", "coordinates": [ 133.1327265, 34.5140678 ] } },
{ "type": "Feature", "properties": { "内容": "特別養護老人ホーム　ひらはらの郷【介護老人福祉施設】尾道市平原一丁目１０番３０号", "url": "https://www.kaigokensaku.mhlw.go.jp/34/index.php?action_kouhyou_detail_004_kani=true&JigyosyoCd=3471101273-00&ServiceCd=510&Type=search", "url2": "http://www.hiraharano-sato.jp" }, "geometry": { "type": "Point", "coordinates": [ 133.175362700000051, 34.4080034 ] } },
{ "type": "Feature", "properties": { "内容": "特別養護老人ホームはなの苑【介護老人福祉施設】広島県尾道市向東町12255番地1", "url": "https://www.kaigokensaku.mhlw.go.jp/34/index.php?action_kouhyou_detail_004_kani=true&JigyosyoCd=3471100614-00&ServiceCd=510&Type=search", "url2": "https://kayafukushi.or.jp/" }, "geometry": { "type": "Point", "coordinates": [ 133.232403100000056, 34.4065179 ] } },
{ "type": "Feature", "properties": { "内容": "特別養護老人ホーム　橘花苑【介護老人福祉施設】尾道市向島町立花４１８番地１", "url": "https://www.kaigokensaku.mhlw.go.jp/34/index.php?action_kouhyou_detail_004_kani=true&JigyosyoCd=3474100249-00&ServiceCd=510&Type=search", "url2": "https://www.takamifukusikai.or.jp/" }, "geometry": { "type": "Point", "coordinates": [ 133.193556665545657, 34.360053330515058 ] } },
{ "type": "Feature", "properties": { "内容": "特別養護老人ホームエクセル鞆の浦【介護老人福祉施設】福山市田尻町4115番地", "url": "https://www.kaigokensaku.mhlw.go.jp/34/index.php?action_kouhyou_detail_004_kani=true&JigyosyoCd=3471500813-00&ServiceCd=510&Type=search", "url2": "https://www.harumikai.jp" }, "geometry": { "type": "Point", "coordinates": [ 133.381229800000028, 34.4077597 ] } },
{ "type": "Feature", "properties": { "内容": "特別養護老人ホーム　新山荘【介護老人福祉施設】福山市駅家町大字新山３５７８－２", "url": "https://www.kaigokensaku.mhlw.go.jp/34/index.php?action_kouhyou_detail_004_kani=true&JigyosyoCd=3471503288-00&ServiceCd=510&Type=search", "url2": "https://ryokuju-kai.jp/" }, "geometry": { "type": "Point", "coordinates": [ 133.306817799999976, 34.5630409 ] } },
{ "type": "Feature", "properties": { "内容": "特別養護老人ホーム悠芳苑【介護老人福祉施設】福山市熊野町乙甲１６３０番地", "url": "https://www.kaigokensaku.mhlw.go.jp/34/index.php?action_kouhyou_detail_004_kani=true&JigyosyoCd=3471501332-00&ServiceCd=510&Type=search", "url2": "https://yuhoen.sakura.ne.jp/ufo/" }, "geometry": { "type": "Point", "coordinates": [ 133.345076699999936, 34.4222787 ] } },
{ "type": "Feature", "properties": { "内容": "特別養護老人ホーム　東光園【介護老人福祉施設】福山市坪生町7606", "url": "https://www.kaigokensaku.mhlw.go.jp/34/index.php?action_kouhyou_detail_004_kani=true&JigyosyoCd=3471501514-00&ServiceCd=510&Type=search", "url2": "http://www.toukoukai.or.jp/" }, "geometry": { "type": "Point", "coordinates": [ 133.451168123834236, 34.529334504440016 ] } },
{ "type": "Feature", "properties": { "内容": "特別養護老人ホーム瀬戸寮【介護老人福祉施設】福山市瀬戸町長和梶ヶ谷１１９４番地３", "url": "https://www.kaigokensaku.mhlw.go.jp/34/index.php?action_kouhyou_detail_004_kani=true&JigyosyoCd=3471501530-00&ServiceCd=510&Type=search", "url2": null }, "geometry": { "type": "Point", "coordinates": [ 133.341383899999983, 34.4651485 ] } },
{ "type": "Feature", "properties": { "内容": "特別養護老人ホーム　あぶと健生苑【介護老人福祉施設】福山市沼隈町大字能登原1436番地1", "url": "https://www.kaigokensaku.mhlw.go.jp/34/index.php?action_kouhyou_detail_004_kani=true&JigyosyoCd=3471505416-00&ServiceCd=510&Type=search", "url2": "http://www.kensei-kai.org/" }, "geometry": { "type": "Point", "coordinates": [ 133.348846005961803, 34.373896304528635 ] } },
{ "type": "Feature", "properties": { "内容": "特別養護老人ホームジョイトピアおおさ【介護老人福祉施設】福山市新市町大字下安井3500番地", "url": "https://www.kaigokensaku.mhlw.go.jp/34/index.php?action_kouhyou_detail_004_kani=true&JigyosyoCd=3474500067-00&ServiceCd=510&Type=search", "url2": "http://www.joytopia.or.jp" }, "geometry": { "type": "Point", "coordinates": [ 133.283591900000033, 34.5718866 ] } },
{ "type": "Feature", "properties": { "内容": "特別養護老人ホーム瀬戸すみれ園【介護老人福祉施設】広島県福山市瀬戸町大字地頭分字小立2721", "url": "https://www.kaigokensaku.mhlw.go.jp/34/index.php?action_kouhyou_detail_004_kani=true&JigyosyoCd=3471510010-00&ServiceCd=510&Type=search", "url2": "https://www.sumire-fukushi-chugoku.jp" }, "geometry": { "type": "Point", "coordinates": [ 133.3280222, 34.4620552 ] } },
{ "type": "Feature", "properties": { "内容": "特別養護老人ホーム松風園【介護老人福祉施設】福山市加茂町上加茂３３番地", "url": "https://www.kaigokensaku.mhlw.go.jp/34/index.php?action_kouhyou_detail_004_kani=true&JigyosyoCd=3471500607-00&ServiceCd=510&Type=search", "url2": "http://www.shofu-kai.or.jp/" }, "geometry": { "type": "Point", "coordinates": [ 133.345017800000051, 34.5633747 ] } },
{ "type": "Feature", "properties": { "内容": "特別養護老人ホーム　明翠園【介護老人福祉施設】福山市柳津町４８６番地", "url": "https://www.kaigokensaku.mhlw.go.jp/34/index.php?action_kouhyou_detail_004_kani=true&JigyosyoCd=3471500797-00&ServiceCd=510&Type=search", "url2": "https://meisui-kai.jimdo.com/" }, "geometry": { "type": "Point", "coordinates": [ 133.287062997389285, 34.449959155624803 ] } },
{ "type": "Feature", "properties": { "内容": "特別養護老人ホーム福山福寿園【介護老人福祉施設】福山市赤坂町大字早戸1483番地", "url": "https://www.kaigokensaku.mhlw.go.jp/34/index.php?action_kouhyou_detail_004_kani=true&JigyosyoCd=3471500953-00&ServiceCd=510&Type=search", "url2": "http://www.kotobuki-net.com/fukujyuen/" }, "geometry": { "type": "Point", "coordinates": [ 133.309825600000067, 34.4601958 ] } },
{ "type": "Feature", "properties": { "内容": "特別養護老人ホーム幸楽園【介護老人福祉施設】広島県福山市蔵王町7159番地14", "url": "https://www.kaigokensaku.mhlw.go.jp/34/index.php?action_kouhyou_detail_004_kani=true&JigyosyoCd=3471501142-00&ServiceCd=510&Type=search", "url2": "http://kourakuen.or.jp" }, "geometry": { "type": "Point", "coordinates": [ 133.405868376288595, 34.520944703483366 ] } },
{ "type": "Feature", "properties": { "内容": "特別養護老人ホーム　プレジール箕島【介護老人福祉施設】広島県福山市箕島町7504番地3", "url": "https://www.kaigokensaku.mhlw.go.jp/34/index.php?action_kouhyou_detail_004_kani=true&JigyosyoCd=3471502629-00&ServiceCd=510&Type=search", "url2": null }, "geometry": { "type": "Point", "coordinates": [ 133.401889406745937, 34.452922285532232 ] } },
{ "type": "Feature", "properties": { "内容": "ユニット型特別養護老人ホーム　サンサンホーム【介護老人福祉施設】広島県福山市神辺町字東中条７６１０番地の１６", "url": "https://www.kaigokensaku.mhlw.go.jp/34/index.php?action_kouhyou_detail_004_kani=true&JigyosyoCd=3471507990-00&ServiceCd=510&Type=search", "url2": "http://www.sunsun.or.jp/" }, "geometry": { "type": "Point", "coordinates": [ 133.395119, 34.5838534 ] } },
{ "type": "Feature", "properties": { "内容": "特別養護老人ホーム　むつみ苑【介護老人福祉施設】広島県福山市内海町ロ２８２５番地３", "url": "https://www.kaigokensaku.mhlw.go.jp/34/index.php?action_kouhyou_detail_004_kani=true&JigyosyoCd=3474300195-00&ServiceCd=510&Type=search", "url2": "http://www.mutsumien.or.jp/" }, "geometry": { "type": "Point", "coordinates": [ 133.295406599999978, 34.3571301 ] } },
{ "type": "Feature", "properties": { "内容": "特別養護老人ホームサンサンホーム【介護老人福祉施設】広島県福山市神辺町字東中条７６１０番地１６", "url": "https://www.kaigokensaku.mhlw.go.jp/34/index.php?action_kouhyou_detail_004_kani=true&JigyosyoCd=3474400201-00&ServiceCd=510&Type=search", "url2": "http://www.sunsun.or.jp/" }, "geometry": { "type": "Point", "coordinates": [ 133.395119, 34.5838534 ] } },
{ "type": "Feature", "properties": { "内容": "特別養護老人ホーム　宣山荘【介護老人福祉施設】広島県福山市駅家町大字大橋1036番地の3", "url": "https://www.kaigokensaku.mhlw.go.jp/34/index.php?action_kouhyou_detail_004_kani=true&JigyosyoCd=3471501167-00&ServiceCd=510&Type=search", "url2": "http://senzansou.com" }, "geometry": { "type": "Point", "coordinates": [ 133.304996599999981, 34.535907200000011 ] } },
{ "type": "Feature", "properties": { "内容": "特別養護老人ホーム　生寿園【介護老人福祉施設】広島県福山市東村町1775番地", "url": "https://www.kaigokensaku.mhlw.go.jp/34/index.php?action_kouhyou_detail_004_kani=true&JigyosyoCd=3471501316-00&ServiceCd=510&Type=search", "url2": "http://tousonkai-seijuen.jp" }, "geometry": { "type": "Point", "coordinates": [ 133.233516839286807, 34.464354765952841 ] } },
{ "type": "Feature", "properties": { "内容": "特別養護老人ホーム　藤江荘【介護老人福祉施設】福山市藤江町231番地1", "url": "https://www.kaigokensaku.mhlw.go.jp/34/index.php?action_kouhyou_detail_004_kani=true&JigyosyoCd=3471501357-00&ServiceCd=510&Type=search", "url2": "http://www.fujiesou.com" }, "geometry": { "type": "Point", "coordinates": [ 133.284454800000049, 34.4202918 ] } },
{ "type": "Feature", "properties": { "内容": "特別養護老人ホーム　手城福助苑【介護老人福祉施設】福山市手城町三丁目10番13号", "url": "https://www.kaigokensaku.mhlw.go.jp/34/index.php?action_kouhyou_detail_004_kani=true&JigyosyoCd=3471504500-00&ServiceCd=510&Type=search", "url2": "https://teshirofukusukeen.jimdo.com/" }, "geometry": { "type": "Point", "coordinates": [ 133.393758100000014, 34.4878464 ] } },
{ "type": "Feature", "properties": { "内容": "特別養護老人ホーム鳥還荘【介護老人福祉施設】広島県福山市沼隈町中山南字永道上池尻265-2", "url": "https://www.kaigokensaku.mhlw.go.jp/34/index.php?action_kouhyou_detail_004_kani=true&JigyosyoCd=3474300104-00&ServiceCd=510&Type=search", "url2": "http://chokanso.or.jp" }, "geometry": { "type": "Point", "coordinates": [ 133.303836100000012, 34.4185393 ] } },
{ "type": "Feature", "properties": { "内容": "特別養護老人ホーム静方園【介護老人福祉施設】福山市神辺町湯野３０－９", "url": "https://www.kaigokensaku.mhlw.go.jp/34/index.php?action_kouhyou_detail_004_kani=true&JigyosyoCd=3474400177-00&ServiceCd=510&Type=search", "url2": "http://www.seihoen.com" }, "geometry": { "type": "Point", "coordinates": [ 133.383262599999966, 34.5590642 ] } },
{ "type": "Feature", "properties": { "内容": "特別養護老人ホーム　芦山荘【介護老人福祉施設】広島県福山市芦田町柞磨386番地", "url": "https://www.kaigokensaku.mhlw.go.jp/34/index.php?action_kouhyou_detail_004_kani=true&JigyosyoCd=3471501613-00&ServiceCd=510&Type=search", "url2": "http://www.rozansou.jp/" }, "geometry": { "type": "Point", "coordinates": [ 133.2365298958008, 34.522042558394439 ] } },
{ "type": "Feature", "properties": { "内容": "特別養護老人ホームセイフティー信和【介護老人福祉施設】広島県府中市広谷町３９１番地", "url": "https://www.kaigokensaku.mhlw.go.jp/34/index.php?action_kouhyou_detail_004_kani=true&JigyosyoCd=3471700124-00&ServiceCd=510&Type=search", "url2": "https://www.safety-sinwa.com" }, "geometry": { "type": "Point", "coordinates": [ 133.261279899999977, 34.5747745 ] } },
{ "type": "Feature", "properties": { "内容": "介護老人福祉施設府中静和寮【介護老人福祉施設】府中市土生町１６３６番地１", "url": "https://www.kaigokensaku.mhlw.go.jp/34/index.php?action_kouhyou_detail_004_kani=true&JigyosyoCd=3471700173-00&ServiceCd=510&Type=search", "url2": "http://www.seiwakai-hiroshima.jp" }, "geometry": { "type": "Point", "coordinates": [ 133.226785, 34.5709878 ] } },
{ "type": "Feature", "properties": { "内容": "指定介護老人福祉施設あいあい【介護老人福祉施設】府中市桜が丘3丁目2番地の1", "url": "https://www.kaigokensaku.mhlw.go.jp/34/index.php?action_kouhyou_detail_004_kani=true&JigyosyoCd=3471700546-00&ServiceCd=510&Type=search", "url2": "https://www.aiai-fukushi.net/sakura/" }, "geometry": { "type": "Point", "coordinates": [ 133.24704470000006, 34.5798929 ] } },
{ "type": "Feature", "properties": { "内容": "特別養護老人ホームほのぼの苑【介護老人福祉施設】府中市上下町深江488番地3", "url": "https://www.kaigokensaku.mhlw.go.jp/34/index.php?action_kouhyou_detail_004_kani=true&JigyosyoCd=3474700162-00&ServiceCd=510&Type=search", "url2": "https://www.oujinkai.com" }, "geometry": { "type": "Point", "coordinates": [ 133.12059690000001, 34.6830971 ] } },
{ "type": "Feature", "properties": { "内容": "特別養護老人ホーム　箱田苑【介護老人福祉施設】府中市木野山町箱田奥甲1538番地", "url": "https://www.kaigokensaku.mhlw.go.jp/34/index.php?action_kouhyou_detail_004_kani=true&JigyosyoCd=3471700199-00&ServiceCd=510&Type=search", "url2": "http://www.keisenkaihakodaen.net" }, "geometry": { "type": "Point", "coordinates": [ 133.22712249999995, 34.64529 ] } },
{ "type": "Feature", "properties": { "内容": "特別養護老人ホーム　ルンビニ園【介護老人福祉施設】三次市山家町５９７番地", "url": "https://www.kaigokensaku.mhlw.go.jp/34/index.php?action_kouhyou_detail_004_kani=true&JigyosyoCd=3471900195-00&ServiceCd=510&Type=search", "url2": "https://jishokai.jp/" }, "geometry": { "type": "Point", "coordinates": [ 132.838976600000024, 34.847238 ] } },
{ "type": "Feature", "properties": { "内容": "特別養護老人ホーム　くるみ荘【介護老人福祉施設】三次市粟屋町1718番地の2", "url": "https://www.kaigokensaku.mhlw.go.jp/34/index.php?action_kouhyou_detail_004_kani=true&JigyosyoCd=3471900229-00&ServiceCd=510&Type=search", "url2": "https://kurumikai.com/" }, "geometry": { "type": "Point", "coordinates": [ 132.837210428311238, 34.810064334395982 ] } },
{ "type": "Feature", "properties": { "内容": "特別養護老人ホーム水明園【介護老人福祉施設】三次市南畑敷町４４１番地", "url": "https://www.kaigokensaku.mhlw.go.jp/34/index.php?action_kouhyou_detail_004_kani=true&JigyosyoCd=3471900112-00&ServiceCd=510&Type=search", "url2": "http://suimeikai.org/" }, "geometry": { "type": "Point", "coordinates": [ 132.877985769311522, 34.805854231860323 ] } },
{ "type": "Feature", "properties": { "内容": "特別養護老人ホーム美山莊【介護老人福祉施設】三次市甲奴町本郷１６７４番地", "url": "https://www.kaigokensaku.mhlw.go.jp/34/index.php?action_kouhyou_detail_004_kani=true&JigyosyoCd=3474700220-00&ServiceCd=510&Type=search", "url2": "http://miyamasou.com/" }, "geometry": { "type": "Point", "coordinates": [ 133.0816036, 34.6970313 ] } },
{ "type": "Feature", "properties": { "内容": "特別養護老人ホーム松伯園【介護老人福祉施設】三次市君田町東入君209番地1", "url": "https://www.kaigokensaku.mhlw.go.jp/34/index.php?action_kouhyou_detail_004_kani=true&JigyosyoCd=3474800160-00&ServiceCd=510&Type=search", "url2": "http://www.bihoku-k.jp/" }, "geometry": { "type": "Point", "coordinates": [ 132.842989399999965, 34.8720605 ] } },
{ "type": "Feature", "properties": { "内容": "特別養護老人ホーム　こじか荘【介護老人福祉施設】三次市吉舎町敷地１００６８番地５", "url": "https://www.kaigokensaku.mhlw.go.jp/34/index.php?action_kouhyou_detail_004_kani=true&JigyosyoCd=3474800343-00&ServiceCd=510&Type=search", "url2": "https://tomoekai-miyoshi.jp/" }, "geometry": { "type": "Point", "coordinates": [ 132.966821699999969, 34.7573898 ] } },
{ "type": "Feature", "properties": { "内容": "特別養護老人ホーム喜楽園【介護老人福祉施設】三次市三和町下板木10695-1", "url": "https://www.kaigokensaku.mhlw.go.jp/34/index.php?action_kouhyou_detail_004_kani=true&JigyosyoCd=3474800350-00&ServiceCd=510&Type=search", "url2": "http://www.miwakai-kirakuen.or.jp/" }, "geometry": { "type": "Point", "coordinates": [ 132.839454144844041, 34.686312241915687 ] } },
{ "type": "Feature", "properties": { "内容": "特別養護老人ホーム江水園【介護老人福祉施設】三次市作木町香淀６５５番地", "url": "https://www.kaigokensaku.mhlw.go.jp/34/index.php?action_kouhyou_detail_004_kani=true&JigyosyoCd=3474800368-00&ServiceCd=510&Type=search", "url2": null }, "geometry": { "type": "Point", "coordinates": [ 132.726843199999962, 34.8256572 ] } },
{ "type": "Feature", "properties": { "内容": "特別養護老人ホーム愛善苑【介護老人福祉施設】庄原市西城町大佐5148番地1", "url": "https://www.kaigokensaku.mhlw.go.jp/34/index.php?action_kouhyou_detail_004_kani=true&JigyosyoCd=3474900390-00&ServiceCd=510&Type=search", "url2": "https://saijyofukushikai.jp/" }, "geometry": { "type": "Point", "coordinates": [ 133.129957800000057, 34.9570273 ] } },
{ "type": "Feature", "properties": { "内容": "特別養護老人ホーム相扶園【介護老人福祉施設】庄原市尾引町２６３番地２", "url": "https://www.kaigokensaku.mhlw.go.jp/34/index.php?action_kouhyou_detail_004_kani=true&JigyosyoCd=3472100183-00&ServiceCd=510&Type=search", "url2": "http://www.soufuen.or.jp" }, "geometry": { "type": "Point", "coordinates": [ 132.936367799999971, 34.8159126 ] } },
{ "type": "Feature", "properties": { "内容": "風の街みやびら特別養護老人ホーム【介護老人福祉施設】広島県庄原市東城町川西1332番地5", "url": "https://www.kaigokensaku.mhlw.go.jp/34/index.php?action_kouhyou_detail_004_kani=true&JigyosyoCd=3472100563-00&ServiceCd=510&Type=search", "url2": "https://www.alice.or.jp/" }, "geometry": { "type": "Point", "coordinates": [ 133.261477911408946, 34.911152878910436 ] } },
{ "type": "Feature", "properties": { "内容": "特別養護老人ホームユーシャイン【介護老人福祉施設】庄原市総領町中領家476番地", "url": "https://www.kaigokensaku.mhlw.go.jp/34/index.php?action_kouhyou_detail_004_kani=true&JigyosyoCd=3474700212-00&ServiceCd=510&Type=search", "url2": "https://www.yuukifukushikai.com/" }, "geometry": { "type": "Point", "coordinates": [ 133.1070102, 34.7932239 ] } },
{ "type": "Feature", "properties": { "内容": "特別養護老人ホームハピネスヒル【介護老人福祉施設】庄原市掛田町542番地1", "url": "https://www.kaigokensaku.mhlw.go.jp/34/index.php?action_kouhyou_detail_004_kani=true&JigyosyoCd=3472100175-00&ServiceCd=510&Type=search", "url2": null }, "geometry": { "type": "Point", "coordinates": [ 133.001562799999988, 34.8657302 ] } },
{ "type": "Feature", "properties": { "内容": "特別養護老人ホームハートウイング【介護老人福祉施設】庄原市口和町永田413番地", "url": "https://www.kaigokensaku.mhlw.go.jp/34/index.php?action_kouhyou_detail_004_kani=true&JigyosyoCd=3474900408-00&ServiceCd=510&Type=search", "url2": "http://kuchiwa-fukushikai.jp" }, "geometry": { "type": "Point", "coordinates": [ 132.9184017, 34.8880631 ] } },
{ "type": "Feature", "properties": { "内容": "特別養護老人ホーム　故郷－高野【介護老人福祉施設】広島県庄原市高野町新市字柏奥５１７７番地１", "url": "https://www.kaigokensaku.mhlw.go.jp/34/index.php?action_kouhyou_detail_004_kani=true&JigyosyoCd=3472100407-00&ServiceCd=510&Type=search", "url2": "http://www.touki-kai.or.jp/" }, "geometry": { "type": "Point", "coordinates": [ 132.915339471209109, 35.037053574705098 ] } },
{ "type": "Feature", "properties": { "内容": "特別養護老人ホーム吾妻園【介護老人福祉施設】広島県庄原市比和町比和1190", "url": "https://www.kaigokensaku.mhlw.go.jp/34/index.php?action_kouhyou_detail_004_kani=true&JigyosyoCd=3474900333-00&ServiceCd=510&Type=search", "url2": null }, "geometry": { "type": "Point", "coordinates": [ 132.9814265, 34.985523 ] } },
{ "type": "Feature", "properties": { "内容": "特別養護老人ホームあきまろ園【介護老人福祉施設】東広島市安芸津町風早４９７番地５", "url": "https://www.kaigokensaku.mhlw.go.jp/34/index.php?action_kouhyou_detail_004_kani=true&JigyosyoCd=3474000191-00&ServiceCd=510&Type=search", "url2": "http://hakujukai.jp" }, "geometry": { "type": "Point", "coordinates": [ 132.785915, 34.3164131 ] } },
{ "type": "Feature", "properties": { "内容": "特別養護老人ホーム　長寿苑【介護老人福祉施設】東広島市西条町馬木1566番地", "url": "https://www.kaigokensaku.mhlw.go.jp/34/index.php?action_kouhyou_detail_004_kani=true&JigyosyoCd=3472500366-00&ServiceCd=510&Type=search", "url2": "https://chojuen.jp" }, "geometry": { "type": "Point", "coordinates": [ 132.720908399999985, 34.359943 ] } },
{ "type": "Feature", "properties": { "内容": "特別養護老人ホーム新生園【介護老人福祉施設】東広島市八本松町原１１１７１－１", "url": "https://www.kaigokensaku.mhlw.go.jp/34/index.php?action_kouhyou_detail_004_kani=true&JigyosyoCd=3472500465-00&ServiceCd=510&Type=search", "url2": "http://www.aoikai.jp" }, "geometry": { "type": "Point", "coordinates": [ 132.693017700000041, 34.409320500000021 ] } },
{ "type": "Feature", "properties": { "内容": "特別養護老人ホームさくら園【介護老人福祉施設】東広島市黒瀬町乃美尾555番地1", "url": "https://www.kaigokensaku.mhlw.go.jp/34/index.php?action_kouhyou_detail_004_kani=true&JigyosyoCd=3472501950-00&ServiceCd=510&Type=search", "url2": "http://www.aoikai.jp/" }, "geometry": { "type": "Point", "coordinates": [ 132.691101300000014, 34.3165023 ] } },
{ "type": "Feature", "properties": { "内容": "特別養護老人ホーム御薗寮【介護老人福祉施設】広島県東広島市高屋町高屋堀３４８６番地", "url": "https://www.kaigokensaku.mhlw.go.jp/34/index.php?action_kouhyou_detail_004_kani=true&JigyosyoCd=3472500424-00&ServiceCd=510&Type=search", "url2": "https://www.misonoryo.com" }, "geometry": { "type": "Point", "coordinates": [ 132.8104654, 34.4592919 ] } },
{ "type": "Feature", "properties": { "内容": "特別養護老人ホーム桜が丘保養園【介護老人福祉施設】東広島市西条町寺家５９７６", "url": "https://www.kaigokensaku.mhlw.go.jp/34/index.php?action_kouhyou_detail_004_kani=true&JigyosyoCd=3472500580-00&ServiceCd=510&Type=search", "url2": "http://www.sakuragaoka.org" }, "geometry": { "type": "Point", "coordinates": [ 132.7358375, 34.4376514 ] } },
{ "type": "Feature", "properties": { "内容": "特別養護老人ホーム　豊邑苑【介護老人福祉施設】東広島市豊栄町能良413番地", "url": "https://www.kaigokensaku.mhlw.go.jp/34/index.php?action_kouhyou_detail_004_kani=true&JigyosyoCd=3473800203-00&ServiceCd=510&Type=search", "url2": "https://www.koujinkai21.or.jp" }, "geometry": { "type": "Point", "coordinates": [ 132.842534099999966, 34.5413223 ] } },
{ "type": "Feature", "properties": { "内容": "特別養護老人ホーム造賀福祉園【介護老人福祉施設】東広島市高屋町造賀708番地", "url": "https://www.kaigokensaku.mhlw.go.jp/34/index.php?action_kouhyou_detail_004_kani=true&JigyosyoCd=3472500630-00&ServiceCd=510&Type=search", "url2": "http://www.zoukanosato.net/" }, "geometry": { "type": "Point", "coordinates": [ 132.769798499999979, 34.5000064 ] } },
{ "type": "Feature", "properties": { "内容": "特別養護老人ホームユニット型大仙園【介護老人福祉施設】広島県東広島市河内町入野12138番地14", "url": "https://www.kaigokensaku.mhlw.go.jp/34/index.php?action_kouhyou_detail_004_kani=true&JigyosyoCd=3472502792-00&ServiceCd=510&Type=search", "url2": "http://nh-daisenen.jp/" }, "geometry": { "type": "Point", "coordinates": [ 132.8814132, 34.4250613 ] } },
{ "type": "Feature", "properties": { "内容": "特別養護老人ホーム大仙園【介護老人福祉施設】広島県東広島市河内町入野12138番地14", "url": "https://www.kaigokensaku.mhlw.go.jp/34/index.php?action_kouhyou_detail_004_kani=true&JigyosyoCd=3473800211-00&ServiceCd=510&Type=search", "url2": "http://nh-daisenen.jp/" }, "geometry": { "type": "Point", "coordinates": [ 132.8814132, 34.4250613 ] } },
{ "type": "Feature", "properties": { "内容": "ユニット型特別養護老人ホーム原【介護老人福祉施設】廿日市市原926番地の1", "url": "https://www.kaigokensaku.mhlw.go.jp/34/index.php?action_kouhyou_detail_004_kani=true&JigyosyoCd=3472700883-00&ServiceCd=510&Type=search", "url2": "http://www.misasakai.or.jp/" }, "geometry": { "type": "Point", "coordinates": [ 132.300055808598358, 34.367920444899497 ] } },
{ "type": "Feature", "properties": { "内容": "特別養護老人ホーム原【介護老人福祉施設】広島県廿日市市原926番地の1", "url": "https://www.kaigokensaku.mhlw.go.jp/34/index.php?action_kouhyou_detail_004_kani=true&JigyosyoCd=3472701089-00&ServiceCd=510&Type=search", "url2": "http://www.misasakai.or.jp/" }, "geometry": { "type": "Point", "coordinates": [ 132.300066537434418, 34.367942584645874 ] } },
{ "type": "Feature", "properties": { "内容": "特別養護老人ホーム阿品清鈴【介護老人福祉施設】廿日市市阿品４－５１－３２", "url": "https://www.kaigokensaku.mhlw.go.jp/34/index.php?action_kouhyou_detail_004_kani=true&JigyosyoCd=3472700198-00&ServiceCd=510&Type=search", "url2": "https://carecenter.jp" }, "geometry": { "type": "Point", "coordinates": [ 132.309799700000013, 34.3189386 ] } },
{ "type": "Feature", "properties": { "内容": "特別養護老人ホーム　清鈴園【介護老人福祉施設】廿日市市原10362-2", "url": "https://www.kaigokensaku.mhlw.go.jp/34/index.php?action_kouhyou_detail_004_kani=true&JigyosyoCd=3472700263-00&ServiceCd=510&Type=search", "url2": "http://www.seireien.jp/" }, "geometry": { "type": "Point", "coordinates": [ 132.308173600000032, 34.379156799999976 ] } },
{ "type": "Feature", "properties": { "内容": "特別養護老人ホーム四季が丘せせらぎ園【介護老人福祉施設】広島県廿日市市四季が丘八丁目1番地3", "url": "https://www.kaigokensaku.mhlw.go.jp/34/index.php?action_kouhyou_detail_004_kani=true&JigyosyoCd=3472701600-00&ServiceCd=510&Type=search", "url2": "http://www.saikisatsukikai.jp/" }, "geometry": { "type": "Point", "coordinates": [ 132.290687199999979, 34.3480877 ] } },
{ "type": "Feature", "properties": { "内容": "特別養護老人ホームさいきせせらぎ園【介護老人福祉施設】廿日市市津田８５４番地", "url": "https://www.kaigokensaku.mhlw.go.jp/34/index.php?action_kouhyou_detail_004_kani=true&JigyosyoCd=3473300519-00&ServiceCd=510&Type=search", "url2": "http://www.saikisatsukikai.jp/" }, "geometry": { "type": "Point", "coordinates": [ 132.157924200000025, 34.3711909 ] } },
{ "type": "Feature", "properties": { "内容": "特別養護老人ホーム　洗心園【介護老人福祉施設】広島県廿日市市丸石二丁目7番47号", "url": "https://www.kaigokensaku.mhlw.go.jp/34/index.php?action_kouhyou_detail_004_kani=true&JigyosyoCd=3473300501-00&ServiceCd=510&Type=search", "url2": "http://www.senshinen.or.jp/" }, "geometry": { "type": "Point", "coordinates": [ 132.262764579857276, 34.273812881282481 ] } },
{ "type": "Feature", "properties": { "内容": "特別養護老人ホーム　甲田【介護老人福祉施設】安芸高田市甲田町下小原3363番地", "url": "https://www.kaigokensaku.mhlw.go.jp/34/index.php?action_kouhyou_detail_004_kani=true&JigyosyoCd=3473600330-00&ServiceCd=510&Type=search", "url2": "http://www.misasakai.or.jp/shisetsu/koda.php" }, "geometry": { "type": "Point", "coordinates": [ 132.742676800000027, 34.664489 ] } },
{ "type": "Feature", "properties": { "内容": "清風会さくら【介護老人福祉施設】広島県安芸高田市吉田町竹原1891番地1", "url": "https://www.kaigokensaku.mhlw.go.jp/34/index.php?action_kouhyou_detail_004_kani=true&JigyosyoCd=3473600702-00&ServiceCd=510&Type=search", "url2": "http://www.seifu-kai.org/" }, "geometry": { "type": "Point", "coordinates": [ 132.685265100000038, 34.6528614 ] } },
{ "type": "Feature", "properties": { "内容": "特別養護老人ホーム　百楽荘【介護老人福祉施設】広島県安芸高田市吉田町吉田1948番地1", "url": "https://www.kaigokensaku.mhlw.go.jp/34/index.php?action_kouhyou_detail_004_kani=true&JigyosyoCd=3473600892-00&ServiceCd=510&Type=search", "url2": "http://www.seifu-kai.org/" }, "geometry": { "type": "Point", "coordinates": [ 132.710475699999989, 34.667514 ] } },
{ "type": "Feature", "properties": { "内容": "特別養護老人ホームかがやき【介護老人福祉施設】広島県安芸高田市向原町坂10287-1", "url": "https://www.kaigokensaku.mhlw.go.jp/34/index.php?action_kouhyou_detail_004_kani=true&JigyosyoCd=3473600934-00&ServiceCd=510&Type=search", "url2": "http://www.aki-chitose.com" }, "geometry": { "type": "Point", "coordinates": [ 132.7564668, 34.6080322 ] } },
{ "type": "Feature", "properties": { "内容": "特別養護老人ホーム高美園【介護老人福祉施設】安芸高田市高宮町原田10380番地1", "url": "https://www.kaigokensaku.mhlw.go.jp/34/index.php?action_kouhyou_detail_004_kani=true&JigyosyoCd=3473600231-00&ServiceCd=510&Type=search", "url2": "http://takamien.jp" }, "geometry": { "type": "Point", "coordinates": [ 132.683337100000017, 34.7232664 ] } },
{ "type": "Feature", "properties": { "内容": "特別養護老人ホームレークサイド土師【介護老人福祉施設】安芸高田市八千代町土師12251-1", "url": "https://www.kaigokensaku.mhlw.go.jp/34/index.php?action_kouhyou_detail_004_kani=true&JigyosyoCd=3473600322-00&ServiceCd=510&Type=search", "url2": "http://www.lakehaji.jp/" }, "geometry": { "type": "Point", "coordinates": [ 132.606205884503197, 34.647553624204875 ] } },
{ "type": "Feature", "properties": { "内容": "特別養護老人ホーム江能【介護老人福祉施設】江田島市大柿町飛渡瀬4027番地2", "url": "https://www.kaigokensaku.mhlw.go.jp/34/index.php?action_kouhyou_detail_004_kani=true&JigyosyoCd=3473300352-00&ServiceCd=510&Type=search", "url2": "http://enou01.com/" }, "geometry": { "type": "Point", "coordinates": [ 132.466697663090486, 34.215122048644965 ] } },
{ "type": "Feature", "properties": { "内容": "特別養護老人ホーム誠心園【介護老人福祉施設】江田島市江田島町宮ノ原三丁目20番1号", "url": "https://www.kaigokensaku.mhlw.go.jp/34/index.php?action_kouhyou_detail_004_kani=true&JigyosyoCd=3473100471-00&ServiceCd=510&Type=search", "url2": "http://www.seishinen.jp/" }, "geometry": { "type": "Point", "coordinates": [ 132.4513753, 34.2622561 ] } },
{ "type": "Feature", "properties": { "内容": "特別養護老人ホームチェリーゴード【介護老人福祉施設】広島県安芸郡府中町柳ヶ丘20-2", "url": "https://www.kaigokensaku.mhlw.go.jp/34/index.php?action_kouhyou_detail_004_kani=true&JigyosyoCd=3473200206-00&ServiceCd=510&Type=search", "url2": "http://www.fig-g.jp" }, "geometry": { "type": "Point", "coordinates": [ 132.514137500000061, 34.382943399999974 ] } },
{ "type": "Feature", "properties": { "内容": "特別養護老人ホーム　府中福寿苑【介護老人福祉施設】広島県安芸郡府中町茂陰２丁目6番2号", "url": "https://www.kaigokensaku.mhlw.go.jp/34/index.php?action_kouhyou_detail_004_kani=true&JigyosyoCd=3473201261-00&ServiceCd=510&Type=search", "url2": "https://www.fuchu-fukuzyuen.com/" }, "geometry": { "type": "Point", "coordinates": [ 132.50173, 34.3857714 ] } },
{ "type": "Feature", "properties": { "内容": "特別養護老人ホームエバーグリーンホーム【介護老人福祉施設】広島県安芸郡海田町東二丁目８番６号", "url": "https://www.kaigokensaku.mhlw.go.jp/34/index.php?action_kouhyou_detail_004_kani=true&JigyosyoCd=3473200263-00&ServiceCd=510&Type=search", "url2": null }, "geometry": { "type": "Point", "coordinates": [ 132.5599115, 34.3653875 ] } },
{ "type": "Feature", "properties": { "内容": "特別養護老人ホーム誠和園【介護老人福祉施設】広島県安芸郡熊野町城之堀二丁目28番1号", "url": "https://www.kaigokensaku.mhlw.go.jp/34/index.php?action_kouhyou_detail_004_kani=true&JigyosyoCd=3473100257-00&ServiceCd=510&Type=search", "url2": "https://www.seijokaikumano.com/" }, "geometry": { "type": "Point", "coordinates": [ 132.580784600000015, 34.3459461 ] } },
{ "type": "Feature", "properties": { "内容": "特別養護老人ホームたかね荘【介護老人福祉施設】広島県安芸郡坂町北新地二丁目3番10号", "url": "https://www.kaigokensaku.mhlw.go.jp/34/index.php?action_kouhyou_detail_004_kani=true&JigyosyoCd=3473100497-00&ServiceCd=510&Type=search", "url2": "http://www.saiseikai.com/welfare/takane-sou/" }, "geometry": { "type": "Point", "coordinates": [ 132.519523364556903, 34.350399359840885 ] } },
{ "type": "Feature", "properties": { "内容": "特別養護老人ホーム寿光園【介護老人福祉施設】広島県山県郡安芸太田町大字下筒賀821番地", "url": "https://www.kaigokensaku.mhlw.go.jp/34/index.php?action_kouhyou_detail_004_kani=true&JigyosyoCd=3473500530-00&ServiceCd=510&Type=search", "url2": "http://geihoku-fukushikai.com/" }, "geometry": { "type": "Point", "coordinates": [ 132.293146900000011, 34.5867783 ] } },
{ "type": "Feature", "properties": { "内容": "ユニット型特別養護老人ホーム寿光園【介護老人福祉施設】広島県山県郡安芸太田町大字下筒賀８２１番地", "url": "https://www.kaigokensaku.mhlw.go.jp/34/index.php?action_kouhyou_detail_004_kani=true&JigyosyoCd=3473500829-00&ServiceCd=510&Type=search", "url2": "http://geihoku-fukushikai.com/" }, "geometry": { "type": "Point", "coordinates": [ 132.293146900000011, 34.586778299999985 ] } },
{ "type": "Feature", "properties": { "内容": "特別養護老人ホーム　戸河内松信園【介護老人福祉施設】広島県山県郡安芸太田町大字土居625番地", "url": "https://www.kaigokensaku.mhlw.go.jp/34/index.php?action_kouhyou_detail_004_kani=true&JigyosyoCd=3473500548-00&ServiceCd=510&Type=search", "url2": "http://www.syoshinen.com" }, "geometry": { "type": "Point", "coordinates": [ 132.242998199999988, 34.5740535 ] } },
{ "type": "Feature", "properties": { "内容": "特別養護老人ホーム　やまゆり【介護老人福祉施設】広島県山県郡北広島町移原635番地やまゆり", "url": "https://www.kaigokensaku.mhlw.go.jp/34/index.php?action_kouhyou_detail_004_kani=true&JigyosyoCd=3473500464-00&ServiceCd=510&Type=search", "url2": "http://geihoku-fukushikai.com/" }, "geometry": { "type": "Point", "coordinates": [ 132.351793080226116, 34.744258245393631 ] } },
{ "type": "Feature", "properties": { "内容": "特別養護老人ホーム　ゆりかご荘【介護老人福祉施設】広島県山県郡北広島町阿阪4600番地", "url": "https://www.kaigokensaku.mhlw.go.jp/34/index.php?action_kouhyou_detail_004_kani=true&JigyosyoCd=3473500407-00&ServiceCd=510&Type=search", "url2": "http://www.yurikagosou.or.jp/" }, "geometry": { "type": "Point", "coordinates": [ 132.450786599999986, 34.6260022 ] } },
{ "type": "Feature", "properties": { "内容": "特別養護老人ホームやすらぎ【介護老人福祉施設】広島県山県郡北広島町大朝13435番地1", "url": "https://www.kaigokensaku.mhlw.go.jp/34/index.php?action_kouhyou_detail_004_kani=true&JigyosyoCd=3473500555-00&ServiceCd=510&Type=search", "url2": "http://www.yurikagosou.or.jp/yasuragi.html" }, "geometry": { "type": "Point", "coordinates": [ 132.471847286508137, 34.766314607632246 ] } },
{ "type": "Feature", "properties": { "内容": "特別養護老人ホーム「正寿園」【介護老人福祉施設】広島県山県郡北広島町壬生901番地", "url": "https://www.kaigokensaku.mhlw.go.jp/34/index.php?action_kouhyou_detail_004_kani=true&JigyosyoCd=3473500431-00&ServiceCd=510&Type=search", "url2": "http://m-meiwakai.jp" }, "geometry": { "type": "Point", "coordinates": [ 132.554070599999932, 34.6804099 ] } },
{ "type": "Feature", "properties": { "内容": "特別養護老人ホーム　大崎荘【介護老人福祉施設】広島県豊田郡大崎上島町沖浦1539番地1", "url": "https://www.kaigokensaku.mhlw.go.jp/34/index.php?action_kouhyou_detail_004_kani=true&JigyosyoCd=3473900292-00&ServiceCd=510&Type=search", "url2": "http://osakifukushikai.jp/" }, "geometry": { "type": "Point", "coordinates": [ 132.904664, 34.2150425 ] } },
{ "type": "Feature", "properties": { "内容": "特別養護老人ホーム大崎美浜荘【介護老人福祉施設】広島県豊田郡大崎上島町大串３０３２番地１", "url": "https://www.kaigokensaku.mhlw.go.jp/34/index.php?action_kouhyou_detail_004_kani=true&JigyosyoCd=3473900334-00&ServiceCd=510&Type=search", "url2": "http://osakifukushikai.jp" }, "geometry": { "type": "Point", "coordinates": [ 132.8459398, 34.2381382 ] } },
{ "type": "Feature", "properties": { "内容": "特別養護老人ホームみゆき【介護老人福祉施設】広島県豊田郡大崎上島町東野2701番地", "url": "https://www.kaigokensaku.mhlw.go.jp/34/index.php?action_kouhyou_detail_004_kani=true&JigyosyoCd=3473900672-00&ServiceCd=510&Type=search", "url2": "https://www.higashinokai.jp/social-welfare/" }, "geometry": { "type": "Point", "coordinates": [ 132.9088491, 34.2609821 ] } },
{ "type": "Feature", "properties": { "内容": "特別養護老人ホームせせらぎ園【介護老人福祉施設】広島県世羅郡世羅町大字小国１０８８９番地２３", "url": "https://www.kaigokensaku.mhlw.go.jp/34/index.php?action_kouhyou_detail_004_kani=true&JigyosyoCd=3474200239-00&ServiceCd=510&Type=search", "url2": "http://www.kurumikai.com/" }, "geometry": { "type": "Point", "coordinates": [ 132.94382675999762, 34.606553683369825 ] } },
{ "type": "Feature", "properties": { "内容": "特別養護老人ホーム　高竜園【介護老人福祉施設】広島県世羅郡世羅町大字西上原426番地11", "url": "https://www.kaigokensaku.mhlw.go.jp/34/index.php?action_kouhyou_detail_004_kani=true&JigyosyoCd=3474200171-00&ServiceCd=510&Type=search", "url2": "https://www.kouryuuen.com/service/#anc_nurse" }, "geometry": { "type": "Point", "coordinates": [ 133.059678699999949, 34.5892557 ] } },
{ "type": "Feature", "properties": { "内容": "特別養護老人ホーム　シルトピア油木【介護老人福祉施設】広島県神石郡神石高原町油木甲５０７１番地１", "url": "https://www.kaigokensaku.mhlw.go.jp/34/index.php?action_kouhyou_detail_004_kani=true&JigyosyoCd=3474600172-00&ServiceCd=510&Type=search", "url2": "http://www.alice.or.jp" }, "geometry": { "type": "Point", "coordinates": [ 133.2680378, 34.788234 ] } },
{ "type": "Feature", "properties": { "内容": "特別養護老人ホーム四季の家【介護老人福祉施設】広島県神石郡神石高原町油木甲5071番地1", "url": "https://www.kaigokensaku.mhlw.go.jp/34/index.php?action_kouhyou_detail_004_kani=true&JigyosyoCd=3474600248-00&ServiceCd=510&Type=search", "url2": "https://www.alice.or.jp/" }, "geometry": { "type": "Point", "coordinates": [ 133.267688600000014, 34.7890126 ] } },
{ "type": "Feature", "properties": { "内容": "特別養護老人ホーム神寿苑【介護老人福祉施設】広島県神石郡神石高原町福永1466番地", "url": "https://www.kaigokensaku.mhlw.go.jp/34/index.php?action_kouhyou_detail_004_kani=true&JigyosyoCd=3474600123-00&ServiceCd=510&Type=search", "url2": "http://jinseki-shinjyuen.jp" }, "geometry": { "type": "Point", "coordinates": [ 133.173090433117096, 34.80084797409814 ] } }
]
}
