{
"type": "FeatureCollection",
"name": "geo_34_地域密着型介護老人福祉施設入所者生活介護",
"crs": { "type": "name", "properties": { "name": "urn:ogc:def:crs:OGC:1.3:CRS84" } },
"features": [
{ "type": "Feature", "properties": { "内容": "地域密着型特別養護老人ホームリバーサイド中広【地域密着型介護老人福祉施設入所者生活介護】広島県広島市西区中広町2丁目15番15号", "url": "https://www.kaigokensaku.mhlw.go.jp/34/index.php?action_kouhyou_detail_004_kani=true&JigyosyoCd=3490200767-00&ServiceCd=540&Type=search", "url2": "http://www.touaikai.com" }, "geometry": { "type": "Point", "coordinates": [ 132.439187, 34.4037152 ] } },
{ "type": "Feature", "properties": { "内容": "特別養護老人ホーム高取慈光園【地域密着型介護老人福祉施設入所者生活介護】広島市安佐南区高取北一丁目17-41", "url": "https://www.kaigokensaku.mhlw.go.jp/34/index.php?action_kouhyou_detail_004_kani=true&JigyosyoCd=3490200650-00&ServiceCd=540&Type=search", "url2": "http://www.jikouen.jp" }, "geometry": { "type": "Point", "coordinates": [ 132.441337400000066, 34.4773848 ] } },
{ "type": "Feature", "properties": { "内容": "特別養護老人ホーム　第二高陽荘【地域密着型介護老人福祉施設入所者生活介護】広島市安佐北区深川八丁目36-7", "url": "https://www.kaigokensaku.mhlw.go.jp/34/index.php?action_kouhyou_detail_004_kani=true&JigyosyoCd=3490100439-00&ServiceCd=540&Type=search", "url2": "https://komyogakuen.jp/" }, "geometry": { "type": "Point", "coordinates": [ 132.539938099999972, 34.4694908 ] } },
{ "type": "Feature", "properties": { "内容": "特別養護老人ホーム山まゆ２号館（ユニット型）【地域密着型介護老人福祉施設入所者生活介護】広島県広島市安佐北区大林町字根谷１６２番地の２", "url": "https://www.kaigokensaku.mhlw.go.jp/34/index.php?action_kouhyou_detail_004_kani=true&JigyosyoCd=3490100694-00&ServiceCd=540&Type=search", "url2": "https://www.kabedaimonjikai.or.jp" }, "geometry": { "type": "Point", "coordinates": [ 132.562396199999966, 34.57123510000001 ] } },
{ "type": "Feature", "properties": { "内容": "特別養護老人ホーム呉本通コスモス園【地域密着型介護老人福祉施設入所者生活介護】広島県呉市本通４丁目８番１２号１０１号", "url": "https://www.kaigokensaku.mhlw.go.jp/34/index.php?action_kouhyou_detail_004_kani=true&JigyosyoCd=3490500257-00&ServiceCd=540&Type=search", "url2": "http://hakujukai.jp/" }, "geometry": { "type": "Point", "coordinates": [ 132.569523600000053, 34.247343868626366 ] } },
{ "type": "Feature", "properties": { "内容": "特別養護老人ホーム　仁方【地域密着型介護老人福祉施設入所者生活介護】広島県呉市仁方町戸田4407番地", "url": "https://www.kaigokensaku.mhlw.go.jp/34/index.php?action_kouhyou_detail_004_kani=true&JigyosyoCd=3490500299-00&ServiceCd=540&Type=search", "url2": "http://www.misasakai.or.jp/" }, "geometry": { "type": "Point", "coordinates": [ 132.652095199999962, 34.2064321 ] } },
{ "type": "Feature", "properties": { "内容": "地域密着型ユニット型特別養護老人ホーム　あかさき園【地域密着型介護老人福祉施設入所者生活介護】呉市音戸町畑1丁目2番51号", "url": "https://www.kaigokensaku.mhlw.go.jp/34/index.php?action_kouhyou_detail_004_kani=true&JigyosyoCd=3490500307-00&ServiceCd=540&Type=search", "url2": "http://www.hakujukai.jp" }, "geometry": { "type": "Point", "coordinates": [ 132.533969599999978, 34.1621003 ] } },
{ "type": "Feature", "properties": { "内容": "特別養護老人ホームのろさん【地域密着型介護老人福祉施設入所者生活介護】広島県呉市郷原町12380番地の181特別養護老人ホームのろさん", "url": "https://www.kaigokensaku.mhlw.go.jp/34/index.php?action_kouhyou_detail_004_kani=true&JigyosyoCd=3490500323-00&ServiceCd=540&Type=search", "url2": "http://www.norosangakuen.or.jp" }, "geometry": { "type": "Point", "coordinates": [ 132.649438029360908, 34.296949233985323 ] } },
{ "type": "Feature", "properties": { "内容": "地域密着型介護老人福祉施設入所者生活介護事業所糸崎【地域密着型介護老人福祉施設入所者生活介護】広島県三原市糸崎6丁目10番28号コミュニティケアセンター糸崎", "url": "https://www.kaigokensaku.mhlw.go.jp/34/index.php?action_kouhyou_detail_004_kani=true&JigyosyoCd=3490900358-00&ServiceCd=540&Type=search", "url2": "http://npokizuna.jp" }, "geometry": { "type": "Point", "coordinates": [ 133.1137488, 34.392081 ] } },
{ "type": "Feature", "properties": { "内容": "地域密着型特別養護⽼⼈ホームサンライズマリン瀬⼾【地域密着型介護老人福祉施設入所者生活介護】広島県三原市港町三丁⽬6番29号サンライズマリン瀬戸", "url": "https://www.kaigokensaku.mhlw.go.jp/34/index.php?action_kouhyou_detail_004_kani=true&JigyosyoCd=3490900168-00&ServiceCd=540&Type=search", "url2": "http://www.snrs.or.jp" }, "geometry": { "type": "Point", "coordinates": [ 133.077168799999981, 34.3987858 ] } },
{ "type": "Feature", "properties": { "内容": "特別養護老人ホームくすのき・めぐみ苑【地域密着型介護老人福祉施設入所者生活介護】広島県三原市城町三丁目6番1", "url": "https://www.kaigokensaku.mhlw.go.jp/34/index.php?action_kouhyou_detail_004_kani=true&JigyosyoCd=3490900374-00&ServiceCd=540&Type=search", "url2": "http://matsutomo.or.jp/kusunokimegumien/" }, "geometry": { "type": "Point", "coordinates": [ 133.082879100000014, 34.3967584 ] } },
{ "type": "Feature", "properties": { "内容": "地域密着型特別養護老人ホーム　浦崎寮【地域密着型介護老人福祉施設入所者生活介護】広島県尾道市浦崎町3594番地", "url": "https://www.kaigokensaku.mhlw.go.jp/34/index.php?action_kouhyou_detail_004_kani=true&JigyosyoCd=3491100347-00&ServiceCd=540&Type=search", "url2": null }, "geometry": { "type": "Point", "coordinates": [ 133.269112700000051, 34.4045965 ] } },
{ "type": "Feature", "properties": { "内容": "地域密着型特別養護老人ホーム星の里【地域密着型介護老人福祉施設入所者生活介護】尾道市久保町1856番地", "url": "https://www.kaigokensaku.mhlw.go.jp/34/index.php?action_kouhyou_detail_004_kani=true&JigyosyoCd=3491100305-00&ServiceCd=540&Type=search", "url2": "http://www.satukikai.com/" }, "geometry": { "type": "Point", "coordinates": [ 133.211646689436748, 34.420704416243645 ] } },
{ "type": "Feature", "properties": { "内容": "地域密着型特別養護老人ホームひかり苑【地域密着型介護老人福祉施設入所者生活介護】尾道市原田町梶山田３６０９番地", "url": "https://www.kaigokensaku.mhlw.go.jp/34/index.php?action_kouhyou_detail_004_kani=true&JigyosyoCd=3491100313-00&ServiceCd=540&Type=search", "url2": "http://www.haradahikarikai.or.jp/" }, "geometry": { "type": "Point", "coordinates": [ 133.213014199999947, 34.4895325 ] } },
{ "type": "Feature", "properties": { "内容": "地域密着型特別養護老人ホーム楽生苑いこいの里【地域密着型介護老人福祉施設入所者生活介護】広島県尾道市瀬戸田町林1288番地6", "url": "https://www.kaigokensaku.mhlw.go.jp/34/index.php?action_kouhyou_detail_004_kani=true&JigyosyoCd=3491100354-00&ServiceCd=540&Type=search", "url2": "https://www.rakusei.or.jp" }, "geometry": { "type": "Point", "coordinates": [ 133.102939600000013, 34.3055299 ] } },
{ "type": "Feature", "properties": { "内容": "公立みつぎ総合病院地域密着型特別養護老人ホーム「ふれあい」【地域密着型介護老人福祉施設入所者生活介護】尾道市御調町高尾１３４８番地６", "url": "https://www.kaigokensaku.mhlw.go.jp/34/index.php?action_kouhyou_detail_004_kani=true&JigyosyoCd=3491100495-00&ServiceCd=540&Type=search", "url2": "http://www.mitsugibyouin.com" }, "geometry": { "type": "Point", "coordinates": [ 133.1327265, 34.5140678 ] } },
{ "type": "Feature", "properties": { "内容": "地域密着型特別養護老人ホーム　リーフ新市【地域密着型介護老人福祉施設入所者生活介護】福山市新市町戸手2327", "url": "https://www.kaigokensaku.mhlw.go.jp/34/index.php?action_kouhyou_detail_004_kani=true&JigyosyoCd=3491500967-00&ServiceCd=540&Type=search", "url2": "http://ryokuju-kai.jp" }, "geometry": { "type": "Point", "coordinates": [ 133.300341099999969, 34.5461672 ] } },
{ "type": "Feature", "properties": { "内容": "地域密着型特別養護老人ホーム　エクセル福山【地域密着型介護老人福祉施設入所者生活介護】福山市水呑町三新田二丁目１番地", "url": "https://www.kaigokensaku.mhlw.go.jp/34/index.php?action_kouhyou_detail_004_kani=true&JigyosyoCd=3491501197-00&ServiceCd=540&Type=search", "url2": "https://www.harumikai.jp" }, "geometry": { "type": "Point", "coordinates": [ 133.387926399999969, 34.4473812 ] } },
{ "type": "Feature", "properties": { "内容": "地域密着型特別養護老人ホーム　リーフ明神【地域密着型介護老人福祉施設入所者生活介護】広島県福山市明神町二丁目6番8号", "url": "https://www.kaigokensaku.mhlw.go.jp/34/index.php?action_kouhyou_detail_004_kani=true&JigyosyoCd=3491501494-00&ServiceCd=540&Type=search", "url2": "https://ryokuju-kai.jp/" }, "geometry": { "type": "Point", "coordinates": [ 133.398461517196665, 34.49291088533645 ] } },
{ "type": "Feature", "properties": { "内容": "地域密着型特別養護老人ホーム　新山荘【地域密着型介護老人福祉施設入所者生活介護】広島県福山市駅家町新山3578-2", "url": "https://www.kaigokensaku.mhlw.go.jp/34/index.php?action_kouhyou_detail_004_kani=true&JigyosyoCd=3491501650-00&ServiceCd=540&Type=search", "url2": "https://ryokuju-kai.jp/" }, "geometry": { "type": "Point", "coordinates": [ 133.306817799999976, 34.5630409 ] } },
{ "type": "Feature", "properties": { "内容": "特別養護老人ホームしんがい【地域密着型介護老人福祉施設入所者生活介護】広島県福山市新涯町３丁目１９番２７号", "url": "https://www.kaigokensaku.mhlw.go.jp/34/index.php?action_kouhyou_detail_004_kani=true&JigyosyoCd=3491501734-00&ServiceCd=540&Type=search", "url2": "https://www.sanyo.or.jp/shingai/" }, "geometry": { "type": "Point", "coordinates": [ 133.392106499999954, 34.4609547 ] } },
{ "type": "Feature", "properties": { "内容": "地域密着型特別養護老人ホーム　リーフ服部【地域密着型介護老人福祉施設入所者生活介護】広島県福山市駅家町大字助元65番地1", "url": "https://www.kaigokensaku.mhlw.go.jp/34/index.php?action_kouhyou_detail_004_kani=true&JigyosyoCd=3491502682-00&ServiceCd=540&Type=search", "url2": "https://ryokuju-kai.jp/" }, "geometry": { "type": "Point", "coordinates": [ 133.311296700000014, 34.5848884 ] } },
{ "type": "Feature", "properties": { "内容": "特別養護老人ホームひかり【地域密着型介護老人福祉施設入所者生活介護】広島県福山市草戸町三丁目６番１号", "url": "https://www.kaigokensaku.mhlw.go.jp/34/index.php?action_kouhyou_detail_004_kani=true&JigyosyoCd=3491502401-00&ServiceCd=540&Type=search", "url2": "https://www.sanyo.or.jp/hikari/" }, "geometry": { "type": "Point", "coordinates": [ 133.3591824, 34.478515700000031 ] } },
{ "type": "Feature", "properties": { "内容": "特別養護老人ホームくさど【地域密着型介護老人福祉施設入所者生活介護】福山市草戸町5丁目8番24号", "url": "https://www.kaigokensaku.mhlw.go.jp/34/index.php?action_kouhyou_detail_004_kani=true&JigyosyoCd=3491501155-00&ServiceCd=540&Type=search", "url2": "http://www.sanyo.or.jp/kusado/" }, "geometry": { "type": "Point", "coordinates": [ 133.364866, 34.4684732 ] } },
{ "type": "Feature", "properties": { "内容": "地域密着型特別養護老人ホーム悠芳苑【地域密着型介護老人福祉施設入所者生活介護】広島県福山市熊野町１６３０番地", "url": "https://www.kaigokensaku.mhlw.go.jp/34/index.php?action_kouhyou_detail_004_kani=true&JigyosyoCd=3491501387-00&ServiceCd=540&Type=search", "url2": "https://yuhoen.sakura.ne.jp/ufo/" }, "geometry": { "type": "Point", "coordinates": [ 133.345076699999936, 34.4222787 ] } },
{ "type": "Feature", "properties": { "内容": "特別養護老人ホームぬくもり【地域密着型介護老人福祉施設入所者生活介護】広島県福山市新涯町6丁目11番21号", "url": "https://www.kaigokensaku.mhlw.go.jp/34/index.php?action_kouhyou_detail_004_kani=true&JigyosyoCd=3491501403-00&ServiceCd=540&Type=search", "url2": "https://www.sunsquare-1993.org/facility/hiroshima/fukuyama/tokuyou/nukumori.html" }, "geometry": { "type": "Point", "coordinates": [ 133.398683573155239, 34.455999396157807 ] } },
{ "type": "Feature", "properties": { "内容": "地域密着型特別養護老人ホーム東光園春日【地域密着型介護老人福祉施設入所者生活介護】広島県福山市春日町7丁目9番11号", "url": "https://www.kaigokensaku.mhlw.go.jp/34/index.php?action_kouhyou_detail_004_kani=true&JigyosyoCd=3491501452-00&ServiceCd=540&Type=search", "url2": "http://www.toukoukai.or.jp/" }, "geometry": { "type": "Point", "coordinates": [ 133.416342480950902, 34.507623778378601 ] } },
{ "type": "Feature", "properties": { "内容": "地域密着型特別養護老人ホーム桜【地域密着型介護老人福祉施設入所者生活介護】広島県福山市神村町５２３４－３", "url": "https://www.kaigokensaku.mhlw.go.jp/34/index.php?action_kouhyou_detail_004_kani=true&JigyosyoCd=3491501478-00&ServiceCd=540&Type=search", "url2": "https://www.tokuyou-sakura.jp/" }, "geometry": { "type": "Point", "coordinates": [ 133.286725499999989, 34.4620452 ] } },
{ "type": "Feature", "properties": { "内容": "地域密着型特別養護老人ホーム愛【地域密着型介護老人福祉施設入所者生活介護】広島県福山市神辺町湯野1004番地2", "url": "https://www.kaigokensaku.mhlw.go.jp/34/index.php?action_kouhyou_detail_004_kani=true&JigyosyoCd=3491501858-00&ServiceCd=540&Type=search", "url2": "http://kouseikai-ai.jp" }, "geometry": { "type": "Point", "coordinates": [ 133.389620499999978, 34.5617501 ] } },
{ "type": "Feature", "properties": { "内容": "地域密着型特別養護老人ホーム　ざおう健生苑本館【地域密着型介護老人福祉施設入所者生活介護】広島県福山市蔵王町4112-1", "url": "https://www.kaigokensaku.mhlw.go.jp/34/index.php?action_kouhyou_detail_004_kani=true&JigyosyoCd=3491501866-00&ServiceCd=540&Type=search", "url2": "http://www.kensei-kai.org" }, "geometry": { "type": "Point", "coordinates": [ 133.389590699999985, 34.5103221 ] } },
{ "type": "Feature", "properties": { "内容": "地域密着型介護老人福祉施設すず【地域密着型介護老人福祉施設入所者生活介護】福山市駅家町大字法成寺108番地1", "url": "https://www.kaigokensaku.mhlw.go.jp/34/index.php?action_kouhyou_detail_004_kani=true&JigyosyoCd=3491500942-00&ServiceCd=540&Type=search", "url2": "https://ekiya-sakura.jp/oujukai/tokuyou-suzu_view.html" }, "geometry": { "type": "Point", "coordinates": [ 133.326252599999947, 34.5540783 ] } },
{ "type": "Feature", "properties": { "内容": "特別養護老人ホームサテライト松風園【地域密着型介護老人福祉施設入所者生活介護】福山市加茂町大字下加茂448番地", "url": "https://www.kaigokensaku.mhlw.go.jp/34/index.php?action_kouhyou_detail_004_kani=true&JigyosyoCd=3491501015-00&ServiceCd=540&Type=search", "url2": "http://www.shofu-kai.or.jp/" }, "geometry": { "type": "Point", "coordinates": [ 133.341376635540541, 34.564692670109203 ] } },
{ "type": "Feature", "properties": { "内容": "ユニット型特別養護老人ホーム明翠園【地域密着型介護老人福祉施設入所者生活介護】福山市柳津町486番地", "url": "https://www.kaigokensaku.mhlw.go.jp/34/index.php?action_kouhyou_detail_004_kani=true&JigyosyoCd=3491501361-00&ServiceCd=540&Type=search", "url2": "https://meisui-kai.jimdo.com/" }, "geometry": { "type": "Point", "coordinates": [ 133.287055279460105, 34.450018294118806 ] } },
{ "type": "Feature", "properties": { "内容": "ユニット型特別養護老人ホーム幸楽園【地域密着型介護老人福祉施設入所者生活介護】広島県福山市蔵王町7159番地14", "url": "https://www.kaigokensaku.mhlw.go.jp/34/index.php?action_kouhyou_detail_004_kani=true&JigyosyoCd=3491501379-00&ServiceCd=540&Type=search", "url2": "http://kourakuen.or.jp" }, "geometry": { "type": "Point", "coordinates": [ 133.405348107934486, 34.520692310390842 ] } },
{ "type": "Feature", "properties": { "内容": "ユニット型特別養護老人ホームプレジール箕島【地域密着型介護老人福祉施設入所者生活介護】広島県福山市箕島町7504番地3", "url": "https://www.kaigokensaku.mhlw.go.jp/34/index.php?action_kouhyou_detail_004_kani=true&JigyosyoCd=3491501619-00&ServiceCd=540&Type=search", "url2": "https://www.purejiru.jp/" }, "geometry": { "type": "Point", "coordinates": [ 133.4019055, 34.4530948 ] } },
{ "type": "Feature", "properties": { "内容": "地域密着型特別養護老人ホーム　まり沼隈【地域密着型介護老人福祉施設入所者生活介護】広島県福山市沼隈町大字中山南7469-3", "url": "https://www.kaigokensaku.mhlw.go.jp/34/index.php?action_kouhyou_detail_004_kani=true&JigyosyoCd=3491501817-00&ServiceCd=540&Type=search", "url2": "http://shounankai.or.jp/" }, "geometry": { "type": "Point", "coordinates": [ 133.323033518329112, 34.419326740642113 ] } },
{ "type": "Feature", "properties": { "内容": "特別養護老人ホーム夢ハウス【地域密着型介護老人福祉施設入所者生活介護】広島県福山市港町2丁目12-1", "url": "https://www.kaigokensaku.mhlw.go.jp/34/index.php?action_kouhyou_detail_004_kani=true&JigyosyoCd=3491502294-00&ServiceCd=540&Type=search", "url2": "https://www.kbk-group.or.jp/yumehouse/" }, "geometry": { "type": "Point", "coordinates": [ 140.718295899999987, 41.8058539 ] } },
{ "type": "Feature", "properties": { "内容": "介護老人福祉施設　アルカディアせんだ【地域密着型介護老人福祉施設入所者生活介護】広島県福山市千田町二丁目5番10号", "url": "https://www.kaigokensaku.mhlw.go.jp/34/index.php?action_kouhyou_detail_004_kani=true&JigyosyoCd=3491500959-00&ServiceCd=540&Type=search", "url2": "http://junyoukai.com/" }, "geometry": { "type": "Point", "coordinates": [ 133.366886600000043, 34.517624 ] } },
{ "type": "Feature", "properties": { "内容": "地域密着型特別養護老人ホーム陽のあたる家【地域密着型介護老人福祉施設入所者生活介護】広島県福山市大門町三丁目7番10号", "url": "https://www.kaigokensaku.mhlw.go.jp/34/index.php?action_kouhyou_detail_004_kani=true&JigyosyoCd=3491501726-00&ServiceCd=540&Type=search", "url2": "https://hinoataruie.jp/" }, "geometry": { "type": "Point", "coordinates": [ 133.437024415404238, 34.493720419537766 ] } },
{ "type": "Feature", "properties": { "内容": "地域密着型特別養護老人ホーム五本松の家【地域密着型介護老人福祉施設入所者生活介護】広島県福山市多治米町6丁目14番26号", "url": "https://www.kaigokensaku.mhlw.go.jp/34/index.php?action_kouhyou_detail_004_kani=true&JigyosyoCd=3491501791-00&ServiceCd=540&Type=search", "url2": "http://5pines.jp/" }, "geometry": { "type": "Point", "coordinates": [ 133.370737458866529, 34.466474625636629 ] } },
{ "type": "Feature", "properties": { "内容": "地域密着型介護老人福祉施設入所者生活介護事業所北本庄【地域密着型介護老人福祉施設入所者生活介護】広島県福山市北本庄二丁目14-6コミュニティケアセンター北本庄", "url": "https://www.kaigokensaku.mhlw.go.jp/34/index.php?action_kouhyou_detail_004_kani=true&JigyosyoCd=3491501973-00&ServiceCd=540&Type=search", "url2": "http://npokizuna.jp" }, "geometry": { "type": "Point", "coordinates": [ 133.3456086, 34.4971821 ] } },
{ "type": "Feature", "properties": { "内容": "地域密着型特別養護老人ホーム坂の上の久松邸【地域密着型介護老人福祉施設入所者生活介護】広島県福山市久松台三丁目21番3号", "url": "https://www.kaigokensaku.mhlw.go.jp/34/index.php?action_kouhyou_detail_004_kani=true&JigyosyoCd=3491502138-00&ServiceCd=540&Type=search", "url2": "https://www.iwasaki-seikeigeka.com/facilities/" }, "geometry": { "type": "Point", "coordinates": [ 133.3506615, 34.4968585 ] } },
{ "type": "Feature", "properties": { "内容": "地域密着型特別養護老人ホーム久松邸ANNEX【地域密着型介護老人福祉施設入所者生活介護】広島県福山市木之庄町2-5-31", "url": "https://www.kaigokensaku.mhlw.go.jp/34/index.php?action_kouhyou_detail_004_kani=true&JigyosyoCd=3491502617-00&ServiceCd=540&Type=search", "url2": "https://www.iwasaki-seikeigeka.com/facilities/" }, "geometry": { "type": "Point", "coordinates": [ 133.352575, 34.4971516 ] } },
{ "type": "Feature", "properties": { "内容": "地域密着型特別養護老人ホーム　寿の杜【地域密着型介護老人福祉施設入所者生活介護】広島県福山市神辺町大字川南1431-6", "url": "https://www.kaigokensaku.mhlw.go.jp/34/index.php?action_kouhyou_detail_004_kani=true&JigyosyoCd=3491502385-00&ServiceCd=540&Type=search", "url2": "https://shojukai.org/" }, "geometry": { "type": "Point", "coordinates": [ 133.374109800000014, 34.5326041 ] } },
{ "type": "Feature", "properties": { "内容": "地域密着型特別養護老人ホーム小春日和【地域密着型介護老人福祉施設入所者生活介護】広島県福山市駅家町向永谷682-1", "url": "https://www.kaigokensaku.mhlw.go.jp/34/index.php?action_kouhyou_detail_004_kani=true&JigyosyoCd=3491501395-00&ServiceCd=540&Type=search", "url2": "http://www.koharu.or.jp" }, "geometry": { "type": "Point", "coordinates": [ 133.296411300000045, 34.5327212 ] } },
{ "type": "Feature", "properties": { "内容": "地域密着型特別養護老人ホームオリーブハウス幸千【地域密着型介護老人福祉施設入所者生活介護】広島県福山市御幸町中津原850-1", "url": "https://www.kaigokensaku.mhlw.go.jp/34/index.php?action_kouhyou_detail_004_kani=true&JigyosyoCd=3491501999-00&ServiceCd=540&Type=search", "url2": "http://www.olivehouse-group.jp/" }, "geometry": { "type": "Point", "coordinates": [ 133.357222, 34.523207 ] } },
{ "type": "Feature", "properties": { "内容": "ユニット型地域密着型介護老人福祉施設府中静和寮よつば館【地域密着型介護老人福祉施設入所者生活介護】府中市土生町１６３６番地の１府中静和寮よつば館", "url": "https://www.kaigokensaku.mhlw.go.jp/34/index.php?action_kouhyou_detail_004_kani=true&JigyosyoCd=3491700070-00&ServiceCd=540&Type=search", "url2": "https://www.seiwakai-hiroshima.jp/" }, "geometry": { "type": "Point", "coordinates": [ 133.226237829361054, 34.571142401487599 ] } },
{ "type": "Feature", "properties": { "内容": "地域密着型特別養護老人ホームあいあい【地域密着型介護老人福祉施設入所者生活介護】府中市桜が丘3丁目2番地の4", "url": "https://www.kaigokensaku.mhlw.go.jp/34/index.php?action_kouhyou_detail_004_kani=true&JigyosyoCd=3491700088-00&ServiceCd=540&Type=search", "url2": "https://www.aiai-fukushi.net/sakura/" }, "geometry": { "type": "Point", "coordinates": [ 133.246880799999985, 34.5800845 ] } },
{ "type": "Feature", "properties": { "内容": "特別養護老人ホーム　すいれん【地域密着型介護老人福祉施設入所者生活介護】三次市三次町１７７９－２", "url": "https://www.kaigokensaku.mhlw.go.jp/34/index.php?action_kouhyou_detail_004_kani=true&JigyosyoCd=3491900084-00&ServiceCd=540&Type=search", "url2": "http://jishokai.jp" }, "geometry": { "type": "Point", "coordinates": [ 132.843560600000046, 34.8122811 ] } },
{ "type": "Feature", "properties": { "内容": "特別養護老人ホーム　みよしの【地域密着型介護老人福祉施設入所者生活介護】三次市南畑敷町４１９－１", "url": "https://www.kaigokensaku.mhlw.go.jp/34/index.php?action_kouhyou_detail_004_kani=true&JigyosyoCd=3491900035-00&ServiceCd=540&Type=search", "url2": "http://suimeikai.org/" }, "geometry": { "type": "Point", "coordinates": [ 132.879390899999947, 34.80611 ] } },
{ "type": "Feature", "properties": { "内容": "地域密着型小規模特別養護老人ホーム　ゆうしゃいん庄原【地域密着型介護老人福祉施設入所者生活介護】庄原市宮内町美湯6353-1", "url": "https://www.kaigokensaku.mhlw.go.jp/34/index.php?action_kouhyou_detail_004_kani=true&JigyosyoCd=3492100098-00&ServiceCd=540&Type=search", "url2": "https://www.yuukifukushikai.com/" }, "geometry": { "type": "Point", "coordinates": [ 133.039583, 34.8558819 ] } },
{ "type": "Feature", "properties": { "内容": "地域密着型特別養護老人ホームハピネスタウン【地域密着型介護老人福祉施設入所者生活介護】庄原市西本町３丁目１番２５号", "url": "https://www.kaigokensaku.mhlw.go.jp/34/index.php?action_kouhyou_detail_004_kani=true&JigyosyoCd=3492100056-00&ServiceCd=540&Type=search", "url2": "https://c-hapinesu.jp" }, "geometry": { "type": "Point", "coordinates": [ 133.012597599999907, 34.8595174 ] } },
{ "type": "Feature", "properties": { "内容": "地域密着型特別養護老人ホームときわ【地域密着型介護老人福祉施設入所者生活介護】広島県東広島市八本松町原5693番地3", "url": "https://www.kaigokensaku.mhlw.go.jp/34/index.php?action_kouhyou_detail_004_kani=true&JigyosyoCd=3492500230-00&ServiceCd=540&Type=search", "url2": "http://www.tokiwadaihome.or.jp/tokuyou/" }, "geometry": { "type": "Point", "coordinates": [ 132.690079299999979, 34.4046238 ] } },
{ "type": "Feature", "properties": { "内容": "特別養護老人ホーム　神郷の家【地域密着型介護老人福祉施設入所者生活介護】東広島市福富町久芳3416番地", "url": "https://www.kaigokensaku.mhlw.go.jp/34/index.php?action_kouhyou_detail_004_kani=true&JigyosyoCd=3492500073-00&ServiceCd=540&Type=search", "url2": "http://ww35.tiki.ne.jp/~dentac/estate.html" }, "geometry": { "type": "Point", "coordinates": [ 132.7876517797622, 34.54093764924238 ] } },
{ "type": "Feature", "properties": { "内容": "地域密着型特別養護老人ホーム長寿苑【地域密着型介護老人福祉施設入所者生活介護】広島県東広島市西条町馬木444番地1", "url": "https://www.kaigokensaku.mhlw.go.jp/34/index.php?action_kouhyou_detail_004_kani=true&JigyosyoCd=3492500198-00&ServiceCd=540&Type=search", "url2": "https://chojuen.jp" }, "geometry": { "type": "Point", "coordinates": [ 132.732659799999965, 34.3710556 ] } },
{ "type": "Feature", "properties": { "内容": "地域密着型特別養護老人ホーム　おうぎの里【地域密着型介護老人福祉施設入所者生活介護】広島県東広島市志和町志和東3976番地1", "url": "https://www.kaigokensaku.mhlw.go.jp/34/index.php?action_kouhyou_detail_004_kani=true&JigyosyoCd=3492500206-00&ServiceCd=540&Type=search", "url2": "http://ougi-fukushikai.com/" }, "geometry": { "type": "Point", "coordinates": [ 132.680758700000069, 34.4842087 ] } },
{ "type": "Feature", "properties": { "内容": "コミュニティホームゆずの家【地域密着型介護老人福祉施設入所者生活介護】広島県東広島市西条町御薗宇4875番地1", "url": "https://www.kaigokensaku.mhlw.go.jp/34/index.php?action_kouhyou_detail_004_kani=true&JigyosyoCd=3492500453-00&ServiceCd=540&Type=search", "url2": "https://yuzunoya.or.jp/" }, "geometry": { "type": "Point", "coordinates": [ 132.7496888, 34.4054151 ] } },
{ "type": "Feature", "properties": { "内容": "地域密着型介護老人福祉施設みやしろ【地域密着型介護老人福祉施設入所者生活介護】広島県廿日市市宮島町９６０番地の２", "url": "https://www.kaigokensaku.mhlw.go.jp/34/index.php?action_kouhyou_detail_004_kani=true&JigyosyoCd=3492700137-00&ServiceCd=540&Type=search", "url2": null }, "geometry": { "type": "Point", "coordinates": [ 132.330741187171981, 34.305398881366003 ] } },
{ "type": "Feature", "properties": { "内容": "特別養護老人ホームまごころ半明原【地域密着型介護老人福祉施設入所者生活介護】広島県廿日市市原481番地1", "url": "https://www.kaigokensaku.mhlw.go.jp/34/index.php?action_kouhyou_detail_004_kani=true&JigyosyoCd=3492700145-00&ServiceCd=540&Type=search", "url2": "http://hanmyoubara.jp/" }, "geometry": { "type": "Point", "coordinates": [ 132.305871061901826, 34.371218950025835 ] } },
{ "type": "Feature", "properties": { "内容": "地域密着型ユニット型特別養護老人ホーム甲田【地域密着型介護老人福祉施設入所者生活介護】広島県安芸高田市甲田町下小原3363番地", "url": "https://www.kaigokensaku.mhlw.go.jp/34/index.php?action_kouhyou_detail_004_kani=true&JigyosyoCd=3493600096-00&ServiceCd=540&Type=search", "url2": "http://www.misasakai.or.jp/shisetsu/koda.php" }, "geometry": { "type": "Point", "coordinates": [ 132.742676800000027, 34.664489 ] } },
{ "type": "Feature", "properties": { "内容": "従来型地域密着型特別養護老人ホームまほろばの里沖美従来型【地域密着型介護老人福祉施設入所者生活介護】広島県江田島市沖美町岡大王字王の田２３３２－２", "url": "https://www.kaigokensaku.mhlw.go.jp/34/index.php?action_kouhyou_detail_004_kani=true&JigyosyoCd=3495000055-00&ServiceCd=540&Type=search", "url2": "http://www.mahorobanosato-okimi.or.jp" }, "geometry": { "type": "Point", "coordinates": [ 132.424160658747837, 34.186141712047259 ] } },
{ "type": "Feature", "properties": { "内容": "地域密着型特別養護老人ホームまほろばの里沖美ユニット型【地域密着型介護老人福祉施設入所者生活介護】江田島市沖美町岡大王字王の田2332‐2", "url": "https://www.kaigokensaku.mhlw.go.jp/34/index.php?action_kouhyou_detail_004_kani=true&JigyosyoCd=3495000063-00&ServiceCd=540&Type=search", "url2": "http://www.mahorobanosato-okimi.or.jp" }, "geometry": { "type": "Point", "coordinates": [ 132.459622500000023, 34.3965603 ] } },
{ "type": "Feature", "properties": { "内容": "地域密着型特別養護老人ホームチェリーゴード【地域密着型介護老人福祉施設入所者生活介護】広島県安芸郡府中町柳ヶ丘２０－２", "url": "https://www.kaigokensaku.mhlw.go.jp/34/index.php?action_kouhyou_detail_004_kani=true&JigyosyoCd=3493200095-00&ServiceCd=540&Type=search", "url2": "http://www.fig-g.jp" }, "geometry": { "type": "Point", "coordinates": [ 132.514137500000061, 34.3829434 ] } },
{ "type": "Feature", "properties": { "内容": "特別養護老人ホーム府中みどり園【地域密着型介護老人福祉施設入所者生活介護】広島県安芸郡府中町浜田1丁目6番7号", "url": "https://www.kaigokensaku.mhlw.go.jp/34/index.php?action_kouhyou_detail_004_kani=true&JigyosyoCd=3493200061-00&ServiceCd=540&Type=search", "url2": "https://midori-kai.or.jp/midorien/" }, "geometry": { "type": "Point", "coordinates": [ 132.506665800000064, 34.3872593 ] } },
{ "type": "Feature", "properties": { "内容": "特別養護老人ホーム花みずき【地域密着型介護老人福祉施設入所者生活介護】広島県安芸郡海田町大立町6番4号", "url": "https://www.kaigokensaku.mhlw.go.jp/34/index.php?action_kouhyou_detail_004_kani=true&JigyosyoCd=3493200186-00&ServiceCd=540&Type=search", "url2": "https://souhan.or.jp/" }, "geometry": { "type": "Point", "coordinates": [ 132.54394326077329, 34.366296310198969 ] } },
{ "type": "Feature", "properties": { "内容": "特別養護老人ホームたかね荘こやうら【地域密着型介護老人福祉施設入所者生活介護】広島県安芸郡坂町小屋浦一丁目8番30号", "url": "https://www.kaigokensaku.mhlw.go.jp/34/index.php?action_kouhyou_detail_004_kani=true&JigyosyoCd=3493100071-00&ServiceCd=540&Type=search", "url2": "https://www.saiseikai.com/welfare/takane-sou-koyaura/index.html" }, "geometry": { "type": "Point", "coordinates": [ 132.507326599999942, 34.2990162 ] } },
{ "type": "Feature", "properties": { "内容": "地域密着型特別養護老人ホーム　ユニットゆりかご荘【地域密着型介護老人福祉施設入所者生活介護】広島県山県郡北広島町阿坂４６００番地", "url": "https://www.kaigokensaku.mhlw.go.jp/34/index.php?action_kouhyou_detail_004_kani=true&JigyosyoCd=3493500106-00&ServiceCd=540&Type=search", "url2": "http://www.yurikagosou.or.jp/" }, "geometry": { "type": "Point", "coordinates": [ 132.450786599999986, 34.6260022 ] } },
{ "type": "Feature", "properties": { "内容": "特別養護老人ホームつばきの里【地域密着型介護老人福祉施設入所者生活介護】広島県世羅郡世羅町大字小国10889番地23", "url": "https://www.kaigokensaku.mhlw.go.jp/34/index.php?action_kouhyou_detail_004_kani=true&JigyosyoCd=3494200037-00&ServiceCd=540&Type=search", "url2": "http://www.kurumikai.ｃｏｍ/" }, "geometry": { "type": "Point", "coordinates": [ -82.957495, 34.5020385 ] } }
]
}
