{
"type": "FeatureCollection",
"name": "geo_34_特定福祉用具販売",
"crs": { "type": "name", "properties": { "name": "urn:ogc:def:crs:OGC:1.3:CRS84" } },
"features": [
{ "type": "Feature", "properties": { "内容": "株式会社ヤマシタ広島営業所【特定福祉用具販売】広島県広島市中区宝町8番2号", "url": "https://www.kaigokensaku.mhlw.go.jp/34/index.php?action_kouhyou_detail_004_kani=true&JigyosyoCd=3470215652-00&ServiceCd=410&Type=search", "url2": "https://www.yco.co.jp/" }, "geometry": { "type": "Point", "coordinates": [ 132.464302800000013, 34.3843692 ] } },
{ "type": "Feature", "properties": { "内容": "生協ひろしま福祉用具センター【特定福祉用具販売】広島市中区本川町2-6-11　第7ウエノヤビル4階", "url": "https://www.kaigokensaku.mhlw.go.jp/34/index.php?action_kouhyou_detail_004_kani=true&JigyosyoCd=3470101522-00&ServiceCd=410&Type=search", "url2": "http://hiroshima.coop" }, "geometry": { "type": "Point", "coordinates": [ 132.4510424, 34.3971297 ] } },
{ "type": "Feature", "properties": { "内容": "株式会社　ゴトウ・アズ・プランニング　広島店【特定福祉用具販売】広島市中区舟入中町2番21号", "url": "https://www.kaigokensaku.mhlw.go.jp/34/index.php?action_kouhyou_detail_004_kani=true&JigyosyoCd=3470207824-00&ServiceCd=410&Type=search", "url2": "http://www.goto-az.co.jp/" }, "geometry": { "type": "Point", "coordinates": [ 132.443970700000023, 34.3871722 ] } },
{ "type": "Feature", "properties": { "内容": "福祉用具ハーツ【特定福祉用具販売】広島県広島市中区吉島西1-31-3", "url": "https://www.kaigokensaku.mhlw.go.jp/34/index.php?action_kouhyou_detail_004_kani=true&JigyosyoCd=3470215405-00&ServiceCd=410&Type=search", "url2": "https://loppis-llc.com" }, "geometry": { "type": "Point", "coordinates": [ 132.4465334, 34.3720327 ] } },
{ "type": "Feature", "properties": { "内容": "ケアサービス明和【特定福祉用具販売】広島県広島市西白島町13-30", "url": "https://www.kaigokensaku.mhlw.go.jp/34/index.php?action_kouhyou_detail_004_kani=true&JigyosyoCd=3470208079-00&ServiceCd=410&Type=search", "url2": "https://www.ms-meiwa.com" }, "geometry": { "type": "Point", "coordinates": [ 132.4608081, 34.4068656 ] } },
{ "type": "Feature", "properties": { "内容": "有限会社パナックこうぶんどう【特定福祉用具販売】広島県広島市中区江波二本松二丁目1-22光ビル1F", "url": "https://www.kaigokensaku.mhlw.go.jp/34/index.php?action_kouhyou_detail_004_kani=true&JigyosyoCd=3470202494-00&ServiceCd=410&Type=search", "url2": null }, "geometry": { "type": "Point", "coordinates": [ 132.43320284907378, 34.368422595469369 ] } },
{ "type": "Feature", "properties": { "内容": "株式会社ケンコー【特定福祉用具販売】広島県広島市東区牛田新町三丁目7番42-101号", "url": "https://www.kaigokensaku.mhlw.go.jp/34/index.php?action_kouhyou_detail_004_kani=true&JigyosyoCd=3470107461-00&ServiceCd=410&Type=search", "url2": null }, "geometry": { "type": "Point", "coordinates": [ 132.4716062, 34.4284213 ] } },
{ "type": "Feature", "properties": { "内容": "福祉用具のエール【特定福祉用具販売】広島県広島市東区牛田新町二丁目4番34号上中ビル2階", "url": "https://www.kaigokensaku.mhlw.go.jp/34/index.php?action_kouhyou_detail_004_kani=true&JigyosyoCd=3470108667-00&ServiceCd=410&Type=search", "url2": "https://yellrun.co.jp/" }, "geometry": { "type": "Point", "coordinates": [ 132.46441, 34.4178044 ] } },
{ "type": "Feature", "properties": { "内容": "福祉スタジオ特定福祉用具販売事業所【特定福祉用具販売】広島市東区尾長西2丁目7-6", "url": "https://www.kaigokensaku.mhlw.go.jp/34/index.php?action_kouhyou_detail_004_kani=true&JigyosyoCd=3470105333-00&ServiceCd=410&Type=search", "url2": "http://www.fukushi-studio.com" }, "geometry": { "type": "Point", "coordinates": [ 132.489075299999968, 34.3999101 ] } },
{ "type": "Feature", "properties": { "内容": "株式会社えごころ【特定福祉用具販売】広島市東区矢賀1丁目7番17号", "url": "https://www.kaigokensaku.mhlw.go.jp/34/index.php?action_kouhyou_detail_004_kani=true&JigyosyoCd=3470105705-00&ServiceCd=410&Type=search", "url2": null }, "geometry": { "type": "Point", "coordinates": [ 132.493322300000045, 34.3943386 ] } },
{ "type": "Feature", "properties": { "内容": "ニックス福祉用具サービス事業所【特定福祉用具販売】広島市東区曙1-1-20", "url": "https://www.kaigokensaku.mhlw.go.jp/34/index.php?action_kouhyou_detail_004_kani=true&JigyosyoCd=3470104963-00&ServiceCd=410&Type=search", "url2": "http://www.nix-net.co.jp/" }, "geometry": { "type": "Point", "coordinates": [ 132.488547937525908, 34.395829701675474 ] } },
{ "type": "Feature", "properties": { "内容": "あいリハ福祉用具広島【特定福祉用具販売】広島県広島市南区霞2丁目1-1101", "url": "https://www.kaigokensaku.mhlw.go.jp/34/index.php?action_kouhyou_detail_004_kani=true&JigyosyoCd=3470110143-00&ServiceCd=410&Type=search", "url2": "https://aiwakk.jp/" }, "geometry": { "type": "Point", "coordinates": [ 132.484032258860765, 34.379826890133444 ] } },
{ "type": "Feature", "properties": { "内容": "シンプルケア【特定福祉用具販売】広島県広島市南区仁保南二丁目17番7-202", "url": "https://www.kaigokensaku.mhlw.go.jp/34/index.php?action_kouhyou_detail_004_kani=true&JigyosyoCd=3470207535-00&ServiceCd=410&Type=search", "url2": null }, "geometry": { "type": "Point", "coordinates": [ 132.486971268852187, 34.39463692703557 ] } },
{ "type": "Feature", "properties": { "内容": "フランスベッド株式会社　メディカル広島南営業所【特定福祉用具販売】広島県広島市南区宇品御幸3丁目２番２号安井マンション1F", "url": "https://www.kaigokensaku.mhlw.go.jp/34/index.php?action_kouhyou_detail_004_kani=true&JigyosyoCd=3470108220-00&ServiceCd=410&Type=search", "url2": "https://www.francebed.co.jp" }, "geometry": { "type": "Point", "coordinates": [ 132.4640369, 34.362933200000015 ] } },
{ "type": "Feature", "properties": { "内容": "パナソニックエイジフリーショップ広島中央【特定福祉用具販売】広島県広島市南区出汐三丁目10-6", "url": "https://www.kaigokensaku.mhlw.go.jp/34/index.php?action_kouhyou_detail_004_kani=true&JigyosyoCd=3470108733-00&ServiceCd=410&Type=search", "url2": "http://sumai.panasonic.jp/agefree/shop/search/shop_detail.php?shop=977" }, "geometry": { "type": "Point", "coordinates": [ 132.476446600000031, 34.3762904 ] } },
{ "type": "Feature", "properties": { "内容": "株式会社ウィードメディカル広島営業所【特定福祉用具販売】広島市南区仁保2丁目2-6", "url": "https://www.kaigokensaku.mhlw.go.jp/34/index.php?action_kouhyou_detail_004_kani=true&JigyosyoCd=3470106760-00&ServiceCd=410&Type=search", "url2": "http://kaigo-fukushi.jpn.com/" }, "geometry": { "type": "Point", "coordinates": [ 132.4879287, 34.384798 ] } },
{ "type": "Feature", "properties": { "内容": "株式会社フロンティア　広島営業所【特定福祉用具販売】広島市南区仁保新町2-1-23仁保新町ビル", "url": "https://www.kaigokensaku.mhlw.go.jp/34/index.php?action_kouhyou_detail_004_kani=true&JigyosyoCd=3470107552-00&ServiceCd=410&Type=search", "url2": "http://www.frontier-ph.com/" }, "geometry": { "type": "Point", "coordinates": [ 132.497303099999954, 34.3752966 ] } },
{ "type": "Feature", "properties": { "内容": "あるケア福祉用具【特定福祉用具販売】広島県広島市南区皆実町1丁目19番5号", "url": "https://www.kaigokensaku.mhlw.go.jp/34/index.php?action_kouhyou_detail_004_kani=true&JigyosyoCd=3470110705-00&ServiceCd=410&Type=search", "url2": null }, "geometry": { "type": "Point", "coordinates": [ 132.470544, 34.3772372 ] } },
{ "type": "Feature", "properties": { "内容": "ダスキンヘルスレント広島南ステーション【特定福祉用具販売】広島市南区比治山町３－８ベルクール比治山1Ｆ", "url": "https://www.kaigokensaku.mhlw.go.jp/34/index.php?action_kouhyou_detail_004_kani=true&JigyosyoCd=3470207089-00&ServiceCd=410&Type=search", "url2": "http://healthrent.duskin.jp/index.html" }, "geometry": { "type": "Point", "coordinates": [ 132.47149109999998, 34.3882057 ] } },
{ "type": "Feature", "properties": { "内容": "ダスキン　ヘルスレント広島西ステーション【特定福祉用具販売】広島市西区中広町一丁目7-2", "url": "https://www.kaigokensaku.mhlw.go.jp/34/index.php?action_kouhyou_detail_004_kani=true&JigyosyoCd=3470208970-00&ServiceCd=410&Type=search", "url2": "http://healthrent.duskin.jp/" }, "geometry": { "type": "Point", "coordinates": [ 132.440275899999961, 34.402132 ] } },
{ "type": "Feature", "properties": { "内容": "コモンメディカル【特定福祉用具販売】広島県広島市西区庚午中四丁目15番35号", "url": "https://www.kaigokensaku.mhlw.go.jp/34/index.php?action_kouhyou_detail_004_kani=true&JigyosyoCd=3470214010-00&ServiceCd=410&Type=search", "url2": "http://www.common-ltd.jp/" }, "geometry": { "type": "Point", "coordinates": [ 132.415617200000014, 34.3795828 ] } },
{ "type": "Feature", "properties": { "内容": "サンキ・ウエルビィ広島福祉用具センター【特定福祉用具販売】広島県広島市西区商工センター六丁目1番11号", "url": "https://www.kaigokensaku.mhlw.go.jp/34/index.php?action_kouhyou_detail_004_kani=true&JigyosyoCd=3470207360-00&ServiceCd=410&Type=search", "url2": null }, "geometry": { "type": "Point", "coordinates": [ 132.389710400000013, 34.3695642 ] } },
{ "type": "Feature", "properties": { "内容": "株式会社フルケア　広島営業所【特定福祉用具販売】広島市西区南観音７丁目１３番２０号ひらいちビル３０１号室", "url": "https://www.kaigokensaku.mhlw.go.jp/34/index.php?action_kouhyou_detail_004_kani=true&JigyosyoCd=3470205653-00&ServiceCd=410&Type=search", "url2": "http://www.full-care.jp" }, "geometry": { "type": "Point", "coordinates": [ 132.4275381, 34.3789104 ] } },
{ "type": "Feature", "properties": { "内容": "株式会社ライフケア西広島支店【特定福祉用具販売】広島県広島市西区井口5-20-12アーバンコート101", "url": "https://www.kaigokensaku.mhlw.go.jp/34/index.php?action_kouhyou_detail_004_kani=true&JigyosyoCd=3470213624-00&ServiceCd=410&Type=search", "url2": "https://lifecare-ok.co.jp/" }, "geometry": { "type": "Point", "coordinates": [ 132.3812354, 34.3672117 ] } },
{ "type": "Feature", "properties": { "内容": "福祉用具ステーションひなた【特定福祉用具販売】広島県広島市西区高須２丁目４－２１湯尻ビル101号", "url": "https://www.kaigokensaku.mhlw.go.jp/34/index.php?action_kouhyou_detail_004_kani=true&JigyosyoCd=3470215132-00&ServiceCd=410&Type=search", "url2": "https://www.hinata-gr.co.jp/welfare/" }, "geometry": { "type": "Point", "coordinates": [ 133.5865954, 33.5594764 ] } },
{ "type": "Feature", "properties": { "内容": "深川医療器株式会社ライフケア広島【特定福祉用具販売】広島市西区商工センター４－１５－１７", "url": "https://www.kaigokensaku.mhlw.go.jp/34/index.php?action_kouhyou_detail_004_kani=true&JigyosyoCd=3470204987-00&ServiceCd=410&Type=search", "url2": "http://www.mc-fukagawa.co.jp" }, "geometry": { "type": "Point", "coordinates": [ 132.395514258611001, 34.367602591196807 ] } },
{ "type": "Feature", "properties": { "内容": "広島介護用品【特定福祉用具販売】広島県広島市西区天満町18-8三池ビル2階", "url": "https://www.kaigokensaku.mhlw.go.jp/34/index.php?action_kouhyou_detail_004_kani=true&JigyosyoCd=3470214762-00&ServiceCd=410&Type=search", "url2": "https://www.mixell.co.jp/kaigoyouhin/" }, "geometry": { "type": "Point", "coordinates": [ 132.4402063, 34.3954819 ] } },
{ "type": "Feature", "properties": { "内容": "ハートライフ福祉用具事業部【特定福祉用具販売】広島県広島市西区大芝二丁目13番14号", "url": "https://www.kaigokensaku.mhlw.go.jp/34/index.php?action_kouhyou_detail_004_kani=true&JigyosyoCd=3470208624-00&ServiceCd=410&Type=search", "url2": "http://life.hiroshima.jp" }, "geometry": { "type": "Point", "coordinates": [ 132.459455300030527, 34.420878847230185 ] } },
{ "type": "Feature", "properties": { "内容": "アビリティーズ・ケアネット株式会社　広島営業所【特定福祉用具販売】広島市安佐南区上安四丁目37番５号", "url": "https://www.kaigokensaku.mhlw.go.jp/34/index.php?action_kouhyou_detail_004_kani=true&JigyosyoCd=3470206354-00&ServiceCd=410&Type=search", "url2": "http://www.abilities.jp" }, "geometry": { "type": "Point", "coordinates": [ 132.446772593046347, 34.482163245494014 ] } },
{ "type": "Feature", "properties": { "内容": "フランスベッド株式会社　メディカル広島営業所【特定福祉用具販売】広島市安佐南区大塚西4-16-1", "url": "https://www.kaigokensaku.mhlw.go.jp/34/index.php?action_kouhyou_detail_004_kani=true&JigyosyoCd=3470207881-00&ServiceCd=410&Type=search", "url2": "https://www.francebed.co.jp" }, "geometry": { "type": "Point", "coordinates": [ 132.397205500000041, 34.434644 ] } },
{ "type": "Feature", "properties": { "内容": "パナソニックエイジフリーショップ安佐南【特定福祉用具販売】広島県広島市安佐南区古市2－2－25　1階", "url": "https://www.kaigokensaku.mhlw.go.jp/34/index.php?action_kouhyou_detail_004_kani=true&JigyosyoCd=3470212477-00&ServiceCd=410&Type=search", "url2": "http://sumai.panasonic.jp/agefree/map/detail.php?id=298" }, "geometry": { "type": "Point", "coordinates": [ 132.475460200000043, 34.4572212 ] } },
{ "type": "Feature", "properties": { "内容": "メリィ福祉用具サービス【特定福祉用具販売】広島県広島市安佐南区大塚西3丁目2-9メリィハウス西風新都1F", "url": "https://www.kaigokensaku.mhlw.go.jp/34/index.php?action_kouhyou_detail_004_kani=true&JigyosyoCd=3470107222-00&ServiceCd=410&Type=search", "url2": null }, "geometry": { "type": "Point", "coordinates": [ 132.3954671, 34.4445813 ] } },
{ "type": "Feature", "properties": { "内容": "日本基準寝具株式会社エコール事業部【特定福祉用具販売】広島県広島市安佐南区大町東一丁目18-44", "url": "https://www.kaigokensaku.mhlw.go.jp/34/index.php?action_kouhyou_detail_004_kani=true&JigyosyoCd=3470200183-00&ServiceCd=410&Type=search", "url2": "https://www.nihonkijun.jp" }, "geometry": { "type": "Point", "coordinates": [ 132.4654392, 34.4531085 ] } },
{ "type": "Feature", "properties": { "内容": "福祉用具ステーションふじ川内【特定福祉用具販売】広島市安佐南区川内一丁目15-24", "url": "https://www.kaigokensaku.mhlw.go.jp/34/index.php?action_kouhyou_detail_004_kani=true&JigyosyoCd=3470206495-00&ServiceCd=410&Type=search", "url2": "http://www.fujicare.jp" }, "geometry": { "type": "Point", "coordinates": [ 132.4844372, 34.4582185 ] } },
{ "type": "Feature", "properties": { "内容": "特定福祉用具販売事業所ハピネス【特定福祉用具販売】広島県広島市安佐南区山本新町一丁目１１番１号", "url": "https://www.kaigokensaku.mhlw.go.jp/34/index.php?action_kouhyou_detail_004_kani=true&JigyosyoCd=3470213806-00&ServiceCd=410&Type=search", "url2": "http://furusato-home.com/" }, "geometry": { "type": "Point", "coordinates": [ 132.4359604, 34.4387068 ] } },
{ "type": "Feature", "properties": { "内容": "深川医療器株式会社ライフケア広島北【特定福祉用具販売】広島市安佐南区八木七丁目4番20101号", "url": "https://www.kaigokensaku.mhlw.go.jp/34/index.php?action_kouhyou_detail_004_kani=true&JigyosyoCd=3470215785-00&ServiceCd=410&Type=search", "url2": "http://www.mc-fukagawa.co.jp" }, "geometry": { "type": "Point", "coordinates": [ 132.5038461, 34.489648500000015 ] } },
{ "type": "Feature", "properties": { "内容": "株式会社フロンティア　広島北営業所【特定福祉用具販売】広島県広島市安佐南区緑井1-16-10", "url": "https://www.kaigokensaku.mhlw.go.jp/34/index.php?action_kouhyou_detail_004_kani=true&JigyosyoCd=3470215991-00&ServiceCd=410&Type=search", "url2": "https://www.frontier-ph.com/" }, "geometry": { "type": "Point", "coordinates": [ 132.475186799999989, 34.4645582 ] } },
{ "type": "Feature", "properties": { "内容": "IGL福祉用具貸与事業所【特定福祉用具販売】広島市安佐北区安佐町後山12415-5", "url": "https://www.kaigokensaku.mhlw.go.jp/34/index.php?action_kouhyou_detail_004_kani=true&JigyosyoCd=3470101803-00&ServiceCd=410&Type=search", "url2": "http://www.igl.or.jp/c02fukushi/zaitaku.html" }, "geometry": { "type": "Point", "coordinates": [ 132.445097499999946, 34.5004379 ] } },
{ "type": "Feature", "properties": { "内容": "株式会社ライフケア　広島支店【特定福祉用具販売】広島県安佐北区落合1-27-29", "url": "https://www.kaigokensaku.mhlw.go.jp/34/index.php?action_kouhyou_detail_004_kani=true&JigyosyoCd=3470106679-00&ServiceCd=410&Type=search", "url2": "https://lifecare-ok.co.jp/" }, "geometry": { "type": "Point", "coordinates": [ 132.5097098, 34.4729234 ] } },
{ "type": "Feature", "properties": { "内容": "介護ショップエコールフジグラン高陽店【特定福祉用具販売】広島県広島市安佐北区亀崎一丁目２番３３号", "url": "https://www.kaigokensaku.mhlw.go.jp/34/index.php?action_kouhyou_detail_004_kani=true&JigyosyoCd=3470108287-00&ServiceCd=410&Type=search", "url2": "https://www.nihonkijun.jp" }, "geometry": { "type": "Point", "coordinates": [ 132.52299788822171, 34.482338169199934 ] } },
{ "type": "Feature", "properties": { "内容": "Rentas+【特定福祉用具販売】広島県広島市安佐北区亀山3-24-17", "url": "https://www.kaigokensaku.mhlw.go.jp/34/index.php?action_kouhyou_detail_004_kani=true&JigyosyoCd=3470109301-00&ServiceCd=410&Type=search", "url2": null }, "geometry": { "type": "Point", "coordinates": [ 132.499424800000043, 34.5213523 ] } },
{ "type": "Feature", "properties": { "内容": "福祉用具サポート広島【特定福祉用具販売】広島県広島市安佐北区可部南４丁目１５番地３１1階西号室", "url": "https://www.kaigokensaku.mhlw.go.jp/34/index.php?action_kouhyou_detail_004_kani=true&JigyosyoCd=3470110549-00&ServiceCd=410&Type=search", "url2": null }, "geometry": { "type": "Point", "coordinates": [ 132.512537400000014, 34.5070293 ] } },
{ "type": "Feature", "properties": { "内容": "はたのリハビリ福祉用具貸与・販売事業所【特定福祉用具販売】広島市安芸区中野5丁目14-10", "url": "https://www.kaigokensaku.mhlw.go.jp/34/index.php?action_kouhyou_detail_004_kani=true&JigyosyoCd=3470102181-00&ServiceCd=410&Type=search", "url2": "http://hatano-group.jp/pages/98/?1764122490" }, "geometry": { "type": "Point", "coordinates": [ 132.580718508353584, 34.402395722976486 ] } },
{ "type": "Feature", "properties": { "内容": "株式会社メディカルマサモリ【特定福祉用具販売】矢野東２丁目９番５号", "url": "https://www.kaigokensaku.mhlw.go.jp/34/index.php?action_kouhyou_detail_004_kani=true&JigyosyoCd=3470101613-00&ServiceCd=410&Type=search", "url2": "https://medical-masamori.net/" }, "geometry": { "type": "Point", "coordinates": [ 132.539798600000012, 34.3605153 ] } },
{ "type": "Feature", "properties": { "内容": "アルファ福祉用具【特定福祉用具販売】広島県広島市安芸区矢野東4丁目25-43イーグル102", "url": "https://www.kaigokensaku.mhlw.go.jp/34/index.php?action_kouhyou_detail_004_kani=true&JigyosyoCd=3470110408-00&ServiceCd=410&Type=search", "url2": "https://www.00alpha-llc.jp/cont1/3.html" }, "geometry": { "type": "Point", "coordinates": [ 132.538997200000011, 34.351999 ] } },
{ "type": "Feature", "properties": { "内容": "福祉用具メニーピープル広島【特定福祉用具販売】広島県広島市佐伯区五月が丘一丁目３３番３４０１号", "url": "https://www.kaigokensaku.mhlw.go.jp/34/index.php?action_kouhyou_detail_004_kani=true&JigyosyoCd=3470215611-00&ServiceCd=410&Type=search", "url2": "https://www.manypeople.co.jp/" }, "geometry": { "type": "Point", "coordinates": [ 132.405733199999986, 34.4189572 ] } },
{ "type": "Feature", "properties": { "内容": "ウェルケア広島【特定福祉用具販売】広島市佐伯区五日市７丁目１３番２８号フォーサイトビル・五日市１０２", "url": "https://www.kaigokensaku.mhlw.go.jp/34/index.php?action_kouhyou_detail_004_kani=true&JigyosyoCd=3470203609-00&ServiceCd=410&Type=search", "url2": "https://wellcare-h.com/" }, "geometry": { "type": "Point", "coordinates": [ 132.358046649073799, 34.372676445471924 ] } },
{ "type": "Feature", "properties": { "内容": "ほがらか福祉用具【特定福祉用具販売】広島市佐伯区五日市7丁目14-10", "url": "https://www.kaigokensaku.mhlw.go.jp/34/index.php?action_kouhyou_detail_004_kani=true&JigyosyoCd=3470215181-00&ServiceCd=410&Type=search", "url2": "https://www.xn--u8jb4l6b.com/" }, "geometry": { "type": "Point", "coordinates": [ 132.360538893254102, 34.375223074136457 ] } },
{ "type": "Feature", "properties": { "内容": "福祉用具貸与事業所キララ【特定福祉用具販売】広島県広島市佐伯区五日市駅駅前1-11-5", "url": "https://www.kaigokensaku.mhlw.go.jp/34/index.php?action_kouhyou_detail_004_kani=true&JigyosyoCd=3470211404-00&ServiceCd=410&Type=search", "url2": "http://www.nexus-g.jp" }, "geometry": { "type": "Point", "coordinates": [ 132.3355641, 34.3578175 ] } },
{ "type": "Feature", "properties": { "内容": "みどり薬局【特定福祉用具販売】広島県呉市倉橋町7382-2", "url": "https://www.kaigokensaku.mhlw.go.jp/34/index.php?action_kouhyou_detail_004_kani=true&JigyosyoCd=3470502265-00&ServiceCd=410&Type=search", "url2": null }, "geometry": { "type": "Point", "coordinates": [ 132.50985510000001, 34.1444427 ] } },
{ "type": "Feature", "properties": { "内容": "有限会社　石丸商会【特定福祉用具販売】呉市中央6-6-1", "url": "https://www.kaigokensaku.mhlw.go.jp/34/index.php?action_kouhyou_detail_004_kani=true&JigyosyoCd=3470500590-00&ServiceCd=410&Type=search", "url2": null }, "geometry": { "type": "Point", "coordinates": [ 132.5683875, 34.2514058 ] } },
{ "type": "Feature", "properties": { "内容": "日本基準寝具株式会社　呉営業所【特定福祉用具販売】広島県呉市広古新開一丁目2番37号", "url": "https://www.kaigokensaku.mhlw.go.jp/34/index.php?action_kouhyou_detail_004_kani=true&JigyosyoCd=3470503362-00&ServiceCd=410&Type=search", "url2": "https://www.nihonkijun.jp" }, "geometry": { "type": "Point", "coordinates": [ 132.616417599999977, 34.2321683 ] } },
{ "type": "Feature", "properties": { "内容": "深川医療器株式会社ライフケア呉【特定福祉用具販売】広島県呉市築地町5-3", "url": "https://www.kaigokensaku.mhlw.go.jp/34/index.php?action_kouhyou_detail_004_kani=true&JigyosyoCd=3470500632-00&ServiceCd=410&Type=search", "url2": "http://www.mc-fukagawa.co.jp/" }, "geometry": { "type": "Point", "coordinates": [ 132.545931465237629, 34.242390295982005 ] } },
{ "type": "Feature", "properties": { "内容": "ケムコ商事株式会社福祉事業部【特定福祉用具販売】広島県呉市広大新開１丁目２番６号", "url": "https://www.kaigokensaku.mhlw.go.jp/34/index.php?action_kouhyou_detail_004_kani=true&JigyosyoCd=3470501127-00&ServiceCd=410&Type=search", "url2": "http://www.kemco-shoji.co.jp/" }, "geometry": { "type": "Point", "coordinates": [ 132.6240421, 34.2308657 ] } },
{ "type": "Feature", "properties": { "内容": "株式会社　BANDS　特定福祉用具販売事業所【特定福祉用具販売】呉市阿賀中央五丁目８番２５号", "url": "https://www.kaigokensaku.mhlw.go.jp/34/index.php?action_kouhyou_detail_004_kani=true&JigyosyoCd=3470502257-00&ServiceCd=410&Type=search", "url2": "http://k-k-bands.jp" }, "geometry": { "type": "Point", "coordinates": [ 132.602590599999985, 34.2356873 ] } },
{ "type": "Feature", "properties": { "内容": "福祉のお店　ふわり【特定福祉用具販売】広島県呉市焼山桜ケ丘1丁目11-12", "url": "https://www.kaigokensaku.mhlw.go.jp/34/index.php?action_kouhyou_detail_004_kani=true&JigyosyoCd=3470502984-00&ServiceCd=410&Type=search", "url2": null }, "geometry": { "type": "Point", "coordinates": [ 132.5542161, 34.2847728 ] } },
{ "type": "Feature", "properties": { "内容": "株式会社フルケア　呉営業所【特定福祉用具販売】広島県呉市東片山町1－22", "url": "https://www.kaigokensaku.mhlw.go.jp/34/index.php?action_kouhyou_detail_004_kani=true&JigyosyoCd=3470503081-00&ServiceCd=410&Type=search", "url2": "http://ｗｗｗ.full-care.jp" }, "geometry": { "type": "Point", "coordinates": [ 132.566713866359947, 34.252761417484905 ] } },
{ "type": "Feature", "properties": { "内容": "マリンの介護用品【特定福祉用具販売】広古新開１丁目３番１３号", "url": "https://www.kaigokensaku.mhlw.go.jp/34/index.php?action_kouhyou_detail_004_kani=true&JigyosyoCd=3470504022-00&ServiceCd=410&Type=search", "url2": "https://kaigo.marine-yakkyoku.co.jp/" }, "geometry": { "type": "Point", "coordinates": [ 132.616893800000014, 34.2330152 ] } },
{ "type": "Feature", "properties": { "内容": "アルファ薬局【特定福祉用具販売】竹原市下野町1771番地1", "url": "https://www.kaigokensaku.mhlw.go.jp/34/index.php?action_kouhyou_detail_004_kani=true&JigyosyoCd=3470700091-00&ServiceCd=410&Type=search", "url2": "https://alpha-pharmacy-takehara.webnode.jp/%e4%bb%8b%e8%ad%b7%e7%94%a8%e5%93%81/" }, "geometry": { "type": "Point", "coordinates": [ 132.890002, 34.333798199999983 ] } },
{ "type": "Feature", "properties": { "内容": "有限会社池田富士商店特定福祉用具販売事業所【特定福祉用具販売】広島県三原市久井町羽倉1631番地", "url": "https://www.kaigokensaku.mhlw.go.jp/34/index.php?action_kouhyou_detail_004_kani=true&JigyosyoCd=3470900857-00&ServiceCd=410&Type=search", "url2": null }, "geometry": { "type": "Point", "coordinates": [ 133.0132267, 34.5026142 ] } },
{ "type": "Feature", "properties": { "内容": "ときわ薬局福祉用具サービス【特定福祉用具販売】広島県三原市港町1-2-27", "url": "https://www.kaigokensaku.mhlw.go.jp/34/index.php?action_kouhyou_detail_004_kani=true&JigyosyoCd=3470901350-00&ServiceCd=410&Type=search", "url2": "http://www.tokiwa-pharmacy.com" }, "geometry": { "type": "Point", "coordinates": [ 133.081423300000012, 34.4000978 ] } },
{ "type": "Feature", "properties": { "内容": "きぼう福祉用具【特定福祉用具販売】三原市明神3-16-16", "url": "https://www.kaigokensaku.mhlw.go.jp/34/index.php?action_kouhyou_detail_004_kani=true&JigyosyoCd=3470900840-00&ServiceCd=410&Type=search", "url2": "http://mihara-nozomi.jp/" }, "geometry": { "type": "Point", "coordinates": [ 133.053001055017148, 34.386954418452163 ] } },
{ "type": "Feature", "properties": { "内容": "caredesignみはら【特定福祉用具販売】広島県三原市和田三丁目３番１号caredesignみはら", "url": "https://www.kaigokensaku.mhlw.go.jp/34/index.php?action_kouhyou_detail_004_kani=true&JigyosyoCd=3470901822-00&ServiceCd=410&Type=search", "url2": "https://care-design.jp/" }, "geometry": { "type": "Point", "coordinates": [ 133.069287304012306, 34.38549654088213 ] } },
{ "type": "Feature", "properties": { "内容": "シンエイライフサポート【特定福祉用具販売】三原市宮浦五丁目12-8", "url": "https://www.kaigokensaku.mhlw.go.jp/34/index.php?action_kouhyou_detail_004_kani=true&JigyosyoCd=3470900592-00&ServiceCd=410&Type=search", "url2": "https://s-life-s.jimdo.com/" }, "geometry": { "type": "Point", "coordinates": [ 133.059567199999947, 34.3963776 ] } },
{ "type": "Feature", "properties": { "内容": "株式会社住創介護支援事業部【特定福祉用具販売】三原市港町一丁目４番２３号", "url": "https://www.kaigokensaku.mhlw.go.jp/34/index.php?action_kouhyou_detail_004_kani=true&JigyosyoCd=3470900667-00&ServiceCd=410&Type=search", "url2": null }, "geometry": { "type": "Point", "coordinates": [ 133.081546300000014, 34.3989164 ] } },
{ "type": "Feature", "properties": { "内容": "三原福祉サービス株式会社【特定福祉用具販売】三原市中之町２丁目８番１５号", "url": "https://www.kaigokensaku.mhlw.go.jp/34/index.php?action_kouhyou_detail_004_kani=true&JigyosyoCd=3470900832-00&ServiceCd=410&Type=search", "url2": "http://miharafukushi.com/" }, "geometry": { "type": "Point", "coordinates": [ 133.097604896308894, 34.409804025561286 ] } },
{ "type": "Feature", "properties": { "内容": "すまいる　ふぁみりぃ【特定福祉用具販売】広島県尾道市平原三丁目1-15", "url": "https://www.kaigokensaku.mhlw.go.jp/34/index.php?action_kouhyou_detail_004_kani=true&JigyosyoCd=3471101109-00&ServiceCd=410&Type=search", "url2": "http://www.tots.jp/" }, "geometry": { "type": "Point", "coordinates": [ 133.178556699999945, 34.4135356 ] } },
{ "type": "Feature", "properties": { "内容": "有限会社ひまわりライフケアサポート　特定福祉用具販売事業所【特定福祉用具販売】尾道市久保2丁目15-17", "url": "https://www.kaigokensaku.mhlw.go.jp/34/index.php?action_kouhyou_detail_004_kani=true&JigyosyoCd=3471101471-00&ServiceCd=410&Type=search", "url2": "http://www.himawari-gr.com" }, "geometry": { "type": "Point", "coordinates": [ 133.206738399999949, 34.4108199 ] } },
{ "type": "Feature", "properties": { "内容": "新生福祉会リンク【特定福祉用具販売】広島県尾道市瀬戸田町中野414番地1", "url": "https://www.kaigokensaku.mhlw.go.jp/34/index.php?action_kouhyou_detail_004_kani=true&JigyosyoCd=3471102586-00&ServiceCd=410&Type=search", "url2": "https://www.rakusei.or.jp" }, "geometry": { "type": "Point", "coordinates": [ 133.0968782, 34.3032015 ] } },
{ "type": "Feature", "properties": { "内容": "株式会社ライフケア尾道営業所【特定福祉用具販売】広島県尾道市西御所町8ｰ7", "url": "https://www.kaigokensaku.mhlw.go.jp/34/index.php?action_kouhyou_detail_004_kani=true&JigyosyoCd=3471102685-00&ServiceCd=410&Type=search", "url2": "https://lifecare-ok.co.jp" }, "geometry": { "type": "Point", "coordinates": [ 133.1892159, 34.4033163 ] } },
{ "type": "Feature", "properties": { "内容": "因の島ガス特定福祉用具販売事業所【特定福祉用具販売】尾道市土生町１８０９－３５番地", "url": "https://www.kaigokensaku.mhlw.go.jp/34/index.php?action_kouhyou_detail_004_kani=true&JigyosyoCd=3471101448-00&ServiceCd=410&Type=search", "url2": "https://www.innoshima-gas.co.jp/" }, "geometry": { "type": "Point", "coordinates": [ 133.176827600000024, 34.2865244 ] } },
{ "type": "Feature", "properties": { "内容": "三藤医療器(株)特定福祉用具販売事業所【特定福祉用具販売】広島県尾道市山波町311", "url": "https://www.kaigokensaku.mhlw.go.jp/34/index.php?action_kouhyou_detail_004_kani=true&JigyosyoCd=3471101414-00&ServiceCd=410&Type=search", "url2": null }, "geometry": { "type": "Point", "coordinates": [ 133.227760900000021, 34.425232600000015 ] } },
{ "type": "Feature", "properties": { "内容": "有限会社　倉下商店【特定福祉用具販売】広島県尾道市因島土生町1902の3", "url": "https://www.kaigokensaku.mhlw.go.jp/34/index.php?action_kouhyou_detail_004_kani=true&JigyosyoCd=3471300156-00&ServiceCd=410&Type=search", "url2": "https://kurashita.jp/kaigo/" }, "geometry": { "type": "Point", "coordinates": [ 133.1787333, 34.2856081 ] } },
{ "type": "Feature", "properties": { "内容": "深川医療器株式会社ライフケア尾道【特定福祉用具販売】尾道市栗原町9427番3", "url": "https://www.kaigokensaku.mhlw.go.jp/34/index.php?action_kouhyou_detail_004_kani=true&JigyosyoCd=3471102800-00&ServiceCd=410&Type=search", "url2": "https://www.mc-fukagawa.co.jp/" }, "geometry": { "type": "Point", "coordinates": [ 133.189528, 34.4303516 ] } },
{ "type": "Feature", "properties": { "内容": "caredesignおのみち【特定福祉用具販売】広島県尾道市高須町5072-1", "url": "https://www.kaigokensaku.mhlw.go.jp/34/index.php?action_kouhyou_detail_004_kani=true&JigyosyoCd=3471102826-00&ServiceCd=410&Type=search", "url2": "https://care-design.jp/" }, "geometry": { "type": "Point", "coordinates": [ 133.227548, 34.4337986 ] } },
{ "type": "Feature", "properties": { "内容": "ケアネットワーク【特定福祉用具販売】広島県福山市新市町戸手102-1", "url": "https://www.kaigokensaku.mhlw.go.jp/34/index.php?action_kouhyou_detail_004_kani=true&JigyosyoCd=3471507693-00&ServiceCd=410&Type=search", "url2": "http://k-yuyu/com/" }, "geometry": { "type": "Point", "coordinates": [ 133.282646991401663, 34.547783765806074 ] } },
{ "type": "Feature", "properties": { "内容": "株式会社サン・メディカル新涯店【特定福祉用具販売】福山市新涯町一丁目17-1", "url": "https://www.kaigokensaku.mhlw.go.jp/34/index.php?action_kouhyou_detail_004_kani=true&JigyosyoCd=3471500508-00&ServiceCd=410&Type=search", "url2": "http://www.sanmedhikaru.jp" }, "geometry": { "type": "Point", "coordinates": [ 133.392177800000013, 34.4657832 ] } },
{ "type": "Feature", "properties": { "内容": "こすもすめ～る　福山千田店【特定福祉用具販売】福山市千田町薮路924-2", "url": "https://www.kaigokensaku.mhlw.go.jp/34/index.php?action_kouhyou_detail_004_kani=true&JigyosyoCd=3471502850-00&ServiceCd=410&Type=search", "url2": "https://www.elder-support.com/" }, "geometry": { "type": "Point", "coordinates": [ 133.364920200000029, 34.5090777 ] } },
{ "type": "Feature", "properties": { "内容": "あいるらいふ　特定福祉販売事業所【特定福祉用具販売】福山市御門町２丁目４番３１号", "url": "https://www.kaigokensaku.mhlw.go.jp/34/index.php?action_kouhyou_detail_004_kani=true&JigyosyoCd=3471504948-00&ServiceCd=410&Type=search", "url2": null }, "geometry": { "type": "Point", "coordinates": [ 133.3693792, 34.4793951 ] } },
{ "type": "Feature", "properties": { "内容": "株式会社アイコーメディカル介護福祉事業部【特定福祉用具販売】広島県福山市神辺町西中条1168-1", "url": "https://www.kaigokensaku.mhlw.go.jp/34/index.php?action_kouhyou_detail_004_kani=true&JigyosyoCd=3474400144-00&ServiceCd=410&Type=search", "url2": null }, "geometry": { "type": "Point", "coordinates": [ 133.3771149, 34.5651096 ] } },
{ "type": "Feature", "properties": { "内容": "ケアサポートここから【特定福祉用具販売】広島県福山市南手城町3丁目4-30有限会社タムズ", "url": "https://www.kaigokensaku.mhlw.go.jp/34/index.php?action_kouhyou_detail_004_kani=true&JigyosyoCd=3471510069-00&ServiceCd=410&Type=search", "url2": "http://tamuzu.jp/" }, "geometry": { "type": "Point", "coordinates": [ 133.393901400000033, 34.4833499 ] } },
{ "type": "Feature", "properties": { "内容": "ケアショップCanbe⁺【特定福祉用具販売】広島県福山市法成寺114番地8", "url": "https://www.kaigokensaku.mhlw.go.jp/34/index.php?action_kouhyou_detail_004_kani=true&JigyosyoCd=3471507263-00&ServiceCd=410&Type=search", "url2": "http://ekiya-sakura.jp/hope/" }, "geometry": { "type": "Point", "coordinates": [ 133.326292200000012, 34.5544797 ] } },
{ "type": "Feature", "properties": { "内容": "こすもすめ～る福山曙店【特定福祉用具販売】福山市曙町1丁目11番31号", "url": "https://www.kaigokensaku.mhlw.go.jp/34/index.php?action_kouhyou_detail_004_kani=true&JigyosyoCd=3471500896-00&ServiceCd=410&Type=search", "url2": null }, "geometry": { "type": "Point", "coordinates": [ 133.397952799999985, 34.4747894 ] } },
{ "type": "Feature", "properties": { "内容": "朝日ナショナル福祉用具販売事業所【特定福祉用具販売】広島県福山市卸町2番11号", "url": "https://www.kaigokensaku.mhlw.go.jp/34/index.php?action_kouhyou_detail_004_kani=true&JigyosyoCd=3471505267-00&ServiceCd=410&Type=search", "url2": "https://www.asahi-national.co.jp" }, "geometry": { "type": "Point", "coordinates": [ 133.400186600000012, 34.4634772 ] } },
{ "type": "Feature", "properties": { "内容": "日本基準寝具株式会社　福山営業所【特定福祉用具販売】福山市新涯町6丁目2-30", "url": "https://www.kaigokensaku.mhlw.go.jp/34/index.php?action_kouhyou_detail_004_kani=true&JigyosyoCd=3471502132-00&ServiceCd=410&Type=search", "url2": "https://www.nihonkijun.jp" }, "geometry": { "type": "Point", "coordinates": [ 133.394223, 34.4557776 ] } },
{ "type": "Feature", "properties": { "内容": "株式会社　アリスジャパン【特定福祉用具販売】福山市港町1丁目1番14号", "url": "https://www.kaigokensaku.mhlw.go.jp/34/index.php?action_kouhyou_detail_004_kani=true&JigyosyoCd=3471500532-00&ServiceCd=410&Type=search", "url2": "http://www.alice-japan.co.jp/" }, "geometry": { "type": "Point", "coordinates": [ 133.380128499999955, 34.4864159 ] } },
{ "type": "Feature", "properties": { "内容": "株式会社ライフケア　福山支店【特定福祉用具販売】福山市引野町5-28-9", "url": "https://www.kaigokensaku.mhlw.go.jp/34/index.php?action_kouhyou_detail_004_kani=true&JigyosyoCd=3471502538-00&ServiceCd=410&Type=search", "url2": "http://lifecare-ok.co.jp" }, "geometry": { "type": "Point", "coordinates": [ 133.405476099999987, 34.4918934 ] } },
{ "type": "Feature", "properties": { "内容": "指定特定福祉用具販売グッドライフ【特定福祉用具販売】広島県福山市今町3番10号", "url": "https://www.kaigokensaku.mhlw.go.jp/34/index.php?action_kouhyou_detail_004_kani=true&JigyosyoCd=3471509723-00&ServiceCd=410&Type=search", "url2": "https://goodlifehospital.jp/" }, "geometry": { "type": "Point", "coordinates": [ 133.368170600000013, 34.490045 ] } },
{ "type": "Feature", "properties": { "内容": "ｃａｒｅ　ｄｅｓｉｇｎ　ケア　デザイン【特定福祉用具販売】福山市東深津町一丁目11-39", "url": "https://www.kaigokensaku.mhlw.go.jp/34/index.php?action_kouhyou_detail_004_kani=true&JigyosyoCd=3471500706-00&ServiceCd=410&Type=search", "url2": "http://www.care-design.jp/" }, "geometry": { "type": "Point", "coordinates": [ 133.39089690000003, 34.50065750000001 ] } },
{ "type": "Feature", "properties": { "内容": "深川医療器株式会社　ライフケア福山【特定福祉用具販売】福山市引野町5-22-11", "url": "https://www.kaigokensaku.mhlw.go.jp/34/index.php?action_kouhyou_detail_004_kani=true&JigyosyoCd=3471504955-00&ServiceCd=410&Type=search", "url2": "http://www.mc-fukagawa.co.jp/" }, "geometry": { "type": "Point", "coordinates": [ 133.402234799999974, 34.4914601 ] } },
{ "type": "Feature", "properties": { "内容": "中央リハビリサービス神辺店【特定福祉用具販売】広島県福山市神辺町新湯野3-46-4", "url": "https://www.kaigokensaku.mhlw.go.jp/34/index.php?action_kouhyou_detail_004_kani=true&JigyosyoCd=3471509806-00&ServiceCd=410&Type=search", "url2": "http://www.churiha.com" }, "geometry": { "type": "Point", "coordinates": [ 133.388753813173139, 34.554018951419167 ] } },
{ "type": "Feature", "properties": { "内容": "はるかぜ【特定福祉用具販売】福山市木之庄町三丁目3番15号", "url": "https://www.kaigokensaku.mhlw.go.jp/34/index.php?action_kouhyou_detail_004_kani=true&JigyosyoCd=3471500136-00&ServiceCd=410&Type=search", "url2": "http://www.harukaze.jp/" }, "geometry": { "type": "Point", "coordinates": [ 133.35461829999997, 34.4967594 ] } },
{ "type": "Feature", "properties": { "内容": "アスポート【特定福祉用具販売】福山市引野町南1丁目18番25号", "url": "https://www.kaigokensaku.mhlw.go.jp/34/index.php?action_kouhyou_detail_004_kani=true&JigyosyoCd=3471500771-00&ServiceCd=410&Type=search", "url2": "https://www.asuport.com" }, "geometry": { "type": "Point", "coordinates": [ 133.419230361773685, 34.48994175827216 ] } },
{ "type": "Feature", "properties": { "内容": "ダスキンヘルスレント福山ステーション【特定福祉用具販売】福山市南蔵王町3丁目17-46", "url": "https://www.kaigokensaku.mhlw.go.jp/34/index.php?action_kouhyou_detail_004_kani=true&JigyosyoCd=3471502298-00&ServiceCd=410&Type=search", "url2": "http://healthrent.duskin.jp/" }, "geometry": { "type": "Point", "coordinates": [ 133.395087699999976, 34.5021812 ] } },
{ "type": "Feature", "properties": { "内容": "株式会社フルケア　福山営業所【特定福祉用具販売】広島県福山市春日町１丁目２－１８Ｔ・ＹＭＯＴＯＹＡ２０２号室", "url": "https://www.kaigokensaku.mhlw.go.jp/34/index.php?action_kouhyou_detail_004_kani=true&JigyosyoCd=3471504070-00&ServiceCd=410&Type=search", "url2": "http://www.full-care.jp/" }, "geometry": { "type": "Point", "coordinates": [ 133.407192380998907, 34.506445842743517 ] } },
{ "type": "Feature", "properties": { "内容": "株式会社フロンティア福山営業所【特定福祉用具販売】広島県福山市大門町一丁目37番26号", "url": "https://www.kaigokensaku.mhlw.go.jp/34/index.php?action_kouhyou_detail_004_kani=true&JigyosyoCd=3471509814-00&ServiceCd=410&Type=search", "url2": "https://www.frontier-ph.com/" }, "geometry": { "type": "Point", "coordinates": [ 133.4400062, 34.4967124 ] } },
{ "type": "Feature", "properties": { "内容": "有限会社　福山リハビリサービス【特定福祉用具販売】福山市山手町四丁目１８－２５", "url": "https://www.kaigokensaku.mhlw.go.jp/34/index.php?action_kouhyou_detail_004_kani=true&JigyosyoCd=3471500516-00&ServiceCd=410&Type=search", "url2": null }, "geometry": { "type": "Point", "coordinates": [ 133.3330168, 34.4966784 ] } },
{ "type": "Feature", "properties": { "内容": "イコー福祉用具貸与事業部【特定福祉用具販売】広島県福山市津之郷町加屋293-12", "url": "https://www.kaigokensaku.mhlw.go.jp/34/index.php?action_kouhyou_detail_004_kani=true&JigyosyoCd=3471503254-00&ServiceCd=410&Type=search", "url2": null }, "geometry": { "type": "Point", "coordinates": [ 133.310808299999962, 34.4765386 ] } },
{ "type": "Feature", "properties": { "内容": "こすもすめ～る福山蔵王店【特定福祉用具販売】福山市南蔵王町二丁目1-34", "url": "https://www.kaigokensaku.mhlw.go.jp/34/index.php?action_kouhyou_detail_004_kani=true&JigyosyoCd=3471505648-00&ServiceCd=410&Type=search", "url2": "http://www.mnc-mcc.jp/index3" }, "geometry": { "type": "Point", "coordinates": [ 133.391584099999989, 34.5020383 ] } },
{ "type": "Feature", "properties": { "内容": "株式会社福山Three　door【特定福祉用具販売】駅家町近田461番地", "url": "https://www.kaigokensaku.mhlw.go.jp/34/index.php?action_kouhyou_detail_004_kani=true&JigyosyoCd=3471510531-00&ServiceCd=410&Type=search", "url2": null }, "geometry": { "type": "Point", "coordinates": [ 133.3143896, 34.5421904 ] } },
{ "type": "Feature", "properties": { "内容": "福祉スタジオ福山営業所【特定福祉用具販売】広島県福山市住吉町7-21ネクスト住吉ビル318号", "url": "https://www.kaigokensaku.mhlw.go.jp/34/index.php?action_kouhyou_detail_004_kani=true&JigyosyoCd=3471510804-00&ServiceCd=410&Type=search", "url2": "http://www.fukushi-studio.com" }, "geometry": { "type": "Point", "coordinates": [ 133.370424599999978, 34.484540500000016 ] } },
{ "type": "Feature", "properties": { "内容": "ジョブシステム株式会社　介護サービス事業部【特定福祉用具販売】広島県福山市新涯町１丁目20-5", "url": "https://www.kaigokensaku.mhlw.go.jp/34/index.php?action_kouhyou_detail_004_kani=true&JigyosyoCd=3471510812-00&ServiceCd=410&Type=search", "url2": "https://jobsystem2009.com/" }, "geometry": { "type": "Point", "coordinates": [ 133.393441200000012, 34.4646281 ] } },
{ "type": "Feature", "properties": { "内容": "府中家具会館ケアサポート【特定福祉用具販売】広島県府中市中須町919番地2", "url": "https://www.kaigokensaku.mhlw.go.jp/34/index.php?action_kouhyou_detail_004_kani=true&JigyosyoCd=3471700835-00&ServiceCd=410&Type=search", "url2": null }, "geometry": { "type": "Point", "coordinates": [ 133.259289606745881, 34.560145142130771 ] } },
{ "type": "Feature", "properties": { "内容": "有限会社　中央リハビリサービス　府中店【特定福祉用具販売】府中市鵜飼町字清水48番", "url": "https://www.kaigokensaku.mhlw.go.jp/34/index.php?action_kouhyou_detail_004_kani=true&JigyosyoCd=3471700553-00&ServiceCd=410&Type=search", "url2": "http://www.churiha.com" }, "geometry": { "type": "Point", "coordinates": [ 133.246653299999906, 34.5672785 ] } },
{ "type": "Feature", "properties": { "内容": "有限会社中央リハビリサービス【特定福祉用具販売】広島県府中市上下町上下2054番地の9", "url": "https://www.kaigokensaku.mhlw.go.jp/34/index.php?action_kouhyou_detail_004_kani=true&JigyosyoCd=3474700097-00&ServiceCd=410&Type=search", "url2": "https://www.churiha.com" }, "geometry": { "type": "Point", "coordinates": [ 133.123260100000039, 34.6958956 ] } },
{ "type": "Feature", "properties": { "内容": "土井木工福祉プラザ【特定福祉用具販売】府中市府川町172", "url": "https://www.kaigokensaku.mhlw.go.jp/34/index.php?action_kouhyou_detail_004_kani=true&JigyosyoCd=3471700611-00&ServiceCd=410&Type=search", "url2": "https://fukushiplaza.com/fks/" }, "geometry": { "type": "Point", "coordinates": [ 133.23780940000006, 34.5690244 ] } },
{ "type": "Feature", "properties": { "内容": "ケアショップしんわホーム【特定福祉用具販売】広島県三次市十日市南1丁目5番30号", "url": "https://www.kaigokensaku.mhlw.go.jp/34/index.php?action_kouhyou_detail_004_kani=true&JigyosyoCd=3471901003-00&ServiceCd=410&Type=search", "url2": "http://www.otsu-co.jp" }, "geometry": { "type": "Point", "coordinates": [ 132.859102348362143, 34.803448439275584 ] } },
{ "type": "Feature", "properties": { "内容": "プロテア【特定福祉用具販売】広島県三次市十日市西6丁目9-17", "url": "https://www.kaigokensaku.mhlw.go.jp/34/index.php?action_kouhyou_detail_004_kani=true&JigyosyoCd=3471900260-00&ServiceCd=410&Type=search", "url2": null }, "geometry": { "type": "Point", "coordinates": [ 132.842408200000023, 34.8030377 ] } },
{ "type": "Feature", "properties": { "内容": "ケアサービスぶどう【特定福祉用具販売】広島県三次市西酒屋町871-5", "url": "https://www.kaigokensaku.mhlw.go.jp/34/index.php?action_kouhyou_detail_004_kani=true&JigyosyoCd=3471900443-00&ServiceCd=410&Type=search", "url2": "http://www.nogata-medical.com/" }, "geometry": { "type": "Point", "coordinates": [ 132.883079813041718, 34.81046633468749 ] } },
{ "type": "Feature", "properties": { "内容": "有限会社岡田タンス店福祉部【特定福祉用具販売】三次市三良坂町三良坂９５８－４", "url": "https://www.kaigokensaku.mhlw.go.jp/34/index.php?action_kouhyou_detail_004_kani=true&JigyosyoCd=3471900914-00&ServiceCd=410&Type=search", "url2": null }, "geometry": { "type": "Point", "coordinates": [ 132.958266399999957, 34.7654084 ] } },
{ "type": "Feature", "properties": { "内容": "ユアエイト【特定福祉用具販売】広島県三次市布野町上布野2125-3", "url": "https://www.kaigokensaku.mhlw.go.jp/34/index.php?action_kouhyou_detail_004_kani=true&JigyosyoCd=3471901235-00&ServiceCd=410&Type=search", "url2": "https://www.red8.jp" }, "geometry": { "type": "Point", "coordinates": [ 132.786064799999963, 34.875331600000017 ] } },
{ "type": "Feature", "properties": { "内容": "ふぁみりぃケアサービス三次【特定福祉用具販売】広島県三次市三良坂町灰塚24-8", "url": "https://www.kaigokensaku.mhlw.go.jp/34/index.php?action_kouhyou_detail_004_kani=true&JigyosyoCd=3471901300-00&ServiceCd=410&Type=search", "url2": "http://realworth-fcs.com" }, "geometry": { "type": "Point", "coordinates": [ 132.995439400000038, 34.758778600000014 ] } },
{ "type": "Feature", "properties": { "内容": "有限会社越智タンス店【特定福祉用具販売】広島県庄原市東城町東城245", "url": "https://www.kaigokensaku.mhlw.go.jp/34/index.php?action_kouhyou_detail_004_kani=true&JigyosyoCd=3474900424-00&ServiceCd=410&Type=search", "url2": null }, "geometry": { "type": "Point", "coordinates": [ 133.2723594, 34.8978409 ] } },
{ "type": "Feature", "properties": { "内容": "ふぁみりぃケアサービス【特定福祉用具販売】庄原市平和町５２５", "url": "https://www.kaigokensaku.mhlw.go.jp/34/index.php?action_kouhyou_detail_004_kani=true&JigyosyoCd=3472100308-00&ServiceCd=410&Type=search", "url2": null }, "geometry": { "type": "Point", "coordinates": [ 132.937953399999969, 34.8283444 ] } },
{ "type": "Feature", "properties": { "内容": "株式会社ふじハートサービス【特定福祉用具販売】庄原市板橋町95番地2", "url": "https://www.kaigokensaku.mhlw.go.jp/34/index.php?action_kouhyou_detail_004_kani=true&JigyosyoCd=3472100084-00&ServiceCd=410&Type=search", "url2": "http://www.fujiheart.com" }, "geometry": { "type": "Point", "coordinates": [ 133.015402799999947, 34.8518989 ] } },
{ "type": "Feature", "properties": { "内容": "竹の子の里福祉用具プラザおおたけ【特定福祉用具販売】大竹市新町1-7-2小田光新町ヒルズ　内", "url": "https://www.kaigokensaku.mhlw.go.jp/34/index.php?action_kouhyou_detail_004_kani=true&JigyosyoCd=3472300106-00&ServiceCd=410&Type=search", "url2": "http://www.takenokonosato.com/" }, "geometry": { "type": "Point", "coordinates": [ 132.22207471415561, 34.215828582566047 ] } },
{ "type": "Feature", "properties": { "内容": "ダスキンヘルスレント東広島ステーション【特定福祉用具販売】東広島市高屋町檜山458番6", "url": "https://www.kaigokensaku.mhlw.go.jp/34/index.php?action_kouhyou_detail_004_kani=true&JigyosyoCd=3472502412-00&ServiceCd=410&Type=search", "url2": "http://healthrent.duskin.jp/" }, "geometry": { "type": "Point", "coordinates": [ 132.7690596, 34.4414175 ] } },
{ "type": "Feature", "properties": { "内容": "有限会社　ライフ・フィット【特定福祉用具販売】広島県東広島市八本松南2丁目18-6", "url": "https://www.kaigokensaku.mhlw.go.jp/34/index.php?action_kouhyou_detail_004_kani=true&JigyosyoCd=3472501612-00&ServiceCd=410&Type=search", "url2": null }, "geometry": { "type": "Point", "coordinates": [ 132.6962969, 34.4399698 ] } },
{ "type": "Feature", "properties": { "内容": "ケムコ商事株式会社　東広島営業所【特定福祉用具販売】広島県東広島市黒瀬町丸山1425", "url": "https://www.kaigokensaku.mhlw.go.jp/34/index.php?action_kouhyou_detail_004_kani=true&JigyosyoCd=3472502966-00&ServiceCd=410&Type=search", "url2": "http://www.kemco-shoji.co.jp/" }, "geometry": { "type": "Point", "coordinates": [ 132.674755199999936, 34.3241124 ] } },
{ "type": "Feature", "properties": { "内容": "クォリティー福祉用具貸与事業所【特定福祉用具販売】広島県東広島市安芸津町風早1195番地の27", "url": "https://www.kaigokensaku.mhlw.go.jp/34/index.php?action_kouhyou_detail_004_kani=true&JigyosyoCd=3474000118-00&ServiceCd=410&Type=search", "url2": null }, "geometry": { "type": "Point", "coordinates": [ 132.796080500000016, 34.3113444 ] } },
{ "type": "Feature", "properties": { "内容": "げんき堂東広島【特定福祉用具販売】広島県東広島市八本松西5丁目６番13号西川ビル101", "url": "https://www.kaigokensaku.mhlw.go.jp/34/index.php?action_kouhyou_detail_004_kani=true&JigyosyoCd=3472503311-00&ServiceCd=410&Type=search", "url2": "https://www.ths-higashihiroshima.com/" }, "geometry": { "type": "Point", "coordinates": [ 132.6767326, 34.4457518 ] } },
{ "type": "Feature", "properties": { "内容": "福祉スタジオ東広島営業所【特定福祉用具販売】東広島市西条町田口3472-1サンヒルズK3　102", "url": "https://www.kaigokensaku.mhlw.go.jp/34/index.php?action_kouhyou_detail_004_kani=true&JigyosyoCd=3472503352-00&ServiceCd=410&Type=search", "url2": null }, "geometry": { "type": "Point", "coordinates": [ 132.736034600000011, 34.3838054 ] } },
{ "type": "Feature", "properties": { "内容": "ＫＡＩＧＯＡＬＬ福祉用具事業所【特定福祉用具販売】広島県廿日市市平良２丁目８－１３－１", "url": "https://www.kaigokensaku.mhlw.go.jp/34/index.php?action_kouhyou_detail_004_kani=true&JigyosyoCd=3472701998-00&ServiceCd=410&Type=search", "url2": "https://momijicare.co.jp/" }, "geometry": { "type": "Point", "coordinates": [ 132.3261598, 34.3544457 ] } },
{ "type": "Feature", "properties": { "内容": "ウェルケア廿日市【特定福祉用具販売】広島県廿日市市宮内二丁目１番９号松村ビル", "url": "https://www.kaigokensaku.mhlw.go.jp/34/index.php?action_kouhyou_detail_004_kani=true&JigyosyoCd=3472700677-00&ServiceCd=410&Type=search", "url2": "https://wellcare-h.com/" }, "geometry": { "type": "Point", "coordinates": [ 132.317557443929928, 34.349471152360117 ] } },
{ "type": "Feature", "properties": { "内容": "日本基準寝具株式会社　広島西営業所【特定福祉用具販売】広島県廿日市市木材港北6番78号", "url": "https://www.kaigokensaku.mhlw.go.jp/34/index.php?action_kouhyou_detail_004_kani=true&JigyosyoCd=3472701790-00&ServiceCd=410&Type=search", "url2": "https://www.nihonkijun.jp" }, "geometry": { "type": "Point", "coordinates": [ 132.342879465733176, 34.350017153423515 ] } },
{ "type": "Feature", "properties": { "内容": "ケアショップひまわり【特定福祉用具販売】廿日市市宮内字高通4347番地2", "url": "https://www.kaigokensaku.mhlw.go.jp/34/index.php?action_kouhyou_detail_004_kani=true&JigyosyoCd=3472700438-00&ServiceCd=410&Type=search", "url2": "http://www.miyauchi.or.jp/medical/index.html" }, "geometry": { "type": "Point", "coordinates": [ 132.302795400000036, 34.3426203 ] } },
{ "type": "Feature", "properties": { "内容": "竹の子の里福祉用具プラザはつかいち【特定福祉用具販売】広島県廿日市市地御前１－２－２０", "url": "https://www.kaigokensaku.mhlw.go.jp/34/index.php?action_kouhyou_detail_004_kani=true&JigyosyoCd=3472701659-00&ServiceCd=410&Type=search", "url2": "http://www.takenokonosato.com/" }, "geometry": { "type": "Point", "coordinates": [ 132.324137, 34.3444693 ] } },
{ "type": "Feature", "properties": { "内容": "株式会社　ホームケアサービス　廿日市店【特定福祉用具販売】広島県廿日市市宮内4349番地1田宮ビル1F", "url": "https://www.kaigokensaku.mhlw.go.jp/34/index.php?action_kouhyou_detail_004_kani=true&JigyosyoCd=3472701543-00&ServiceCd=410&Type=search", "url2": "http://www.homecare-yamaguchi.co.jp/" }, "geometry": { "type": "Point", "coordinates": [ 132.3023002, 34.3423857 ] } },
{ "type": "Feature", "properties": { "内容": "有限会社であい工房【特定福祉用具販売】広島県廿日市市宮内3300", "url": "https://www.kaigokensaku.mhlw.go.jp/34/index.php?action_kouhyou_detail_004_kani=true&JigyosyoCd=3472702053-00&ServiceCd=410&Type=search", "url2": "http://www.deaikobo.com" }, "geometry": { "type": "Point", "coordinates": [ 132.2730582, 34.350831 ] } },
{ "type": "Feature", "properties": { "内容": "福祉スタジオ廿日市営業所【特定福祉用具販売】廿日市市物見西2-19-29クザン104", "url": "https://www.kaigokensaku.mhlw.go.jp/34/index.php?action_kouhyou_detail_004_kani=true&JigyosyoCd=3472702079-00&ServiceCd=410&Type=search", "url2": null }, "geometry": { "type": "Point", "coordinates": [ 132.2810017, 34.2960533 ] } },
{ "type": "Feature", "properties": { "内容": "株式会社たかたケアサービス【特定福祉用具販売】広島県安芸高田市高宮町羽佐竹680番地", "url": "https://www.kaigokensaku.mhlw.go.jp/34/index.php?action_kouhyou_detail_004_kani=true&JigyosyoCd=3473600751-00&ServiceCd=410&Type=search", "url2": null }, "geometry": { "type": "Point", "coordinates": [ 132.7036359, 34.7727677 ] } },
{ "type": "Feature", "properties": { "内容": "安芸高田市社会福祉協議会　福祉用具貸与事業所【特定福祉用具販売】広島県安芸高田市甲田町高田原1490番地1安芸高田市ふれあいセンターこうだ", "url": "https://www.kaigokensaku.mhlw.go.jp/34/index.php?action_kouhyou_detail_004_kani=true&JigyosyoCd=3473600355-00&ServiceCd=410&Type=search", "url2": "http://www.akisha.jp/" }, "geometry": { "type": "Point", "coordinates": [ 132.758817397590633, 34.697134013616335 ] } },
{ "type": "Feature", "properties": { "内容": "江田島市社協福祉用具貸与事業所【特定福祉用具販売】広島県江田島市能美町鹿川2060", "url": "https://www.kaigokensaku.mhlw.go.jp/34/index.php?action_kouhyou_detail_004_kani=true&JigyosyoCd=3473300212-00&ServiceCd=410&Type=search", "url2": "http://etajima-syakyo.org/" }, "geometry": { "type": "Point", "coordinates": [ 132.4426717, 34.2114591 ] } },
{ "type": "Feature", "properties": { "内容": "日本基準寝具株式会社　広島南営業所【特定福祉用具販売】広島県安芸郡海田町つくも町6-10", "url": "https://www.kaigokensaku.mhlw.go.jp/34/index.php?action_kouhyou_detail_004_kani=true&JigyosyoCd=3473201279-00&ServiceCd=410&Type=search", "url2": "https://www.nihonkijun.jp" }, "geometry": { "type": "Point", "coordinates": [ 132.529793899999987, 34.3662127 ] } },
{ "type": "Feature", "properties": { "内容": "株式会社ライフケア南広島支店【特定福祉用具販売】広島県安芸郡海田町国信二丁目1番34号", "url": "https://www.kaigokensaku.mhlw.go.jp/34/index.php?action_kouhyou_detail_004_kani=true&JigyosyoCd=3473201204-00&ServiceCd=410&Type=search", "url2": "https://lifecare-ok.co.jp/" }, "geometry": { "type": "Point", "coordinates": [ 132.559673299999986, 34.3831359 ] } },
{ "type": "Feature", "properties": { "内容": "株式会社広島福祉サービス福祉用具貸与事業部【特定福祉用具販売】広島県安芸郡海田町大正町2-22", "url": "https://www.kaigokensaku.mhlw.go.jp/34/index.php?action_kouhyou_detail_004_kani=true&JigyosyoCd=3473200305-00&ServiceCd=410&Type=search", "url2": "https://www.h-fukushi.net" }, "geometry": { "type": "Point", "coordinates": [ 132.5322845, 34.3698089 ] } },
{ "type": "Feature", "properties": { "内容": "シルバーレンタルいはら【特定福祉用具販売】広島県山県郡安芸太田町大字加計3472番地", "url": "https://www.kaigokensaku.mhlw.go.jp/34/index.php?action_kouhyou_detail_004_kani=true&JigyosyoCd=3473500290-00&ServiceCd=410&Type=search", "url2": null }, "geometry": { "type": "Point", "coordinates": [ 132.322646299999974, 34.609706100000011 ] } },
{ "type": "Feature", "properties": { "内容": "岡本金物店【特定福祉用具販売】広島県豊田郡大崎上島町中野1841番地の11", "url": "https://www.kaigokensaku.mhlw.go.jp/34/index.php?action_kouhyou_detail_004_kani=true&JigyosyoCd=3473900425-00&ServiceCd=410&Type=search", "url2": null }, "geometry": { "type": "Point", "coordinates": [ 132.889198299999947, 34.2436553 ] } },
{ "type": "Feature", "properties": { "内容": "有限会社ケアサービスわかば【特定福祉用具販売】広島県世羅郡世羅町大字西上原641番地15", "url": "https://www.kaigokensaku.mhlw.go.jp/34/index.php?action_kouhyou_detail_004_kani=true&JigyosyoCd=3474200098-00&ServiceCd=410&Type=search", "url2": "http://www.wakaba49.com/" }, "geometry": { "type": "Point", "coordinates": [ 133.061123100000032, 34.5894029 ] } }
]
}
