{
"type": "FeatureCollection",
"name": "geo_34_訪問リハビリテーション",
"crs": { "type": "name", "properties": { "name": "urn:ogc:def:crs:OGC:1.3:CRS84" } },
"features": [
{ "type": "Feature", "properties": { "内容": "医療法人三和会　おおうち病院【訪問リハビリテーション】広島市中区大手町3-7-11", "url": "https://www.kaigokensaku.mhlw.go.jp/34/index.php?action_kouhyou_detail_004_kani=true&JigyosyoCd=3410110237-00&ServiceCd=140&Type=search", "url2": "http://www.ohuchi-hosp.jp" }, "geometry": { "type": "Point", "coordinates": [ 132.454387099999963, 34.3876055 ] } },
{ "type": "Feature", "properties": { "内容": "介護老人保健施設陽だまり【訪問リハビリテーション】広島県広島市中区国泰寺町二丁目４番１８号", "url": "https://www.kaigokensaku.mhlw.go.jp/34/index.php?action_kouhyou_detail_004_kani=true&JigyosyoCd=3450180181-00&ServiceCd=140&Type=search", "url2": "https://hidamari-rk.jp" }, "geometry": { "type": "Point", "coordinates": [ 132.4542841, 34.3836496 ] } },
{ "type": "Feature", "properties": { "内容": "一ノ瀬病院【訪問リハビリテーション】広島県広島市中区国泰寺町1丁目5番11号", "url": "https://www.kaigokensaku.mhlw.go.jp/34/index.php?action_kouhyou_detail_004_kani=true&JigyosyoCd=3410124006-00&ServiceCd=140&Type=search", "url2": "http://ichinose-hp.jp/" }, "geometry": { "type": "Point", "coordinates": [ 132.4559676, 34.3861251 ] } },
{ "type": "Feature", "properties": { "内容": "ほーむけあクリニック【訪問リハビリテーション】広島県広島市中区竹屋町8-8", "url": "https://www.kaigokensaku.mhlw.go.jp/34/index.php?action_kouhyou_detail_004_kani=true&JigyosyoCd=3410124972-00&ServiceCd=140&Type=search", "url2": "https://homecare-clinic.jp/" }, "geometry": { "type": "Point", "coordinates": [ 132.462277, 34.3826456 ] } },
{ "type": "Feature", "properties": { "内容": "広島中央リハビリテーション病院【訪問リハビリテーション】平野町6番24号", "url": "https://www.kaigokensaku.mhlw.go.jp/34/index.php?action_kouhyou_detail_004_kani=true&JigyosyoCd=3410125714-00&ServiceCd=140&Type=search", "url2": "https://hirochu-rh.jp/" }, "geometry": { "type": "Point", "coordinates": [ 132.462641100000013, 34.3804442 ] } },
{ "type": "Feature", "properties": { "内容": "医療法人社団　聖愛会　ぎおん牛田病院附属牛田クリニック【訪問リハビリテーション】広島県広島市東区牛田本町１丁目５番１４号エスト牛田本町ビル１階", "url": "https://www.kaigokensaku.mhlw.go.jp/34/index.php?action_kouhyou_detail_004_kani=true&JigyosyoCd=3410121622-00&ServiceCd=140&Type=search", "url2": "https://www.smile-seiaikai.com/gionushita-hospital.html" }, "geometry": { "type": "Point", "coordinates": [ 132.471452900000031, 34.4090916 ] } },
{ "type": "Feature", "properties": { "内容": "老人保健施設　スカイバード【訪問リハビリテーション】広島市東区福田町3198番地", "url": "https://www.kaigokensaku.mhlw.go.jp/34/index.php?action_kouhyou_detail_004_kani=true&JigyosyoCd=3450180058-00&ServiceCd=140&Type=search", "url2": "https://joukou.or.jp/" }, "geometry": { "type": "Point", "coordinates": [ 132.54698529999996, 34.4492898 ] } },
{ "type": "Feature", "properties": { "内容": "寛田クリニック【訪問リハビリテーション】広島県広島市南区稲荷町3番20号ト―レ稲荷町", "url": "https://www.kaigokensaku.mhlw.go.jp/34/index.php?action_kouhyou_detail_004_kani=true&JigyosyoCd=3410118719-00&ServiceCd=140&Type=search", "url2": "http//www.hishokai.or.jp" }, "geometry": { "type": "Point", "coordinates": [ 132.47037720000003, 34.3921247 ] } },
{ "type": "Feature", "properties": { "内容": "介護老人保健施設ひうな荘【訪問リハビリテーション】広島県広島市南区日宇那町30番1号", "url": "https://www.kaigokensaku.mhlw.go.jp/34/index.php?action_kouhyou_detail_004_kani=true&JigyosyoCd=3450180025-00&ServiceCd=140&Type=search", "url2": "https://www.misasakai.or.jp/" }, "geometry": { "type": "Point", "coordinates": [ 132.492724, 34.3656984 ] } },
{ "type": "Feature", "properties": { "内容": "広島シーサイド病院介護医療院【訪問リハビリテーション】広島県広島市南区元宇品町26番20号", "url": "https://www.kaigokensaku.mhlw.go.jp/34/index.php?action_kouhyou_detail_004_kani=true&JigyosyoCd=34B0100020-00&ServiceCd=140&Type=search", "url2": "http://www.ss.wadoukai.jp/" }, "geometry": { "type": "Point", "coordinates": [ 132.459085499999986, 34.3485727 ] } },
{ "type": "Feature", "properties": { "内容": "のぞみ整形外科スタジアム前クリニック【訪問リハビリテーション】広島市南区西蟹屋町4-8-35", "url": "https://www.kaigokensaku.mhlw.go.jp/34/index.php?action_kouhyou_detail_004_kani=true&JigyosyoCd=3410124766-00&ServiceCd=140&Type=search", "url2": "https://www.nozomi-clinic.jp/stadium" }, "geometry": { "type": "Point", "coordinates": [ 132.479132099999987, 34.3930994 ] } },
{ "type": "Feature", "properties": { "内容": "医療法人社団古川医院【訪問リハビリテーション】広島市南区東雲本町1丁目1-2", "url": "https://www.kaigokensaku.mhlw.go.jp/34/index.php?action_kouhyou_detail_004_kani=true&JigyosyoCd=3410114247-00&ServiceCd=140&Type=search", "url2": "http://www.furukawa-iin.com/" }, "geometry": { "type": "Point", "coordinates": [ 132.483970699999986, 34.3843257 ] } },
{ "type": "Feature", "properties": { "内容": "山本整形外科クリニック【訪問リハビリテーション】広島市南区青崎2丁目4-20", "url": "https://www.kaigokensaku.mhlw.go.jp/34/index.php?action_kouhyou_detail_004_kani=true&JigyosyoCd=3410122497-00&ServiceCd=140&Type=search", "url2": "http://www.kensinkai.or.jp" }, "geometry": { "type": "Point", "coordinates": [ 132.507502199999976, 34.3745025 ] } },
{ "type": "Feature", "properties": { "内容": "荒木脳神経外科病院【訪問リハビリテーション】広島県広島市西区庚午北2丁目8-7", "url": "https://www.kaigokensaku.mhlw.go.jp/34/index.php?action_kouhyou_detail_004_kani=true&JigyosyoCd=3410216000-00&ServiceCd=140&Type=search", "url2": "http://www.arakihp.jp" }, "geometry": { "type": "Point", "coordinates": [ 132.421899100000019, 34.3906552 ] } },
{ "type": "Feature", "properties": { "内容": "医療法人社団　玉章会　力田病院【訪問リハビリテーション】広島市西区鈴が峰町１４番２０号", "url": "https://www.kaigokensaku.mhlw.go.jp/34/index.php?action_kouhyou_detail_004_kani=true&JigyosyoCd=3410210102-00&ServiceCd=140&Type=search", "url2": "http://rikitabyouin.life.coocan.jp/" }, "geometry": { "type": "Point", "coordinates": [ 132.397112200000038, 34.3822668 ] } },
{ "type": "Feature", "properties": { "内容": "蜂須賀整形外科【訪問リハビリテーション】広島市西区己斐本町2-12-27", "url": "https://www.kaigokensaku.mhlw.go.jp/34/index.php?action_kouhyou_detail_004_kani=true&JigyosyoCd=3410216455-00&ServiceCd=140&Type=search", "url2": null }, "geometry": { "type": "Point", "coordinates": [ 132.425982200000021, 34.394091 ] } },
{ "type": "Feature", "properties": { "内容": "ほり整形外科【訪問リハビリテーション】広島県広島市西区草津新町2丁目6番10号", "url": "https://www.kaigokensaku.mhlw.go.jp/34/index.php?action_kouhyou_detail_004_kani=true&JigyosyoCd=3410216885-00&ServiceCd=140&Type=search", "url2": "http://www.hori-seikei.com" }, "geometry": { "type": "Point", "coordinates": [ 132.3940872, 34.3749846 ] } },
{ "type": "Feature", "properties": { "内容": "たがしらクリニック【訪問リハビリテーション】広島市西区中広町2-22-21", "url": "https://www.kaigokensaku.mhlw.go.jp/34/index.php?action_kouhyou_detail_004_kani=true&JigyosyoCd=3410218634-00&ServiceCd=140&Type=search", "url2": "https://www.tagashira-cli.com/" }, "geometry": { "type": "Point", "coordinates": [ 132.443714699999987, 34.4034735 ] } },
{ "type": "Feature", "properties": { "内容": "コールメディカルクリニック広島【訪問リハビリテーション】広島市西区古田台二丁目12-9", "url": "https://www.kaigokensaku.mhlw.go.jp/34/index.php?action_kouhyou_detail_004_kani=true&JigyosyoCd=3410221802-00&ServiceCd=140&Type=search", "url2": "https://call-medical-clinic.com" }, "geometry": { "type": "Point", "coordinates": [ 132.40107009999997, 34.3945572 ] } },
{ "type": "Feature", "properties": { "内容": "あらき脳・循環器・リハビリクリニック【訪問リハビリテーション】広島県広島市西区庚午北1丁目5番15号ARAKIHEALTHCAREPLAZA", "url": "https://www.kaigokensaku.mhlw.go.jp/34/index.php?action_kouhyou_detail_004_kani=true&JigyosyoCd=3410225530-00&ServiceCd=140&Type=search", "url2": "https://arakihp.jp/healthcareplaza/clinic" }, "geometry": { "type": "Point", "coordinates": [ 132.422874, 34.390896699999985 ] } },
{ "type": "Feature", "properties": { "内容": "いとうクリニック【訪問リハビリテーション】広島市西区庚午南1-35-13", "url": "https://www.kaigokensaku.mhlw.go.jp/34/index.php?action_kouhyou_detail_004_kani=true&JigyosyoCd=3410211449-00&ServiceCd=140&Type=search", "url2": "http://itohclinic1998.jp/" }, "geometry": { "type": "Point", "coordinates": [ 132.410764, 34.3812587 ] } },
{ "type": "Feature", "properties": { "内容": "廣島クリニック【訪問リハビリテーション】広島県広島市西区東観音町20-16", "url": "https://www.kaigokensaku.mhlw.go.jp/34/index.php?action_kouhyou_detail_004_kani=true&JigyosyoCd=3410217487-00&ServiceCd=140&Type=search", "url2": "https://hiroshima-clinic.jp/" }, "geometry": { "type": "Point", "coordinates": [ 132.4377499, 34.3907567 ] } },
{ "type": "Feature", "properties": { "内容": "落久保外科循環器内科クリニック【訪問リハビリテーション】広島県広島市西区己斐本町3丁目2-8", "url": "https://www.kaigokensaku.mhlw.go.jp/34/index.php?action_kouhyou_detail_004_kani=true&JigyosyoCd=3410223634-00&ServiceCd=140&Type=search", "url2": "http://www.ochikubo-clinic.jp" }, "geometry": { "type": "Point", "coordinates": [ 132.426418199999944, 34.3960547 ] } },
{ "type": "Feature", "properties": { "内容": "医療法人社団石田内科【訪問リハビリテーション】広島県広島市西区己斐上2丁目11番3号医療法人社団石田内科　3階", "url": "https://www.kaigokensaku.mhlw.go.jp/34/index.php?action_kouhyou_detail_004_kani=true&JigyosyoCd=3410214369-00&ServiceCd=140&Type=search", "url2": "https://ishida-med.or.jp/" }, "geometry": { "type": "Point", "coordinates": [ 132.4193133, 34.4051544 ] } },
{ "type": "Feature", "properties": { "内容": "広島パークヒル病院【訪問リハビリテーション】広島県広島市西区田方２丁目１６番４５号", "url": "https://www.kaigokensaku.mhlw.go.jp/34/index.php?action_kouhyou_detail_004_kani=true&JigyosyoCd=3410218378-00&ServiceCd=140&Type=search", "url2": "http://www.wadokai.or.jp/" }, "geometry": { "type": "Point", "coordinates": [ 132.396051100000022, 34.3918102 ] } },
{ "type": "Feature", "properties": { "内容": "リハビリテーション礼和クリニック広島【訪問リハビリテーション】広島県広島市西区上天満町７番１３号井口家具百貨店西館４階", "url": "https://www.kaigokensaku.mhlw.go.jp/34/index.php?action_kouhyou_detail_004_kani=true&JigyosyoCd=3410224954-00&ServiceCd=140&Type=search", "url2": "https://sites.google.com/view/reiwaclinic-hiroshima" }, "geometry": { "type": "Point", "coordinates": [ 132.4389112, 34.3982059 ] } },
{ "type": "Feature", "properties": { "内容": "訪問看護ステーション「あさみなみ」【訪問リハビリテーション】広島市安佐南区祇園二丁目42番14号", "url": "https://www.kaigokensaku.mhlw.go.jp/34/index.php?action_kouhyou_detail_004_kani=true&JigyosyoCd=3410214625-00&ServiceCd=140&Type=search", "url2": "http://www.medical-park.jp" }, "geometry": { "type": "Point", "coordinates": [ 132.46523389999993, 34.4390175 ] } },
{ "type": "Feature", "properties": { "内容": "サカ緑井病院【訪問リハビリテーション】広島県広島市安佐南区緑井6丁目28番1号", "url": "https://www.kaigokensaku.mhlw.go.jp/34/index.php?action_kouhyou_detail_004_kani=true&JigyosyoCd=3410222172-00&ServiceCd=140&Type=search", "url2": "https://www.sakamidorii.jp/" }, "geometry": { "type": "Point", "coordinates": [ 132.481511899999987, 34.4724999 ] } },
{ "type": "Feature", "properties": { "内容": "医療法人社団聖愛会ぎおん牛田病院【訪問リハビリテーション】広島市安佐南区西原8丁目29番24号", "url": "https://www.kaigokensaku.mhlw.go.jp/34/index.php?action_kouhyou_detail_004_kani=true&JigyosyoCd=3410222479-00&ServiceCd=140&Type=search", "url2": "http://smile-seiaikai.com" }, "geometry": { "type": "Point", "coordinates": [ 132.470913900000028, 34.442756 ] } },
{ "type": "Feature", "properties": { "内容": "西原セントラルクリニック【訪問リハビリテーション】広島県広島市安佐南区西原8丁目33‐3メディカルビレッジ西原", "url": "https://www.kaigokensaku.mhlw.go.jp/34/index.php?action_kouhyou_detail_004_kani=true&JigyosyoCd=3410223428-00&ServiceCd=140&Type=search", "url2": "https://koenkai-gr.jp/clinic/nishihara-clinic/about/" }, "geometry": { "type": "Point", "coordinates": [ 132.474168220237743, 34.44314181237155 ] } },
{ "type": "Feature", "properties": { "内容": "広島医療生活協同組合　広島共立病院【訪問リハビリテーション】広島市安佐南区中須2丁目20-20広島共立病院1階　リハビリテーション科", "url": "https://www.kaigokensaku.mhlw.go.jp/34/index.php?action_kouhyou_detail_004_kani=true&JigyosyoCd=3410223683-00&ServiceCd=140&Type=search", "url2": "http://www.hiroshimairyo.or.jp" }, "geometry": { "type": "Point", "coordinates": [ 132.4746788, 34.4607944 ] } },
{ "type": "Feature", "properties": { "内容": "医療法人博善会　長尾医院【訪問リハビリテーション】広島県広島市安佐南区西原4-17-17", "url": "https://www.kaigokensaku.mhlw.go.jp/34/index.php?action_kouhyou_detail_004_kani=true&JigyosyoCd=3410224558-00&ServiceCd=140&Type=search", "url2": "http://www.hakuzenkai.jp/visiting_nursing/" }, "geometry": { "type": "Point", "coordinates": [ 132.4679136, 34.4378042 ] } },
{ "type": "Feature", "properties": { "内容": "原田リハビリ整形外科【訪問リハビリテーション】東野2-21-20", "url": "https://www.kaigokensaku.mhlw.go.jp/34/index.php?action_kouhyou_detail_004_kani=true&JigyosyoCd=3410224913-00&ServiceCd=140&Type=search", "url2": "http://www.haradarehaseikei.com/" }, "geometry": { "type": "Point", "coordinates": [ 139.896583, 35.648206 ] } },
{ "type": "Feature", "properties": { "内容": "医療法人社団聖愛会　介護老人保健施設とやま【訪問リハビリテーション】広島県広島市安佐南区沼田町吉山字風呂ノ元980-1", "url": "https://www.kaigokensaku.mhlw.go.jp/34/index.php?action_kouhyou_detail_004_kani=true&JigyosyoCd=3450280155-00&ServiceCd=140&Type=search", "url2": "http://www.smile-seiaikai.com/toyama.html" }, "geometry": { "type": "Point", "coordinates": [ 132.344409300000052, 34.4668228 ] } },
{ "type": "Feature", "properties": { "内容": "よりしま内科外科医院【訪問リハビリテーション】広島県広島市安佐南区祇園六丁目21番16号", "url": "https://www.kaigokensaku.mhlw.go.jp/34/index.php?action_kouhyou_detail_004_kani=true&JigyosyoCd=3410222545-00&ServiceCd=140&Type=search", "url2": "https://yorishima.com/" }, "geometry": { "type": "Point", "coordinates": [ 132.465350199999989, 34.4450901 ] } },
{ "type": "Feature", "properties": { "内容": "メリィホスピタル【訪問リハビリテーション】広島県広島市安佐南区大塚西三丁目1番20号", "url": "https://www.kaigokensaku.mhlw.go.jp/34/index.php?action_kouhyou_detail_004_kani=true&JigyosyoCd=3410224384-00&ServiceCd=140&Type=search", "url2": "http://merry-house.jp/hospital/" }, "geometry": { "type": "Point", "coordinates": [ 132.3922974, 34.4457276 ] } },
{ "type": "Feature", "properties": { "内容": "医療法人社団　和楽会　伊藤内科医院【訪問リハビリテーション】広島県広島市安佐南区伴中央４丁目７番１０号", "url": "https://www.kaigokensaku.mhlw.go.jp/34/index.php?action_kouhyou_detail_004_kani=true&JigyosyoCd=3410223287-00&ServiceCd=140&Type=search", "url2": "http://ito-junkanki.jp/" }, "geometry": { "type": "Point", "coordinates": [ 132.404749300000049, 34.4574363 ] } },
{ "type": "Feature", "properties": { "内容": "介護老人保健施設白木ツジマチ【訪問リハビリテーション】広島市安佐北区白木町小越218番2", "url": "https://www.kaigokensaku.mhlw.go.jp/34/index.php?action_kouhyou_detail_004_kani=true&JigyosyoCd=3450280106-00&ServiceCd=140&Type=search", "url2": "https://www.misasakai.or.jp/shisetsu/izumi.php" }, "geometry": { "type": "Point", "coordinates": [ 132.662698438666609, 34.552066106635181 ] } },
{ "type": "Feature", "properties": { "内容": "医療法人社団恵正会　二宮内科【訪問リハビリテーション】広島県広島市安佐北区可部5-14-16可部中央クリニックビル", "url": "https://www.kaigokensaku.mhlw.go.jp/34/index.php?action_kouhyou_detail_004_kani=true&JigyosyoCd=3410218204-00&ServiceCd=140&Type=search", "url2": "https://keiseikai-nmn.net/wp3/" }, "geometry": { "type": "Point", "coordinates": [ 132.510109669975265, 34.519941420913014 ] } },
{ "type": "Feature", "properties": { "内容": "高陽整形外科クリニック【訪問リハビリテーション】広島市安佐北区口田南8丁目14-13", "url": "https://www.kaigokensaku.mhlw.go.jp/34/index.php?action_kouhyou_detail_004_kani=true&JigyosyoCd=3410221083-00&ServiceCd=140&Type=search", "url2": "https://lifeathlete.or.jp/" }, "geometry": { "type": "Point", "coordinates": [ 132.504438199999981, 34.4650629 ] } },
{ "type": "Feature", "properties": { "内容": "やまぐちホームケアクリニック【訪問リハビリテーション】広島県広島市安佐北区口田1-21-25", "url": "https://www.kaigokensaku.mhlw.go.jp/34/index.php?action_kouhyou_detail_004_kani=true&JigyosyoCd=3410223949-00&ServiceCd=140&Type=search", "url2": "https://www.yamaguchi-hc.jp/" }, "geometry": { "type": "Point", "coordinates": [ 132.4959585, 34.4645798 ] } },
{ "type": "Feature", "properties": { "内容": "窪医院【訪問リハビリテーション】広島市安佐北区亀山南五丁目7番24号", "url": "https://www.kaigokensaku.mhlw.go.jp/34/index.php?action_kouhyou_detail_004_kani=true&JigyosyoCd=3410212843-00&ServiceCd=140&Type=search", "url2": null }, "geometry": { "type": "Point", "coordinates": [ 132.491593500000022, 34.5242083 ] } },
{ "type": "Feature", "properties": { "内容": "介護老人保健施設菜の花【訪問リハビリテーション】広島県広島市安佐北区可部5丁目4-19-10", "url": "https://www.kaigokensaku.mhlw.go.jp/34/index.php?action_kouhyou_detail_004_kani=true&JigyosyoCd=3450280114-00&ServiceCd=140&Type=search", "url2": "https://nanohana-kabe.com/" }, "geometry": { "type": "Point", "coordinates": [ 132.5093889, 34.5214512 ] } },
{ "type": "Feature", "properties": { "内容": "高陽中央病院【訪問リハビリテーション】広島県広島市安佐北区落合5丁目1-10", "url": "https://www.kaigokensaku.mhlw.go.jp/34/index.php?action_kouhyou_detail_004_kani=true&JigyosyoCd=3410213338-00&ServiceCd=140&Type=search", "url2": "https://koyochuobyouin.jimdoweb.com/%E3%81%82%E3%81%84%E3%81%95%E3%81%A4/" }, "geometry": { "type": "Point", "coordinates": [ 132.513213923942573, 34.480404541973371 ] } },
{ "type": "Feature", "properties": { "内容": "はたのリハビリ整形外科【訪問リハビリテーション】広島県広島市安芸区中野５丁目１３番３０号はたのリハビリ整形外科", "url": "https://www.kaigokensaku.mhlw.go.jp/34/index.php?action_kouhyou_detail_004_kani=true&JigyosyoCd=3410118230-00&ServiceCd=140&Type=search", "url2": null }, "geometry": { "type": "Point", "coordinates": [ 132.5808614, 34.4023087 ] } },
{ "type": "Feature", "properties": { "内容": "老人保健施設　りは・くにくさ【訪問リハビリテーション】広島県広島市安芸区阿戸町485-1", "url": "https://www.kaigokensaku.mhlw.go.jp/34/index.php?action_kouhyou_detail_004_kani=true&JigyosyoCd=3450180033-00&ServiceCd=140&Type=search", "url2": "https://kunikusa.or.jp/" }, "geometry": { "type": "Point", "coordinates": [ 132.624227799999971, 34.3739909 ] } },
{ "type": "Feature", "properties": { "内容": "あおぞら診療所【訪問リハビリテーション】広島市安芸区中野７丁目22-11あおぞら診療所", "url": "https://www.kaigokensaku.mhlw.go.jp/34/index.php?action_kouhyou_detail_004_kani=true&JigyosyoCd=3410124410-00&ServiceCd=140&Type=search", "url2": null }, "geometry": { "type": "Point", "coordinates": [ 132.592808, 34.4223221 ] } },
{ "type": "Feature", "properties": { "内容": "老人保健施設せのがわ【訪問リハビリテーション】広島県広島市安芸区中野6丁目8-2老人保健施設せのがわ", "url": "https://www.kaigokensaku.mhlw.go.jp/34/index.php?action_kouhyou_detail_004_kani=true&JigyosyoCd=3450180041-00&ServiceCd=140&Type=search", "url2": "http://hatano-group.jp/" }, "geometry": { "type": "Point", "coordinates": [ 132.582872100000031, 34.411644 ] } },
{ "type": "Feature", "properties": { "内容": "老人保健施はたのリハビリ【訪問リハビリテーション】広島県広島市安芸区中野5-13-30はたのリハビリ整形外科", "url": "https://www.kaigokensaku.mhlw.go.jp/34/index.php?action_kouhyou_detail_004_kani=true&JigyosyoCd=3450180157-00&ServiceCd=140&Type=search", "url2": "http://hatano-group.jp/" }, "geometry": { "type": "Point", "coordinates": [ 132.5808614, 34.4023087 ] } },
{ "type": "Feature", "properties": { "内容": "クリニック福本リハビリ整形外科【訪問リハビリテーション】広島県広島市安芸区矢野東2-31-11", "url": "https://www.kaigokensaku.mhlw.go.jp/34/index.php?action_kouhyou_detail_004_kani=true&JigyosyoCd=3410124287-00&ServiceCd=140&Type=search", "url2": "http://clinic-fukumoto.com" }, "geometry": { "type": "Point", "coordinates": [ 132.535744499999964, 34.355508 ] } },
{ "type": "Feature", "properties": { "内容": "福原リハビリテーション整形外科・内科医院【訪問リハビリテーション】広島市　佐伯区　海老園2-9-22", "url": "https://www.kaigokensaku.mhlw.go.jp/34/index.php?action_kouhyou_detail_004_kani=true&JigyosyoCd=3410217883-00&ServiceCd=140&Type=search", "url2": null }, "geometry": { "type": "Point", "coordinates": [ 132.362611900000047, 34.3643208 ] } },
{ "type": "Feature", "properties": { "内容": "介護老人保健施設　湯来まつむら【訪問リハビリテーション】広島市佐伯区湯来町白砂590番", "url": "https://www.kaigokensaku.mhlw.go.jp/34/index.php?action_kouhyou_detail_004_kani=true&JigyosyoCd=3451980068-00&ServiceCd=140&Type=search", "url2": "http://www.matsumura-cc.jp/ym/" }, "geometry": { "type": "Point", "coordinates": [ 132.288331800000037, 34.4212295 ] } },
{ "type": "Feature", "properties": { "内容": "医療法人和光　和光整形外科クリニック【訪問リハビリテーション】広島市佐伯区八幡東2丁目28‐8‐7", "url": "https://www.kaigokensaku.mhlw.go.jp/34/index.php?action_kouhyou_detail_004_kani=true&JigyosyoCd=3410218337-00&ServiceCd=140&Type=search", "url2": "http://www.wakoseikei.com/" }, "geometry": { "type": "Point", "coordinates": [ 132.359728799999971, 34.3837712 ] } },
{ "type": "Feature", "properties": { "内容": "のぞみ整形外科ヒロシマ【訪問リハビリテーション】広島県広島市佐伯区利松3丁目6－30", "url": "https://www.kaigokensaku.mhlw.go.jp/34/index.php?action_kouhyou_detail_004_kani=true&JigyosyoCd=3410223030-00&ServiceCd=140&Type=search", "url2": "https://www.nozomi-clinic.jp/hiroshima/" }, "geometry": { "type": "Point", "coordinates": [ 132.365640100000064, 34.4007161 ] } },
{ "type": "Feature", "properties": { "内容": "松村循環器・外科医院【訪問リハビリテーション】広島県広島市佐伯区楽々園2丁目2－19医療法人松村循環器・外科医院内", "url": "https://www.kaigokensaku.mhlw.go.jp/34/index.php?action_kouhyou_detail_004_kani=true&JigyosyoCd=3410215796-00&ServiceCd=140&Type=search", "url2": "http://matsumura-cc.jp/mjg/" }, "geometry": { "type": "Point", "coordinates": [ 132.3500808, 34.3638993 ] } },
{ "type": "Feature", "properties": { "内容": "平尾クリニック【訪問リハビリテーション】広島県広島市佐伯区五日市駅前１丁目１１番３９号", "url": "https://www.kaigokensaku.mhlw.go.jp/34/index.php?action_kouhyou_detail_004_kani=true&JigyosyoCd=3410223196-00&ServiceCd=140&Type=search", "url2": "https://www.hiraoclinic.jp/" }, "geometry": { "type": "Point", "coordinates": [ 132.367147599999953, 34.3671845 ] } },
{ "type": "Feature", "properties": { "内容": "医療法人社団　朋和会　西広島リハビリテーション病院【訪問リハビリテーション】広島市佐伯区三宅６丁目２６５番地", "url": "https://www.kaigokensaku.mhlw.go.jp/34/index.php?action_kouhyou_detail_004_kani=true&JigyosyoCd=3410216117-00&ServiceCd=140&Type=search", "url2": "http://www.welnet.jp/" }, "geometry": { "type": "Point", "coordinates": [ 132.3390756, 34.3781129 ] } },
{ "type": "Feature", "properties": { "内容": "医療法人社団永楽会前田病院【訪問リハビリテーション】呉市中央２丁目６番２０号", "url": "https://www.kaigokensaku.mhlw.go.jp/34/index.php?action_kouhyou_detail_004_kani=true&JigyosyoCd=3410510956-00&ServiceCd=140&Type=search", "url2": "http://www.hospital-maeda.jp/" }, "geometry": { "type": "Point", "coordinates": [ 132.5617661, 34.24566 ] } },
{ "type": "Feature", "properties": { "内容": "呉整形外科クリニック【訪問リハビリテーション】宝町2-50レクレ4階", "url": "https://www.kaigokensaku.mhlw.go.jp/34/index.php?action_kouhyou_detail_004_kani=true&JigyosyoCd=3410514511-00&ServiceCd=140&Type=search", "url2": "http://www.hishokai.or.jp/" }, "geometry": { "type": "Point", "coordinates": [ 132.557333851451176, 34.24417060065371 ] } },
{ "type": "Feature", "properties": { "内容": "呉中央コスモス園訪問リハビリテーション事業所【訪問リハビリテーション】呉市西中央３丁目６番７号", "url": "https://www.kaigokensaku.mhlw.go.jp/34/index.php?action_kouhyou_detail_004_kani=true&JigyosyoCd=3470503719-00&ServiceCd=140&Type=search", "url2": "https://www.hakujukai.jp/" }, "geometry": { "type": "Point", "coordinates": [ 132.560149700000011, 34.249886 ] } },
{ "type": "Feature", "properties": { "内容": "老人保健施設あすらや荘【訪問リハビリテーション】広島県呉市郷原町2380番地", "url": "https://www.kaigokensaku.mhlw.go.jp/34/index.php?action_kouhyou_detail_004_kani=true&JigyosyoCd=3450580042-00&ServiceCd=140&Type=search", "url2": "https://misasakai.ecat.jp/catalog/products/detail?id=17" }, "geometry": { "type": "Point", "coordinates": [ 132.6492781, 34.2975477 ] } },
{ "type": "Feature", "properties": { "内容": "メディケア・くれ　訪問リハビリテーション事業所【訪問リハビリテーション】広島県呉市中央2丁目6番20号", "url": "https://www.kaigokensaku.mhlw.go.jp/34/index.php?action_kouhyou_detail_004_kani=true&JigyosyoCd=3470503859-00&ServiceCd=140&Type=search", "url2": "http://www.hospital-maeda.jp" }, "geometry": { "type": "Point", "coordinates": [ 132.561687799999987, 34.2456536 ] } },
{ "type": "Feature", "properties": { "内容": "阿賀コスモス園　訪問リハビリテーション事業所【訪問リハビリテーション】広島県呉市阿賀南3丁目7番1号", "url": "https://www.kaigokensaku.mhlw.go.jp/34/index.php?action_kouhyou_detail_004_kani=true&JigyosyoCd=3470503727-00&ServiceCd=140&Type=search", "url2": "https://www.hakujukai.jp/" }, "geometry": { "type": "Point", "coordinates": [ 132.598051, 34.2342253 ] } },
{ "type": "Feature", "properties": { "内容": "老人保健施設コスモス園訪問リハビリテーション【訪問リハビリテーション】広島県呉市焼山北３丁目１７１番地", "url": "https://www.kaigokensaku.mhlw.go.jp/34/index.php?action_kouhyou_detail_004_kani=true&JigyosyoCd=3470503735-00&ServiceCd=140&Type=search", "url2": "https://www.hakujukai.jp/" }, "geometry": { "type": "Point", "coordinates": [ 132.553367402516216, 34.309638186417857 ] } },
{ "type": "Feature", "properties": { "内容": "マッターホルンリハビリテーション病院【訪問リハビリテーション】広島県呉市中通1丁目5-25マッターホルンリハビリテーション病院", "url": "https://www.kaigokensaku.mhlw.go.jp/34/index.php?action_kouhyou_detail_004_kani=true&JigyosyoCd=3410512796-00&ServiceCd=140&Type=search", "url2": "http://www.matterhorn-hospital.jp/" }, "geometry": { "type": "Point", "coordinates": [ 132.5626188, 34.24218 ] } },
{ "type": "Feature", "properties": { "内容": "医療法人社団　仁井谷医院　にいたにクリニック【訪問リハビリテーション】広島県呉市中通2丁目8-18", "url": "https://www.kaigokensaku.mhlw.go.jp/34/index.php?action_kouhyou_detail_004_kani=true&JigyosyoCd=3410515088-00&ServiceCd=140&Type=search", "url2": "http://www.niitani-clinic.jp/" }, "geometry": { "type": "Point", "coordinates": [ 132.5636782, 34.2435983 ] } },
{ "type": "Feature", "properties": { "内容": "医療法人社団たつき会菅田医院【訪問リハビリテーション】広島県呉市川尻町東一丁目２１番１号", "url": "https://www.kaigokensaku.mhlw.go.jp/34/index.php?action_kouhyou_detail_004_kani=true&JigyosyoCd=3414010425-00&ServiceCd=140&Type=search", "url2": "http://www.tatukikai.jp/" }, "geometry": { "type": "Point", "coordinates": [ 132.698417110429205, 34.23681769391181 ] } },
{ "type": "Feature", "properties": { "内容": "介護老人保健施設ほほえみ呉中央【訪問リハビリテーション】広島県呉市中央5丁目1－6", "url": "https://www.kaigokensaku.mhlw.go.jp/34/index.php?action_kouhyou_detail_004_kani=true&JigyosyoCd=3450580059-00&ServiceCd=140&Type=search", "url2": "http://hohoemi-gr.jp/" }, "geometry": { "type": "Point", "coordinates": [ 132.56456849999995, 34.2512259 ] } },
{ "type": "Feature", "properties": { "内容": "医療法人社団有信会呉記念病院【訪問リハビリテーション】呉市郷原町２３７９番地４２", "url": "https://www.kaigokensaku.mhlw.go.jp/34/index.php?action_kouhyou_detail_004_kani=true&JigyosyoCd=3410510857-00&ServiceCd=140&Type=search", "url2": "https://www.kurekinen.jp/" }, "geometry": { "type": "Point", "coordinates": [ 132.651990299999966, 34.3056392 ] } },
{ "type": "Feature", "properties": { "内容": "医療法人社団　住吉医院【訪問リハビリテーション】呉市川尻町東1丁目10-13", "url": "https://www.kaigokensaku.mhlw.go.jp/34/index.php?action_kouhyou_detail_004_kani=true&JigyosyoCd=3414010441-00&ServiceCd=140&Type=search", "url2": "https://sumiyoshicl.com/" }, "geometry": { "type": "Point", "coordinates": [ 132.69702719999998, 34.235934 ] } },
{ "type": "Feature", "properties": { "内容": "医療法人社団中川会　呉中通病院【訪問リハビリテーション】広島県呉市中通1丁目3番8号", "url": "https://www.kaigokensaku.mhlw.go.jp/34/index.php?action_kouhyou_detail_004_kani=true&JigyosyoCd=3410510691-00&ServiceCd=140&Type=search", "url2": "https://nakagawakai.jp" }, "geometry": { "type": "Point", "coordinates": [ 132.562177600000012, 34.2442375 ] } },
{ "type": "Feature", "properties": { "内容": "岸槌医院【訪問リハビリテーション】広島県呉市海岸2丁目16番12号", "url": "https://www.kaigokensaku.mhlw.go.jp/34/index.php?action_kouhyou_detail_004_kani=true&JigyosyoCd=3410515237-00&ServiceCd=140&Type=search", "url2": "https://www.kishiduchi-iin.jp/kawaraishi/index.html" }, "geometry": { "type": "Point", "coordinates": [ 132.544487099999969, 34.2464317 ] } },
{ "type": "Feature", "properties": { "内容": "医療法人社団あおい会大田整形外科【訪問リハビリテーション】広島県竹原市中央4-4-25", "url": "https://www.kaigokensaku.mhlw.go.jp/34/index.php?action_kouhyou_detail_004_kani=true&JigyosyoCd=3410710507-00&ServiceCd=140&Type=search", "url2": "http://www.ohta-cl.jp" }, "geometry": { "type": "Point", "coordinates": [ 132.908197300000012, 34.3403991 ] } },
{ "type": "Feature", "properties": { "内容": "医療法人　杏仁会　松尾内科病院【訪問リハビリテーション】広島県三原市城町3丁目7番1号", "url": "https://www.kaigokensaku.mhlw.go.jp/34/index.php?action_kouhyou_detail_004_kani=true&JigyosyoCd=3410910941-00&ServiceCd=140&Type=search", "url2": "http://www.mihara-matuohp.or.jp/" }, "geometry": { "type": "Point", "coordinates": [ 133.0835935, 34.3965963 ] } },
{ "type": "Feature", "properties": { "内容": "社会医療法人里仁会　興生総合病院【訪問リハビリテーション】広島県三原市円一町二丁目5番１号", "url": "https://www.kaigokensaku.mhlw.go.jp/34/index.php?action_kouhyou_detail_004_kani=true&JigyosyoCd=3410911634-00&ServiceCd=140&Type=search", "url2": "http://www.kohsei-hp.jp/" }, "geometry": { "type": "Point", "coordinates": [ 133.077300499999978, 34.3924776 ] } },
{ "type": "Feature", "properties": { "内容": "医療法人　仁康会　本郷中央病院【訪問リハビリテーション】三原市下北方1-7-30", "url": "https://www.kaigokensaku.mhlw.go.jp/34/index.php?action_kouhyou_detail_004_kani=true&JigyosyoCd=3413910559-00&ServiceCd=140&Type=search", "url2": "http://www.jinkokai.jp" }, "geometry": { "type": "Point", "coordinates": [ 132.975184600000034, 34.4063201 ] } },
{ "type": "Feature", "properties": { "内容": "三原市医師会病院【訪問リハビリテーション】三原市宮浦1-15-1", "url": "https://www.kaigokensaku.mhlw.go.jp/34/index.php?action_kouhyou_detail_004_kani=true&JigyosyoCd=3410911063-00&ServiceCd=140&Type=search", "url2": "http://www.mihara-hiroshima-med.jp" }, "geometry": { "type": "Point", "coordinates": [ 133.064225099999931, 34.400219 ] } },
{ "type": "Feature", "properties": { "内容": "医療法人宗斉会須波宗斉会病院【訪問リハビリテーション】広島県三原市須波ハイツ2丁目3番10号", "url": "https://www.kaigokensaku.mhlw.go.jp/34/index.php?action_kouhyou_detail_004_kani=true&JigyosyoCd=3410911196-00&ServiceCd=140&Type=search", "url2": null }, "geometry": { "type": "Point", "coordinates": [ 133.0774305, 34.3523217 ] } },
{ "type": "Feature", "properties": { "内容": "医療法人社団杏佑会笠井病院【訪問リハビリテーション】広島県尾道市久保１丁目３番１９号", "url": "https://www.kaigokensaku.mhlw.go.jp/34/index.php?action_kouhyou_detail_004_kani=true&JigyosyoCd=3411110335-00&ServiceCd=140&Type=search", "url2": "http://hkasai-t8.byoinnavi.jp/pc/" }, "geometry": { "type": "Point", "coordinates": [ 133.2040896, 34.4117559 ] } },
{ "type": "Feature", "properties": { "内容": "医療法人社団　樹良会　高亀医院【訪問リハビリテーション】広島県尾道市久保二丁目24番17号", "url": "https://www.kaigokensaku.mhlw.go.jp/34/index.php?action_kouhyou_detail_004_kani=true&JigyosyoCd=3411110509-00&ServiceCd=140&Type=search", "url2": "https://www.kougame.jp/" }, "geometry": { "type": "Point", "coordinates": [ 133.2059114, 34.4098398 ] } },
{ "type": "Feature", "properties": { "内容": "一般社団法人尾道市医師会介護老人保健施設　やすらぎの家【訪問リハビリテーション】広島県尾道市久保町1718番地", "url": "https://www.kaigokensaku.mhlw.go.jp/34/index.php?action_kouhyou_detail_004_kani=true&JigyosyoCd=3451180032-00&ServiceCd=140&Type=search", "url2": "http://www.onomichi-med.or.jp/yasuraginoie/" }, "geometry": { "type": "Point", "coordinates": [ 133.209237700000017, 34.421816 ] } },
{ "type": "Feature", "properties": { "内容": "介護老人保健施設　精彩園【訪問リハビリテーション】広島県尾道市美ノ郷町三成339番地3", "url": "https://www.kaigokensaku.mhlw.go.jp/34/index.php?action_kouhyou_detail_004_kani=true&JigyosyoCd=3451180040-00&ServiceCd=140&Type=search", "url2": "http://www.seisaikai.or.jp" }, "geometry": { "type": "Point", "coordinates": [ 133.197527900000011, 34.441203900000026 ] } },
{ "type": "Feature", "properties": { "内容": "医療法人辰川会山陽腎クリニック【訪問リハビリテーション】福山市野上町1丁目7番8号", "url": "https://www.kaigokensaku.mhlw.go.jp/34/index.php?action_kouhyou_detail_004_kani=true&JigyosyoCd=3411514189-00&ServiceCd=140&Type=search", "url2": "http://www.sanyo.or.jp" }, "geometry": { "type": "Point", "coordinates": [ 133.3636017, 34.4798527 ] } },
{ "type": "Feature", "properties": { "内容": "医療法人社団　敬崇会　猪原歯科・リハビリテーション科【訪問リハビリテーション】広島県福山市多治米町5丁目28-15", "url": "https://www.kaigokensaku.mhlw.go.jp/34/index.php?action_kouhyou_detail_004_kani=true&JigyosyoCd=3431533508-00&ServiceCd=140&Type=search", "url2": "http://www.inohara-dental.net" }, "geometry": { "type": "Point", "coordinates": [ 133.37623229999997, 34.4641681 ] } },
{ "type": "Feature", "properties": { "内容": "福山整形外科クリニック【訪問リハビリテーション】広島県福山市神辺町川北1533フレスポ神辺モール内", "url": "https://www.kaigokensaku.mhlw.go.jp/34/index.php?action_kouhyou_detail_004_kani=true&JigyosyoCd=3411515244-00&ServiceCd=140&Type=search", "url2": "http://www.hisyokai.or.jp" }, "geometry": { "type": "Point", "coordinates": [ 133.36238294708258, 34.541252493030328 ] } },
{ "type": "Feature", "properties": { "内容": "介護老人保健施設　ふぁみりい【訪問リハビリテーション】広島県福山市神辺町道上中ノ町2977-1", "url": "https://www.kaigokensaku.mhlw.go.jp/34/index.php?action_kouhyou_detail_004_kani=true&JigyosyoCd=3454480025-00&ServiceCd=140&Type=search", "url2": "http://family-roken.jp" }, "geometry": { "type": "Point", "coordinates": [ 133.3533205, 34.5504147 ] } },
{ "type": "Feature", "properties": { "内容": "医療法人社団健生会いそだ病院【訪問リハビリテーション】福山市松浜町1丁目13番38号", "url": "https://www.kaigokensaku.mhlw.go.jp/34/index.php?action_kouhyou_detail_004_kani=true&JigyosyoCd=3411510856-00&ServiceCd=140&Type=search", "url2": "https://www.isoda.or.jp/" }, "geometry": { "type": "Point", "coordinates": [ 133.373798399999941, 34.4833468 ] } },
{ "type": "Feature", "properties": { "内容": "老人保健施設サンビレッジ【訪問リハビリテーション】広島県福山市春日町7-6-27", "url": "https://www.kaigokensaku.mhlw.go.jp/34/index.php?action_kouhyou_detail_004_kani=true&JigyosyoCd=3451580025-00&ServiceCd=140&Type=search", "url2": "http://www.toukoukai.or.jp/" }, "geometry": { "type": "Point", "coordinates": [ 133.415210800000011, 34.5087795 ] } },
{ "type": "Feature", "properties": { "内容": "福山医療生活協同組合　城北診療所【訪問リハビリテーション】広島県福山市木之庄町2丁目7番2号", "url": "https://www.kaigokensaku.mhlw.go.jp/34/index.php?action_kouhyou_detail_004_kani=true&JigyosyoCd=3411513363-00&ServiceCd=140&Type=search", "url2": "http://www.fico-op.jp" }, "geometry": { "type": "Point", "coordinates": [ 133.357222, 34.4984067 ] } },
{ "type": "Feature", "properties": { "内容": "福山医療生活協同組合　ふれあい診療所【訪問リハビリテーション】広島県福山市駅家町万能倉96-3", "url": "https://www.kaigokensaku.mhlw.go.jp/34/index.php?action_kouhyou_detail_004_kani=true&JigyosyoCd=3411514619-00&ServiceCd=140&Type=search", "url2": "http://www.fico-op.jp/" }, "geometry": { "type": "Point", "coordinates": [ 133.340619, 34.5440824 ] } },
{ "type": "Feature", "properties": { "内容": "住吉ふじい病院【訪問リハビリテーション】広島県福山市住吉町４－１", "url": "https://www.kaigokensaku.mhlw.go.jp/34/index.php?action_kouhyou_detail_004_kani=true&JigyosyoCd=3411513678-00&ServiceCd=140&Type=search", "url2": "http:/www.seo-hp.or.jp" }, "geometry": { "type": "Point", "coordinates": [ 133.371126199999907, 34.4858632 ] } },
{ "type": "Feature", "properties": { "内容": "佐藤脳神経外科【訪問リハビリテーション】福山市松永町5丁目23番23号", "url": "https://www.kaigokensaku.mhlw.go.jp/34/index.php?action_kouhyou_detail_004_kani=true&JigyosyoCd=3411514049-00&ServiceCd=140&Type=search", "url2": "http://www.ryofukai.jp/" }, "geometry": { "type": "Point", "coordinates": [ 133.26057609999998, 34.4461332 ] } },
{ "type": "Feature", "properties": { "内容": "奥坊クリニック【訪問リハビリテーション】福山市西桜町1丁目6-1", "url": "https://www.kaigokensaku.mhlw.go.jp/34/index.php?action_kouhyou_detail_004_kani=true&JigyosyoCd=3411511581-00&ServiceCd=140&Type=search", "url2": "http://www.okunobou.or.jp/" }, "geometry": { "type": "Point", "coordinates": [ 133.357746300000031, 34.4840828 ] } },
{ "type": "Feature", "properties": { "内容": "医療法人慈彗会　亀川病院【訪問リハビリテーション】福山市神辺町字下御領６８２番地の１", "url": "https://www.kaigokensaku.mhlw.go.jp/34/index.php?action_kouhyou_detail_004_kani=true&JigyosyoCd=3414410344-00&ServiceCd=140&Type=search", "url2": "http://www.kamegawa-hospital.jp/" }, "geometry": { "type": "Point", "coordinates": [ 133.398603400000013, 34.5649793 ] } },
{ "type": "Feature", "properties": { "内容": "医療法人紅萌会　福山記念病院【訪問リハビリテーション】広島県福山市港町1-15-30", "url": "https://www.kaigokensaku.mhlw.go.jp/34/index.php?action_kouhyou_detail_004_kani=true&JigyosyoCd=3411511383-00&ServiceCd=140&Type=search", "url2": "https://www.kbk-group.or.jp/" }, "geometry": { "type": "Point", "coordinates": [ 133.3802842, 34.4842884 ] } },
{ "type": "Feature", "properties": { "内容": "介護老人保健施設　かなえ【訪問リハビリテーション】福山市金江町藁江550番地1", "url": "https://www.kaigokensaku.mhlw.go.jp/34/index.php?action_kouhyou_detail_004_kani=true&JigyosyoCd=3451580058-00&ServiceCd=140&Type=search", "url2": "http://www.eiwa-kai.or.jp/" }, "geometry": { "type": "Point", "coordinates": [ 133.307723600000031, 34.4412811 ] } },
{ "type": "Feature", "properties": { "内容": "神原病院【訪問リハビリテーション】広島県福山市赤坂町赤坂1313", "url": "https://www.kaigokensaku.mhlw.go.jp/34/index.php?action_kouhyou_detail_004_kani=true&JigyosyoCd=3411510849-00&ServiceCd=140&Type=search", "url2": "https://kambara-hp.sakura.ne.jp" }, "geometry": { "type": "Point", "coordinates": [ 133.3029402, 34.4718867 ] } },
{ "type": "Feature", "properties": { "内容": "医療法人社団黎明会　さくらの丘クリニック【訪問リハビリテーション】福山市駅家町法成寺108", "url": "https://www.kaigokensaku.mhlw.go.jp/34/index.php?action_kouhyou_detail_004_kani=true&JigyosyoCd=3411512662-00&ServiceCd=140&Type=search", "url2": "http://ekiya-sakura.jp" }, "geometry": { "type": "Point", "coordinates": [ 133.325944299999946, 34.5539394 ] } },
{ "type": "Feature", "properties": { "内容": "医療法人三宅会　グッドライフ病院【訪問リハビリテーション】広島県福山市東町1－1－18グッドライフ病院・7階", "url": "https://www.kaigokensaku.mhlw.go.jp/34/index.php?action_kouhyou_detail_004_kani=true&JigyosyoCd=3411515921-00&ServiceCd=140&Type=search", "url2": "http://www.goodlifehospital.jp" }, "geometry": { "type": "Point", "coordinates": [ 133.368570500000033, 34.4900712 ] } },
{ "type": "Feature", "properties": { "内容": "医療法人社団生和会　福山リハビリテーション病院【訪問リハビリテーション】広島県福山市明神町二丁目15番41号医療法人社団生和会　福山リハビリテーション病院", "url": "https://www.kaigokensaku.mhlw.go.jp/34/index.php?action_kouhyou_detail_004_kani=true&JigyosyoCd=3411516051-00&ServiceCd=140&Type=search", "url2": "http://www.fukuyama-rh.jp/" }, "geometry": { "type": "Point", "coordinates": [ 133.396210500000052, 34.489713 ] } },
{ "type": "Feature", "properties": { "内容": "沼隈病院【訪問リハビリテーション】広島県福山市沼隈町中山南469-3", "url": "https://www.kaigokensaku.mhlw.go.jp/34/index.php?action_kouhyou_detail_004_kani=true&JigyosyoCd=3414310239-00&ServiceCd=140&Type=search", "url2": "https://www.shounankai.or.jp/" }, "geometry": { "type": "Point", "coordinates": [ 133.323034299999989, 34.4192253 ] } },
{ "type": "Feature", "properties": { "内容": "寺岡記念病院【訪問リハビリテーション】広島県福山市新市町大字新市37番地寺岡記念病院", "url": "https://www.kaigokensaku.mhlw.go.jp/34/index.php?action_kouhyou_detail_004_kani=true&JigyosyoCd=3414510051-00&ServiceCd=140&Type=search", "url2": "http://www.teraoka-hosp.jp" }, "geometry": { "type": "Point", "coordinates": [ 133.280401799999936, 34.5505715 ] } },
{ "type": "Feature", "properties": { "内容": "駅家リハビリテーションＳＡＫＵＲＡ【訪問リハビリテーション】広島県福山市駅家町万能倉1046-2", "url": "https://www.kaigokensaku.mhlw.go.jp/34/index.php?action_kouhyou_detail_004_kani=true&JigyosyoCd=3451580108-00&ServiceCd=140&Type=search", "url2": "https://ekiya-sakura.jp/sakura/home-visit.html" }, "geometry": { "type": "Point", "coordinates": [ 133.329758, 34.5500176 ] } },
{ "type": "Feature", "properties": { "内容": "介護老人保健施設ゆめの杜【訪問リハビリテーション】広島県福山市千田町大字千田2591番地1", "url": "https://www.kaigokensaku.mhlw.go.jp/34/index.php?action_kouhyou_detail_004_kani=true&JigyosyoCd=3451580132-00&ServiceCd=140&Type=search", "url2": "https://www.yumenomori-rk.jp/" }, "geometry": { "type": "Point", "coordinates": [ 133.386083500000012, 34.5173113 ] } },
{ "type": "Feature", "properties": { "内容": "介護老人保健施設ジョイトピアしんいち【訪問リハビリテーション】広島県福山市新市町下安井3510", "url": "https://www.kaigokensaku.mhlw.go.jp/34/index.php?action_kouhyou_detail_004_kani=true&JigyosyoCd=3454580014-00&ServiceCd=140&Type=search", "url2": "https://www.joytopia.or.jp/" }, "geometry": { "type": "Point", "coordinates": [ 133.2834852, 34.5711941 ] } },
{ "type": "Feature", "properties": { "内容": "医療法人信英会島谷病院【訪問リハビリテーション】福山市新涯町2丁目5番8号", "url": "https://www.kaigokensaku.mhlw.go.jp/34/index.php?action_kouhyou_detail_004_kani=true&JigyosyoCd=3411512316-00&ServiceCd=140&Type=search", "url2": "https://shimatani.fmed.jp/hospital/rehabilitation.html" }, "geometry": { "type": "Point", "coordinates": [ 133.397097600000052, 34.4627963 ] } },
{ "type": "Feature", "properties": { "内容": "医療法人　光耀会　岩﨑整形外科【訪問リハビリテーション】広島県福山市木之庄町2丁目7番5号", "url": "https://www.kaigokensaku.mhlw.go.jp/34/index.php?action_kouhyou_detail_004_kani=true&JigyosyoCd=3411515764-00&ServiceCd=140&Type=search", "url2": "http://www.iwasaki-seikeigeka.com/" }, "geometry": { "type": "Point", "coordinates": [ 133.3541821, 34.4979065 ] } },
{ "type": "Feature", "properties": { "内容": "医療法人社団花園医療福祉会　花園クリニック【訪問リハビリテーション】広島県福山市花園町１丁目３番９号", "url": "https://www.kaigokensaku.mhlw.go.jp/34/index.php?action_kouhyou_detail_004_kani=true&JigyosyoCd=3411516184-00&ServiceCd=140&Type=search", "url2": "http://www.hanamk.jp/" }, "geometry": { "type": "Point", "coordinates": [ 133.373198499999944, 34.4820052 ] } },
{ "type": "Feature", "properties": { "内容": "介護老人保健施設グリーンハウス宏喜苑【訪問リハビリテーション】広島県福山市南本庄三丁目８番１７号", "url": "https://www.kaigokensaku.mhlw.go.jp/34/index.php?action_kouhyou_detail_004_kani=true&JigyosyoCd=3451580074-00&ServiceCd=140&Type=search", "url2": "https://koukien.com/" }, "geometry": { "type": "Point", "coordinates": [ 133.353527, 34.4840467 ] } },
{ "type": "Feature", "properties": { "内容": "介護老人保健施設せんだの里【訪問リハビリテーション】福山市千田町二丁目5番5号", "url": "https://www.kaigokensaku.mhlw.go.jp/34/index.php?action_kouhyou_detail_004_kani=true&JigyosyoCd=3451580090-00&ServiceCd=140&Type=search", "url2": "http://www.sendanosato.com/" }, "geometry": { "type": "Point", "coordinates": [ 133.367408800000021, 34.5177462 ] } },
{ "type": "Feature", "properties": { "内容": "松永脳外科クリニック【訪問リハビリテーション】広島県福山市宮前町2丁目6-20", "url": "https://www.kaigokensaku.mhlw.go.jp/34/index.php?action_kouhyou_detail_004_kani=true&JigyosyoCd=3411511920-00&ServiceCd=140&Type=search", "url2": "http://www.matsunaga-nogeka-clinic.com" }, "geometry": { "type": "Point", "coordinates": [ 133.262117200000034, 34.4541433 ] } },
{ "type": "Feature", "properties": { "内容": "医療法人辰川会山陽病院【訪問リハビリテーション】広島県福山市野上町二丁目８番２号", "url": "https://www.kaigokensaku.mhlw.go.jp/34/index.php?action_kouhyou_detail_004_kani=true&JigyosyoCd=3411512977-00&ServiceCd=140&Type=search", "url2": "http://www.sanyo.or.jp" }, "geometry": { "type": "Point", "coordinates": [ 133.365112899999986, 34.4778001 ] } },
{ "type": "Feature", "properties": { "内容": "医療法人Ｋ.Ｆ.会　青葉台クリニック【訪問リハビリテーション】福山市青葉台１丁目１１番２０号", "url": "https://www.kaigokensaku.mhlw.go.jp/34/index.php?action_kouhyou_detail_004_kani=true&JigyosyoCd=3411515541-00&ServiceCd=140&Type=search", "url2": "http://www.aobadai-hp.com/" }, "geometry": { "type": "Point", "coordinates": [ 133.428362200000038, 34.513083 ] } },
{ "type": "Feature", "properties": { "内容": "医療法人ふじえ　松山内科【訪問リハビリテーション】広島県福山市藤江町1724番地1", "url": "https://www.kaigokensaku.mhlw.go.jp/34/index.php?action_kouhyou_detail_004_kani=true&JigyosyoCd=3411516069-00&ServiceCd=140&Type=search", "url2": "https://matsuyama-clinic.jp/" }, "geometry": { "type": "Point", "coordinates": [ 133.278179986508121, 34.423184075683402 ] } },
{ "type": "Feature", "properties": { "内容": "長外科胃腸科医院【訪問リハビリテーション】広島県福山市駅家町法成寺４－１", "url": "https://www.kaigokensaku.mhlw.go.jp/34/index.php?action_kouhyou_detail_004_kani=true&JigyosyoCd=3411515863-00&ServiceCd=140&Type=search", "url2": null }, "geometry": { "type": "Point", "coordinates": [ 133.3343099, 34.5540971 ] } },
{ "type": "Feature", "properties": { "内容": "福山南病院【訪問リハビリテーション】広島県福山市水呑町1947番地2", "url": "https://www.kaigokensaku.mhlw.go.jp/34/index.php?action_kouhyou_detail_004_kani=true&JigyosyoCd=3411516739-00&ServiceCd=140&Type=search", "url2": "https://shion2023.or.jp/fukuyamaminami/" }, "geometry": { "type": "Point", "coordinates": [ 133.380047363697571, 34.447207194007554 ] } },
{ "type": "Feature", "properties": { "内容": "中川整形外科医院【訪問リハビリテーション】広島県府中市中須町７７番地", "url": "https://www.kaigokensaku.mhlw.go.jp/34/index.php?action_kouhyou_detail_004_kani=true&JigyosyoCd=3411710324-00&ServiceCd=140&Type=search", "url2": null }, "geometry": { "type": "Point", "coordinates": [ 133.267179899999974, 34.555623700000019 ] } },
{ "type": "Feature", "properties": { "内容": "かがやき苑訪問リハビリテーション事業所【訪問リハビリテーション】広島県府中市上下町深江１０４８８番地１", "url": "https://www.kaigokensaku.mhlw.go.jp/34/index.php?action_kouhyou_detail_004_kani=true&JigyosyoCd=3471701007-00&ServiceCd=140&Type=search", "url2": "https://www.oujinkai.com" }, "geometry": { "type": "Point", "coordinates": [ 133.12024550000001, 34.682730107101072 ] } },
{ "type": "Feature", "properties": { "内容": "府中北市民病院【訪問リハビリテーション】府中市上下町上下2101番地", "url": "https://www.kaigokensaku.mhlw.go.jp/34/index.php?action_kouhyou_detail_004_kani=true&JigyosyoCd=3411710738-00&ServiceCd=140&Type=search", "url2": "https://kitashimin.fuchuhp.jp/" }, "geometry": { "type": "Point", "coordinates": [ 133.120174300000031, 34.6965844 ] } },
{ "type": "Feature", "properties": { "内容": "介護老人保健施設あいあい【訪問リハビリテーション】広島県府中市三郎丸町137番地介護老人保健施設あいあい", "url": "https://www.kaigokensaku.mhlw.go.jp/34/index.php?action_kouhyou_detail_004_kani=true&JigyosyoCd=3451780013-00&ServiceCd=140&Type=search", "url2": "http://www.aiai-fukushi.net/saburo/" }, "geometry": { "type": "Point", "coordinates": [ 133.187687200000028, 34.5443113 ] } },
{ "type": "Feature", "properties": { "内容": "医療法人同仁会　府中中央内科病院【訪問リハビリテーション】広島県府中市高木町４０２", "url": "https://www.kaigokensaku.mhlw.go.jp/34/index.php?action_kouhyou_detail_004_kani=true&JigyosyoCd=3411710498-00&ServiceCd=140&Type=search", "url2": "http://www.doujin-hosp.jp" }, "geometry": { "type": "Point", "coordinates": [ 133.243492337434418, 34.564749242321767 ] } },
{ "type": "Feature", "properties": { "内容": "なんば医院【訪問リハビリテーション】広島県府中市土生町1572-2", "url": "https://www.kaigokensaku.mhlw.go.jp/34/index.php?action_kouhyou_detail_004_kani=true&JigyosyoCd=3411710639-00&ServiceCd=140&Type=search", "url2": "https://namba-iin.com/" }, "geometry": { "type": "Point", "coordinates": [ 133.230659800000012, 34.5711295 ] } },
{ "type": "Feature", "properties": { "内容": "三次神経内科クリニック花の里【訪問リハビリテーション】広島県三次市十日市東四丁目３番10号", "url": "https://www.kaigokensaku.mhlw.go.jp/34/index.php?action_kouhyou_detail_004_kani=true&JigyosyoCd=3411910890-00&ServiceCd=140&Type=search", "url2": "http:/mifukai.jp/" }, "geometry": { "type": "Point", "coordinates": [ 132.861750900000061, 34.8045935 ] } },
{ "type": "Feature", "properties": { "内容": "介護老人保健施設リカバリーセンター章仁苑【訪問リハビリテーション】広島県三次市和知町１１８００番地２１", "url": "https://www.kaigokensaku.mhlw.go.jp/34/index.php?action_kouhyou_detail_004_kani=true&JigyosyoCd=3451980027-00&ServiceCd=140&Type=search", "url2": "http://www.shoujin.or.jp" }, "geometry": { "type": "Point", "coordinates": [ 132.920893591540562, 34.798781139383955 ] } },
{ "type": "Feature", "properties": { "内容": "医療法人社団岡崎医院【訪問リハビリテーション】広島県三次市十日市中二丁目14番33号", "url": "https://www.kaigokensaku.mhlw.go.jp/34/index.php?action_kouhyou_detail_004_kani=true&JigyosyoCd=3411910213-00&ServiceCd=140&Type=search", "url2": "http://www.or-okazaki.jp/" }, "geometry": { "type": "Point", "coordinates": [ 132.849593599999906, 34.8054876 ] } },
{ "type": "Feature", "properties": { "内容": "老人保健施設ピレネ【訪問リハビリテーション】三次市粟屋町1743-8", "url": "https://www.kaigokensaku.mhlw.go.jp/34/index.php?action_kouhyou_detail_004_kani=true&JigyosyoCd=3451980019-00&ServiceCd=140&Type=search", "url2": "https://sinwakai340.e-doctor.info/pirene/" }, "geometry": { "type": "Point", "coordinates": [ 132.836353, 34.8102089 ] } },
{ "type": "Feature", "properties": { "内容": "三次地区医師会老人保健施設あさぎり【訪問リハビリテーション】三次市栗屋町柳迫1649-1", "url": "https://www.kaigokensaku.mhlw.go.jp/34/index.php?action_kouhyou_detail_004_kani=true&JigyosyoCd=3451980043-00&ServiceCd=140&Type=search", "url2": null }, "geometry": { "type": "Point", "coordinates": [ 132.836572, 34.807662 ] } },
{ "type": "Feature", "properties": { "内容": "三次地区医療センター【訪問リハビリテーション】広島県三次市十日市東三丁目16-1", "url": "https://www.kaigokensaku.mhlw.go.jp/34/index.php?action_kouhyou_detail_004_kani=true&JigyosyoCd=3411910627-00&ServiceCd=140&Type=search", "url2": "https://miyoshi.hiroshima.med.or.jp/" }, "geometry": { "type": "Point", "coordinates": [ 132.860427199999975, 34.8101754 ] } },
{ "type": "Feature", "properties": { "内容": "庄原市立西城市民病院【訪問リハビリテーション】庄原市西城町中野1339", "url": "https://www.kaigokensaku.mhlw.go.jp/34/index.php?action_kouhyou_detail_004_kani=true&JigyosyoCd=3412110417-00&ServiceCd=140&Type=search", "url2": null }, "geometry": { "type": "Point", "coordinates": [ 133.1158322, 34.939795 ] } },
{ "type": "Feature", "properties": { "内容": "介護老人保健施設こぶしの里【訪問リハビリテーション】広島県庄原市東城町川東152-4", "url": "https://www.kaigokensaku.mhlw.go.jp/34/index.php?action_kouhyou_detail_004_kani=true&JigyosyoCd=3452180031-00&ServiceCd=140&Type=search", "url2": "http://keijinkai-swc.or.jp" }, "geometry": { "type": "Point", "coordinates": [ 133.2741411, 34.9021028 ] } },
{ "type": "Feature", "properties": { "内容": "医療法人社団増原会東城病院【訪問リハビリテーション】広島県庄原市東城町川東1463-1", "url": "https://www.kaigokensaku.mhlw.go.jp/34/index.php?action_kouhyou_detail_004_kani=true&JigyosyoCd=3414910129-00&ServiceCd=140&Type=search", "url2": "http://toujyo.or.jp" }, "geometry": { "type": "Point", "coordinates": [ 133.274660400000016, 34.8973292 ] } },
{ "type": "Feature", "properties": { "内容": "介護老人保健施設愛生苑【訪問リハビリテーション】広島県庄原市上原町6810-1", "url": "https://www.kaigokensaku.mhlw.go.jp/34/index.php?action_kouhyou_detail_004_kani=true&JigyosyoCd=3452180015-00&ServiceCd=140&Type=search", "url2": "http://seijin-kai.com/" }, "geometry": { "type": "Point", "coordinates": [ 133.003583190042434, 34.853338131923238 ] } },
{ "type": "Feature", "properties": { "内容": "介護老人保健施設　ゆうゆ【訪問リハビリテーション】広島県大竹市玖波５－２－２", "url": "https://www.kaigokensaku.mhlw.go.jp/34/index.php?action_kouhyou_detail_004_kani=true&JigyosyoCd=3452380011-00&ServiceCd=140&Type=search", "url2": "https://www.tijinkai.or.jp" }, "geometry": { "type": "Point", "coordinates": [ 132.223838399999977, 34.2573222 ] } },
{ "type": "Feature", "properties": { "内容": "友安クリニック【訪問リハビリテーション】広島県東広島市西条町寺家字前谷1319-1", "url": "https://www.kaigokensaku.mhlw.go.jp/34/index.php?action_kouhyou_detail_004_kani=true&JigyosyoCd=3412511994-00&ServiceCd=140&Type=search", "url2": "http://tomoyasuclinicmain.web.fc2.com" }, "geometry": { "type": "Point", "coordinates": [ 132.719569, 34.420535 ] } },
{ "type": "Feature", "properties": { "内容": "真愛病院【訪問リハビリテーション】広島県東広島市黒瀬町兼広279番地", "url": "https://www.kaigokensaku.mhlw.go.jp/34/index.php?action_kouhyou_detail_004_kani=true&JigyosyoCd=3413710793-00&ServiceCd=140&Type=search", "url2": "https://shin-ai-hp.jp/" }, "geometry": { "type": "Point", "coordinates": [ 132.6598778, 34.321604 ] } },
{ "type": "Feature", "properties": { "内容": "東広島整形外科クリニック【訪問リハビリテーション】東広島市西条町御薗宇4281－1東広島クリニックビル", "url": "https://www.kaigokensaku.mhlw.go.jp/34/index.php?action_kouhyou_detail_004_kani=true&JigyosyoCd=3412511812-00&ServiceCd=140&Type=search", "url2": "http://www.hmh.or.jp/seikei/" }, "geometry": { "type": "Point", "coordinates": [ 132.751187499999986, 34.4067856 ] } },
{ "type": "Feature", "properties": { "内容": "あきまろ園　訪問リハビリテーション事業所【訪問リハビリテーション】東広島市安芸津町風早497番地41老人保健施設あきまろ園", "url": "https://www.kaigokensaku.mhlw.go.jp/34/index.php?action_kouhyou_detail_004_kani=true&JigyosyoCd=3472501901-00&ServiceCd=140&Type=search", "url2": "http://hakujukai.jp" }, "geometry": { "type": "Point", "coordinates": [ 132.7852206, 34.3164103 ] } },
{ "type": "Feature", "properties": { "内容": "木阪病院【訪問リハビリテーション】東広島市西条町土与丸城野橋1235番地", "url": "https://www.kaigokensaku.mhlw.go.jp/34/index.php?action_kouhyou_detail_004_kani=true&JigyosyoCd=3412510087-00&ServiceCd=140&Type=search", "url2": "http://www.kisaka-hp.or.jp" }, "geometry": { "type": "Point", "coordinates": [ 132.757800299999985, 34.4273665 ] } },
{ "type": "Feature", "properties": { "内容": "井野口病院【訪問リハビリテーション】広島県東広島市西条土与丸六丁目1番91号", "url": "https://www.kaigokensaku.mhlw.go.jp/34/index.php?action_kouhyou_detail_004_kani=true&JigyosyoCd=3412510962-00&ServiceCd=140&Type=search", "url2": "http://inokuchi.or.jp/" }, "geometry": { "type": "Point", "coordinates": [ 132.7523845, 34.4269375 ] } },
{ "type": "Feature", "properties": { "内容": "医療法人社団親心会　小西脳外科内科医院【訪問リハビリテーション】広島県東広島市高屋町造賀2957番地1", "url": "https://www.kaigokensaku.mhlw.go.jp/34/index.php?action_kouhyou_detail_004_kani=true&JigyosyoCd=3412511234-00&ServiceCd=140&Type=search", "url2": null }, "geometry": { "type": "Point", "coordinates": [ 132.764206, 34.4848456 ] } },
{ "type": "Feature", "properties": { "内容": "のぞみ整形外科クリニック西条【訪問リハビリテーション】東広島市西条町助実1182-1", "url": "https://www.kaigokensaku.mhlw.go.jp/34/index.php?action_kouhyou_detail_004_kani=true&JigyosyoCd=3412511481-00&ServiceCd=140&Type=search", "url2": "http://nozomi-clinic.jp/" }, "geometry": { "type": "Point", "coordinates": [ 132.7554867, 34.4249668 ] } },
{ "type": "Feature", "properties": { "内容": "のぞみ整形外科クリニック寺家【訪問リハビリテーション】広島県東広島市西条町寺家4720", "url": "https://www.kaigokensaku.mhlw.go.jp/34/index.php?action_kouhyou_detail_004_kani=true&JigyosyoCd=3412512166-00&ServiceCd=140&Type=search", "url2": "https://www.nozomi-clinic.jp/" }, "geometry": { "type": "Point", "coordinates": [ 132.7232617, 34.4370911 ] } },
{ "type": "Feature", "properties": { "内容": "西条中央病院【訪問リハビリテーション】東広島市西条昭和町１２番４０号", "url": "https://www.kaigokensaku.mhlw.go.jp/34/index.php?action_kouhyou_detail_004_kani=true&JigyosyoCd=3412511309-00&ServiceCd=140&Type=search", "url2": "http://www.saijo-c-hp.com" }, "geometry": { "type": "Point", "coordinates": [ 132.743065200000046, 34.4238057 ] } },
{ "type": "Feature", "properties": { "内容": "大野浦病院【訪問リハビリテーション】廿日市市丸石二丁目3-35", "url": "https://www.kaigokensaku.mhlw.go.jp/34/index.php?action_kouhyou_detail_004_kani=true&JigyosyoCd=3413312335-00&ServiceCd=140&Type=search", "url2": "http://www.onoura.or.jp" }, "geometry": { "type": "Point", "coordinates": [ 132.261346600000024, 34.2750849 ] } },
{ "type": "Feature", "properties": { "内容": "訪問リハビリテーション事業所原【訪問リハビリテーション】広島県廿日市市原926-1", "url": "https://www.kaigokensaku.mhlw.go.jp/34/index.php?action_kouhyou_detail_004_kani=true&JigyosyoCd=3452780038-00&ServiceCd=140&Type=search", "url2": "https://www.misasakai.or.jp/" }, "geometry": { "type": "Point", "coordinates": [ 132.2998033, 34.3682635 ] } },
{ "type": "Feature", "properties": { "内容": "あまのクリニック【訪問リハビリテーション】広島県廿日市市串戸5丁目1－37あまのクリニック", "url": "https://www.kaigokensaku.mhlw.go.jp/34/index.php?action_kouhyou_detail_004_kani=true&JigyosyoCd=3412710745-00&ServiceCd=140&Type=search", "url2": "http://amanohospital.jp/" }, "geometry": { "type": "Point", "coordinates": [ 132.320709399999942, 34.3498547 ] } },
{ "type": "Feature", "properties": { "内容": "介護老人保健施設ひまわり【訪問リハビリテーション】広島県廿日市市宮内字佐原田４２１１番地４", "url": "https://www.kaigokensaku.mhlw.go.jp/34/index.php?action_kouhyou_detail_004_kani=true&JigyosyoCd=3452780012-00&ServiceCd=140&Type=search", "url2": "http://www.miyauchi.or.jp/" }, "geometry": { "type": "Point", "coordinates": [ 132.298939038692254, 34.339823072490809 ] } },
{ "type": "Feature", "properties": { "内容": "大野東クリニック【訪問リハビリテーション】広島県廿日市市大野下更地1809-9", "url": "https://www.kaigokensaku.mhlw.go.jp/34/index.php?action_kouhyou_detail_004_kani=true&JigyosyoCd=3412711305-00&ServiceCd=140&Type=search", "url2": null }, "geometry": { "type": "Point", "coordinates": [ 132.288736032944712, 34.31203090591972 ] } },
{ "type": "Feature", "properties": { "内容": "大田整形外科【訪問リハビリテーション】広島県廿日市市駅前4-28", "url": "https://www.kaigokensaku.mhlw.go.jp/34/index.php?action_kouhyou_detail_004_kani=true&JigyosyoCd=3412711438-00&ServiceCd=140&Type=search", "url2": "https://hatsukaichi-otaseikei.com" }, "geometry": { "type": "Point", "coordinates": [ 132.3362143, 34.3575595 ] } },
{ "type": "Feature", "properties": { "内容": "廿日市記念病院【訪問リハビリテーション】廿日市市陽光台5丁目12番", "url": "https://www.kaigokensaku.mhlw.go.jp/34/index.php?action_kouhyou_detail_004_kani=true&JigyosyoCd=3412710752-00&ServiceCd=140&Type=search", "url2": "http://www.seifu.or.jp/hmh/index.html" }, "geometry": { "type": "Point", "coordinates": [ 132.308310300000016, 34.3562205 ] } },
{ "type": "Feature", "properties": { "内容": "医療法人ハンス宮内総合クリニック【訪問リハビリテーション】広島県廿日市市宮内3丁目5-32", "url": "https://www.kaigokensaku.mhlw.go.jp/34/index.php?action_kouhyou_detail_004_kani=true&JigyosyoCd=3412711230-00&ServiceCd=140&Type=search", "url2": "http://www.hns.or.jp/miyauchi-clinic/" }, "geometry": { "type": "Point", "coordinates": [ 132.311311400000022, 34.347957500000035 ] } },
{ "type": "Feature", "properties": { "内容": "こだま整形外科医院【訪問リハビリテーション】安芸高田市吉田町常友３４１－１", "url": "https://www.kaigokensaku.mhlw.go.jp/34/index.php?action_kouhyou_detail_004_kani=true&JigyosyoCd=3413610878-00&ServiceCd=140&Type=search", "url2": "http://aratamakai.web.fc2.com/" }, "geometry": { "type": "Point", "coordinates": [ 132.699932600000011, 34.6618718 ] } },
{ "type": "Feature", "properties": { "内容": "安芸高田やちよクリニック【訪問リハビリテーション】広島県安芸高田市八千代町勝田４４８", "url": "https://www.kaigokensaku.mhlw.go.jp/34/index.php?action_kouhyou_detail_004_kani=true&JigyosyoCd=3413610951-00&ServiceCd=140&Type=search", "url2": "http://merry-house.jp/" }, "geometry": { "type": "Point", "coordinates": [ 132.624844899999971, 34.637226800000015 ] } },
{ "type": "Feature", "properties": { "内容": "澤医院【訪問リハビリテーション】広島県江田島市大柿町小古江６６８－２", "url": "https://www.kaigokensaku.mhlw.go.jp/34/index.php?action_kouhyou_detail_004_kani=true&JigyosyoCd=3412910048-00&ServiceCd=140&Type=search", "url2": null }, "geometry": { "type": "Point", "coordinates": [ 132.456174499999946, 34.181129799999979 ] } },
{ "type": "Feature", "properties": { "内容": "青木病院【訪問リハビリテーション】江田島市江田島町中央4-17-10", "url": "https://www.kaigokensaku.mhlw.go.jp/34/index.php?action_kouhyou_detail_004_kani=true&JigyosyoCd=3413110143-00&ServiceCd=140&Type=search", "url2": "http://www.jinpuukai.or.jp" }, "geometry": { "type": "Point", "coordinates": [ 132.4785958, 34.2370397 ] } },
{ "type": "Feature", "properties": { "内容": "島の病院おおたに【訪問リハビリテーション】広島県江田島市能美町中町4711", "url": "https://www.kaigokensaku.mhlw.go.jp/34/index.php?action_kouhyou_detail_004_kani=true&JigyosyoCd=3412910089-00&ServiceCd=140&Type=search", "url2": "http://otani.or.jp/" }, "geometry": { "type": "Point", "coordinates": [ 132.452505301445058, 34.225974332120643 ] } },
{ "type": "Feature", "properties": { "内容": "医療法人社団　吉田会　吉田病院【訪問リハビリテーション】広島県江田島市江田島町津久茂2-6-2", "url": "https://www.kaigokensaku.mhlw.go.jp/34/index.php?action_kouhyou_detail_004_kani=true&JigyosyoCd=3413110838-00&ServiceCd=140&Type=search", "url2": null }, "geometry": { "type": "Point", "coordinates": [ 132.4493675, 34.2489382 ] } },
{ "type": "Feature", "properties": { "内容": "医療法人社団はまい会　大君浜井病院【訪問リハビリテーション】江田島市大柿町大君962-1", "url": "https://www.kaigokensaku.mhlw.go.jp/34/index.php?action_kouhyou_detail_004_kani=true&JigyosyoCd=3413311972-00&ServiceCd=140&Type=search", "url2": null }, "geometry": { "type": "Point", "coordinates": [ 132.478936699999963, 34.1683202 ] } },
{ "type": "Feature", "properties": { "内容": "太田整形外科【訪問リハビリテーション】広島県安芸郡府中町大通2丁目10-8", "url": "https://www.kaigokensaku.mhlw.go.jp/34/index.php?action_kouhyou_detail_004_kani=true&JigyosyoCd=3413211651-00&ServiceCd=140&Type=search", "url2": "https://otaseikeigeka-houmon.jimdofree.com" }, "geometry": { "type": "Point", "coordinates": [ 132.5034053, 34.3910975 ] } },
{ "type": "Feature", "properties": { "内容": "介護老人保健施設さくら【訪問リハビリテーション】広島県安芸郡海田町堀川町２番２３号", "url": "https://www.kaigokensaku.mhlw.go.jp/34/index.php?action_kouhyou_detail_004_kani=true&JigyosyoCd=3453280020-00&ServiceCd=140&Type=search", "url2": null }, "geometry": { "type": "Point", "coordinates": [ 132.5310775, 34.3683147 ] } },
{ "type": "Feature", "properties": { "内容": "済生会広島病院【訪問リハビリテーション】広島県安芸郡坂町北新地2丁目3番10号", "url": "https://www.kaigokensaku.mhlw.go.jp/34/index.php?action_kouhyou_detail_004_kani=true&JigyosyoCd=3413111190-00&ServiceCd=140&Type=search", "url2": "http://www.saiseikai.com" }, "geometry": { "type": "Point", "coordinates": [ 132.518643600000019, 34.3507891 ] } },
{ "type": "Feature", "properties": { "内容": "北広島町雄鹿原診療所【訪問リハビリテーション】山県郡北広島町荒神原200番地", "url": "https://www.kaigokensaku.mhlw.go.jp/34/index.php?action_kouhyou_detail_004_kani=true&JigyosyoCd=3413510078-00&ServiceCd=140&Type=search", "url2": null }, "geometry": { "type": "Point", "coordinates": [ 132.250262600000042, 34.7296775 ] } },
{ "type": "Feature", "properties": { "内容": "医療法人社団　慶寿会　千代田中央病院【訪問リハビリテーション】広島県山県郡北広島町有田1192", "url": "https://www.kaigokensaku.mhlw.go.jp/34/index.php?action_kouhyou_detail_004_kani=true&JigyosyoCd=3413510615-00&ServiceCd=140&Type=search", "url2": "http://www.cch.or.jp/" }, "geometry": { "type": "Point", "coordinates": [ 132.53903, 34.673760700000024 ] } },
{ "type": "Feature", "properties": { "内容": "大朝ふるさと病院【訪問リハビリテーション】広島県山県郡北広島町新庄2147番地の1", "url": "https://www.kaigokensaku.mhlw.go.jp/34/index.php?action_kouhyou_detail_004_kani=true&JigyosyoCd=3413510631-00&ServiceCd=140&Type=search", "url2": "http://ooasafurusato.jp/" }, "geometry": { "type": "Point", "coordinates": [ 132.486097199999989, 34.7631477 ] } },
{ "type": "Feature", "properties": { "内容": "公立世羅中央病院【訪問リハビリテーション】広島県世羅郡世羅町大字本郷９１８－３", "url": "https://www.kaigokensaku.mhlw.go.jp/34/index.php?action_kouhyou_detail_004_kani=true&JigyosyoCd=3414210025-00&ServiceCd=140&Type=search", "url2": "http://www.serachuo-hp.jp/" }, "geometry": { "type": "Point", "coordinates": [ 133.045370600000012, 34.5864165 ] } },
{ "type": "Feature", "properties": { "内容": "神石高原町立病院【訪問リハビリテーション】広島県神石郡神石高原町小畠1709-3", "url": "https://www.kaigokensaku.mhlw.go.jp/34/index.php?action_kouhyou_detail_004_kani=true&JigyosyoCd=3414610299-00&ServiceCd=140&Type=search", "url2": "http://www.youseikai-grp.jp/jth/" }, "geometry": { "type": "Point", "coordinates": [ 133.2509787, 34.7030611 ] } }
]
}
