{
"type": "FeatureCollection",
"name": "geo_34_介護医療院",
"crs": { "type": "name", "properties": { "name": "urn:ogc:def:crs:OGC:1.3:CRS84" } },
"features": [
{ "type": "Feature", "properties": { "内容": "山﨑病院介護医療院【介護医療院】広島県広島市東区上温品1丁目24-9", "url": "https://www.kaigokensaku.mhlw.go.jp/34/index.php?action_kouhyou_detail_004_kani=true&JigyosyoCd=34B0100012-00&ServiceCd=550&Type=search", "url2": "https://takamasa.or.jp/" }, "geometry": { "type": "Point", "coordinates": [ 132.5123701, 34.4216571 ] } },
{ "type": "Feature", "properties": { "内容": "槙坪病院　介護医療院【介護医療院】広島県広島市東区光町一丁目１４番２号", "url": "https://www.kaigokensaku.mhlw.go.jp/34/index.php?action_kouhyou_detail_004_kani=true&JigyosyoCd=34B0100038-00&ServiceCd=550&Type=search", "url2": "http://www.makitsubo-h.net/" }, "geometry": { "type": "Point", "coordinates": [ 132.48016770000001, 34.3988851 ] } },
{ "type": "Feature", "properties": { "内容": "戸坂外科医院介護医療院【介護医療院】広島県広島市東区戸坂千足二丁目５番１６号", "url": "https://www.kaigokensaku.mhlw.go.jp/34/index.php?action_kouhyou_detail_004_kani=true&JigyosyoCd=34B0100046-00&ServiceCd=550&Type=search", "url2": "http://www.hesaka-geka.jp/" }, "geometry": { "type": "Point", "coordinates": [ 132.4850768, 34.4379883 ] } },
{ "type": "Feature", "properties": { "内容": "広島シーサイド病院介護医療院【介護医療院】広島県広島市南区元宇品町26番20号", "url": "https://www.kaigokensaku.mhlw.go.jp/34/index.php?action_kouhyou_detail_004_kani=true&JigyosyoCd=34B0100020-00&ServiceCd=550&Type=search", "url2": "http://www.ss.wadoukai.jp/" }, "geometry": { "type": "Point", "coordinates": [ 132.459085499999986, 34.3485727 ] } },
{ "type": "Feature", "properties": { "内容": "力田病院すずがみね介護医療院【介護医療院】広島県広島市西区鈴が峰町14番20号", "url": "https://www.kaigokensaku.mhlw.go.jp/34/index.php?action_kouhyou_detail_004_kani=true&JigyosyoCd=34B0200036-00&ServiceCd=550&Type=search", "url2": "https://www.gyokushokai1996.com/kaigo.html" }, "geometry": { "type": "Point", "coordinates": [ 132.397127200000028, 34.382170200000026 ] } },
{ "type": "Feature", "properties": { "内容": "長崎病院介護医療院【介護医療院】広島県広島市西区横川新町３番１１号", "url": "https://www.kaigokensaku.mhlw.go.jp/34/index.php?action_kouhyou_detail_004_kani=true&JigyosyoCd=34B0200028-00&ServiceCd=550&Type=search", "url2": "http://www.nagasaki-hp.jp" }, "geometry": { "type": "Point", "coordinates": [ 132.446957800000064, 34.4091696 ] } },
{ "type": "Feature", "properties": { "内容": "介護医療院コムラ【介護医療院】広島県広島市安佐南区相田1-16-29", "url": "https://www.kaigokensaku.mhlw.go.jp/34/index.php?action_kouhyou_detail_004_kani=true&JigyosyoCd=34B0200051-00&ServiceCd=550&Type=search", "url2": "https://www.komura-hosp.com/" }, "geometry": { "type": "Point", "coordinates": [ 132.456929300000013, 34.4697759 ] } },
{ "type": "Feature", "properties": { "内容": "介護医療院ひいろ【介護医療院】広島県広島市佐伯区坪井三丁目８１８番地の１", "url": "https://www.kaigokensaku.mhlw.go.jp/34/index.php?action_kouhyou_detail_004_kani=true&JigyosyoCd=34B0200010-00&ServiceCd=550&Type=search", "url2": "http://www.pia-gr.or.jp/pia/hiiro/" }, "geometry": { "type": "Point", "coordinates": [ 132.334652799999958, 34.3822723 ] } },
{ "type": "Feature", "properties": { "内容": "広島グリーンヒル病院介護医療院【介護医療院】広島県広島市佐伯区五日市町下河内188-6広島グリーンヒル病院介護医療院　6階・7階・8階", "url": "https://www.kaigokensaku.mhlw.go.jp/34/index.php?action_kouhyou_detail_004_kani=true&JigyosyoCd=34B0200044-00&ServiceCd=550&Type=search", "url2": "http://www.gh.wadoukai.jp" }, "geometry": { "type": "Point", "coordinates": [ 132.3532965, 34.4080047 ] } },
{ "type": "Feature", "properties": { "内容": "桧田病院介護医療院【介護医療院】広島県広島市佐伯区五日市中央一丁目１番32号", "url": "https://www.kaigokensaku.mhlw.go.jp/34/index.php?action_kouhyou_detail_004_kani=true&JigyosyoCd=34B0200069-00&ServiceCd=550&Type=search", "url2": "http://www.hinokida.com" }, "geometry": { "type": "Point", "coordinates": [ 132.355713400000013, 34.3739281 ] } },
{ "type": "Feature", "properties": { "内容": "マッターホルン介護医療院【介護医療院】広島県呉市中通一丁目５番２５号", "url": "https://www.kaigokensaku.mhlw.go.jp/34/index.php?action_kouhyou_detail_004_kani=true&JigyosyoCd=34B0500047-00&ServiceCd=550&Type=search", "url2": "http://www.matterhorn-hospital.jp/" }, "geometry": { "type": "Point", "coordinates": [ 132.5625667, 34.2422505 ] } },
{ "type": "Feature", "properties": { "内容": "医療法人社団有信会呉記念病院介護医療院【介護医療院】広島県呉市郷原町2379番地42号", "url": "https://www.kaigokensaku.mhlw.go.jp/34/index.php?action_kouhyou_detail_004_kani=true&JigyosyoCd=34B0500021-00&ServiceCd=550&Type=search", "url2": "https://www.kurekinen.jp" }, "geometry": { "type": "Point", "coordinates": [ 132.6519792, 34.305693400000038 ] } },
{ "type": "Feature", "properties": { "内容": "介護医療院グリーン三条【介護医療院】広島県呉市三条1丁目3番14号", "url": "https://www.kaigokensaku.mhlw.go.jp/34/index.php?action_kouhyou_detail_004_kani=true&JigyosyoCd=34B0500013-00&ServiceCd=550&Type=search", "url2": "http://nakagawakai.jp/publics/index/69/" }, "geometry": { "type": "Point", "coordinates": [ 132.552384504368518, 34.245672495370009 ] } },
{ "type": "Feature", "properties": { "内容": "介護医療院住吉浜【介護医療院】広島県呉市下蒲刈町下島小地蔵２４９８番地", "url": "https://www.kaigokensaku.mhlw.go.jp/34/index.php?action_kouhyou_detail_004_kani=true&JigyosyoCd=34B0500039-00&ServiceCd=550&Type=search", "url2": "https://www.sumiyoshihama-hospital.com/" }, "geometry": { "type": "Point", "coordinates": [ 132.678935295462253, 34.182937339081882 ] } },
{ "type": "Feature", "properties": { "内容": "呉芸南病院介護医療院【介護医療院】広島県呉市阿賀中央6丁目7番24号", "url": "https://www.kaigokensaku.mhlw.go.jp/34/index.php?action_kouhyou_detail_004_kani=true&JigyosyoCd=34B0500054-00&ServiceCd=550&Type=search", "url2": null }, "geometry": { "type": "Point", "coordinates": [ 132.59848070000001, 34.2374976 ] } },
{ "type": "Feature", "properties": { "内容": "安田介護医療院【介護医療院】広島県竹原市下野町3136番地", "url": "https://www.kaigokensaku.mhlw.go.jp/34/index.php?action_kouhyou_detail_004_kani=true&JigyosyoCd=34B0700019-00&ServiceCd=550&Type=search", "url2": "http://www.yasudabyouin.com/" }, "geometry": { "type": "Point", "coordinates": [ 132.900398900000027, 34.3526736 ] } },
{ "type": "Feature", "properties": { "内容": "社会医療法人里仁会　介護医療院仁生苑【介護医療院】広島県三原市皆実3丁目3-28", "url": "https://www.kaigokensaku.mhlw.go.jp/34/index.php?action_kouhyou_detail_004_kani=true&JigyosyoCd=34B0900015-00&ServiceCd=550&Type=search", "url2": "http://www.rijinen.jp/" }, "geometry": { "type": "Point", "coordinates": [ 133.066237799999953, 34.3914731 ] } },
{ "type": "Feature", "properties": { "内容": "社会医療法人　里仁会　介護医療院　白龍湖【介護医療院】広島県三原市大和町和木１５０４－１", "url": "https://www.kaigokensaku.mhlw.go.jp/34/index.php?action_kouhyou_detail_004_kani=true&JigyosyoCd=34B0900023-00&ServiceCd=550&Type=search", "url2": "http://rijinkai.or.jp/" }, "geometry": { "type": "Point", "coordinates": [ 132.922797800000012, 34.5113428 ] } },
{ "type": "Feature", "properties": { "内容": "医療法人仁康会本郷中央病院介護医療院【介護医療院】広島県三原市下北方1-7-30医療法人仁康会本郷中央病院介護医療院", "url": "https://www.kaigokensaku.mhlw.go.jp/34/index.php?action_kouhyou_detail_004_kani=true&JigyosyoCd=34B0900031-00&ServiceCd=550&Type=search", "url2": "http://www.jinkokai.jp/hongou/index.php" }, "geometry": { "type": "Point", "coordinates": [ 132.9752527, 34.4063385 ] } },
{ "type": "Feature", "properties": { "内容": "ながい介護医療院【介護医療院】広島県尾道市瀬戸田町瀬戸田349-7", "url": "https://www.kaigokensaku.mhlw.go.jp/34/index.php?action_kouhyou_detail_004_kani=true&JigyosyoCd=34B1100029-00&ServiceCd=550&Type=search", "url2": null }, "geometry": { "type": "Point", "coordinates": [ 133.0857542, 34.3030533 ] } },
{ "type": "Feature", "properties": { "内容": "介護医療院　よしはら内科外科リハビリテーションクリニック【介護医療院】広島県尾道市向東町８６８１－１", "url": "https://www.kaigokensaku.mhlw.go.jp/34/index.php?action_kouhyou_detail_004_kani=true&JigyosyoCd=34B1100037-00&ServiceCd=550&Type=search", "url2": "https://www.yoshiharamedicalgroup.com/" }, "geometry": { "type": "Point", "coordinates": [ 133.221217700000039, 34.3997334 ] } },
{ "type": "Feature", "properties": { "内容": "山本病院介護医療院【介護医療院】広島県尾道市高須町７３５番地", "url": "https://www.kaigokensaku.mhlw.go.jp/34/index.php?action_kouhyou_detail_004_kani=true&JigyosyoCd=34B1100045-00&ServiceCd=550&Type=search", "url2": "http://www.yamamoto-hospital.jp" }, "geometry": { "type": "Point", "coordinates": [ 133.232166164418032, 34.437704545554311 ] } },
{ "type": "Feature", "properties": { "内容": "介護医療院　灯り【介護医療院】広島県福山市赤坂町赤坂1313神原病院　4階", "url": "https://www.kaigokensaku.mhlw.go.jp/34/index.php?action_kouhyou_detail_004_kani=true&JigyosyoCd=34B1500012-00&ServiceCd=550&Type=search", "url2": "https://kambara-hp.sakura.ne.jp/akari.html" }, "geometry": { "type": "Point", "coordinates": [ 133.3029402, 34.4718867 ] } },
{ "type": "Feature", "properties": { "内容": "福山回生病院介護医療院【介護医療院】広島県福山市引野町５丁目９番２１号", "url": "https://www.kaigokensaku.mhlw.go.jp/34/index.php?action_kouhyou_detail_004_kani=true&JigyosyoCd=34B1500038-00&ServiceCd=550&Type=search", "url2": "http://www.fukuyama-kaisei.jp" }, "geometry": { "type": "Point", "coordinates": [ 133.4039702, 34.493163 ] } },
{ "type": "Feature", "properties": { "内容": "介護医療院みしま【介護医療院】広島県福山市新市町宮内186-5", "url": "https://www.kaigokensaku.mhlw.go.jp/34/index.php?action_kouhyou_detail_004_kani=true&JigyosyoCd=34B1500020-00&ServiceCd=550&Type=search", "url2": "https://mishima-iin.com" }, "geometry": { "type": "Point", "coordinates": [ 133.274559900000014, 34.5691696 ] } },
{ "type": "Feature", "properties": { "内容": "介護医療院くすもと【介護医療院】広島県福山市曙町三丁目19番18号", "url": "https://www.kaigokensaku.mhlw.go.jp/34/index.php?action_kouhyou_detail_004_kani=true&JigyosyoCd=34B1500061-00&ServiceCd=550&Type=search", "url2": "https://kusumoto.or.jp/guide/support/ward/" }, "geometry": { "type": "Point", "coordinates": [ 133.3970565, 34.4703774 ] } },
{ "type": "Feature", "properties": { "内容": "介護医療院はな【介護医療院】広島県福山市野上町2-10-29", "url": "https://www.kaigokensaku.mhlw.go.jp/34/index.php?action_kouhyou_detail_004_kani=true&JigyosyoCd=34B1500053-00&ServiceCd=550&Type=search", "url2": "https://www.kanbe.or.jp/" }, "geometry": { "type": "Point", "coordinates": [ 133.3627449, 34.4772805 ] } },
{ "type": "Feature", "properties": { "内容": "医療法人　信英会　介護医療院　デイジー港南【介護医療院】広島県福山市新涯町2丁目5番8号", "url": "https://www.kaigokensaku.mhlw.go.jp/34/index.php?action_kouhyou_detail_004_kani=true&JigyosyoCd=34B1500046-00&ServiceCd=550&Type=search", "url2": "https://shima-hp.or.jp" }, "geometry": { "type": "Point", "coordinates": [ 133.3970942, 34.462857 ] } },
{ "type": "Feature", "properties": { "内容": "介護医療院みのり【介護医療院】広島県府中市元町43番地1", "url": "https://www.kaigokensaku.mhlw.go.jp/34/index.php?action_kouhyou_detail_004_kani=true&JigyosyoCd=34B1700018-00&ServiceCd=550&Type=search", "url2": "https://www.youseikai-grp.jp/kh/" }, "geometry": { "type": "Point", "coordinates": [ 133.242575499999987, 34.5714002 ] } },
{ "type": "Feature", "properties": { "内容": "介護医療院ほのぼの【介護医療院】広島県三次市粟屋町1731", "url": "https://www.kaigokensaku.mhlw.go.jp/34/index.php?action_kouhyou_detail_004_kani=true&JigyosyoCd=34B1900014-00&ServiceCd=550&Type=search", "url2": "https://sinwakai340.e-doctor.info/honobono/" }, "geometry": { "type": "Point", "coordinates": [ 132.836483199999947, 34.8105771 ] } },
{ "type": "Feature", "properties": { "内容": "庄原同仁病院介護医療院【介護医療院】広島県庄原市川北町字久井田890番地の1", "url": "https://www.kaigokensaku.mhlw.go.jp/34/index.php?action_kouhyou_detail_004_kani=true&JigyosyoCd=34B2100010-00&ServiceCd=550&Type=search", "url2": "https://nagaekai.com/" }, "geometry": { "type": "Point", "coordinates": [ 133.0032344, 34.880595 ] } },
{ "type": "Feature", "properties": { "内容": "メープルヒル病院　介護医療院【介護医療院】広島県大竹市玖波5-2-1", "url": "https://www.kaigokensaku.mhlw.go.jp/34/index.php?action_kouhyou_detail_004_kani=true&JigyosyoCd=34B2300016-00&ServiceCd=550&Type=search", "url2": null }, "geometry": { "type": "Point", "coordinates": [ 132.2233721, 34.2567668 ] } },
{ "type": "Feature", "properties": { "内容": "介護医療院ナーシングホームふれあい【介護医療院】広島県東広島市西条町寺家7432-1", "url": "https://www.kaigokensaku.mhlw.go.jp/34/index.php?action_kouhyou_detail_004_kani=true&JigyosyoCd=34B2500029-00&ServiceCd=550&Type=search", "url2": "http://koenkai-gr.jp" }, "geometry": { "type": "Point", "coordinates": [ 132.7287356, 34.4227146 ] } },
{ "type": "Feature", "properties": { "内容": "医療法人真慈会　真愛病院介護医療院【介護医療院】広島県東広島市黒瀬町兼広279番地", "url": "https://www.kaigokensaku.mhlw.go.jp/34/index.php?action_kouhyou_detail_004_kani=true&JigyosyoCd=34B2500011-00&ServiceCd=550&Type=search", "url2": "http://www.shin-ai-hp.jp" }, "geometry": { "type": "Point", "coordinates": [ 132.659877199999983, 34.321647 ] } },
{ "type": "Feature", "properties": { "内容": "佐伯中央介護医療院【介護医療院】広島県廿日市市津田4180", "url": "https://www.kaigokensaku.mhlw.go.jp/34/index.php?action_kouhyou_detail_004_kani=true&JigyosyoCd=34B2700025-00&ServiceCd=550&Type=search", "url2": "https://www.saikichuou.jp" }, "geometry": { "type": "Point", "coordinates": [ 132.1760588, 34.3669518 ] } },
{ "type": "Feature", "properties": { "内容": "八千代病院介護医療院【介護医療院】広島県安芸高田市八千代町勝田４４８", "url": "https://www.kaigokensaku.mhlw.go.jp/34/index.php?action_kouhyou_detail_004_kani=true&JigyosyoCd=34B3600018-00&ServiceCd=550&Type=search", "url2": "http://merry-house.jp/yachiyo-hospital/" }, "geometry": { "type": "Point", "coordinates": [ 132.62474629999997, 34.6371986 ] } },
{ "type": "Feature", "properties": { "内容": "山本整形外科病院介護医療院【介護医療院】広島県安芸郡海田町堀川町2-23", "url": "https://www.kaigokensaku.mhlw.go.jp/34/index.php?action_kouhyou_detail_004_kani=true&JigyosyoCd=34B3200017-00&ServiceCd=550&Type=search", "url2": null }, "geometry": { "type": "Point", "coordinates": [ 132.5310775, 34.3683147 ] } },
{ "type": "Feature", "properties": { "内容": "安芸太田病院介護医療院【介護医療院】広島県山県郡安芸太田町大字下殿河内236番地", "url": "https://www.kaigokensaku.mhlw.go.jp/34/index.php?action_kouhyou_detail_004_kani=true&JigyosyoCd=34B3500028-00&ServiceCd=550&Type=search", "url2": "https://www.akiota.jp/site/byouinsabu/" }, "geometry": { "type": "Point", "coordinates": [ 132.2911576, 34.5864911 ] } },
{ "type": "Feature", "properties": { "内容": "大朝ふるさと病院介護医療院【介護医療院】広島県山県郡北広島町新庄2147番地の1", "url": "https://www.kaigokensaku.mhlw.go.jp/34/index.php?action_kouhyou_detail_004_kani=true&JigyosyoCd=34B3500036-00&ServiceCd=550&Type=search", "url2": "http://ooasafurusato.jp" }, "geometry": { "type": "Point", "coordinates": [ 132.486097199999989, 34.7631477 ] } }
]
}
