{
"type": "FeatureCollection",
"name": "geo_34_通所リハビリテーション",
"crs": { "type": "name", "properties": { "name": "urn:ogc:def:crs:OGC:1.3:CRS84" } },
"features": [
{ "type": "Feature", "properties": { "内容": "横山内科クリニック【通所リハビリテーション】広島市中区西十日市町1番6号", "url": "https://www.kaigokensaku.mhlw.go.jp/34/index.php?action_kouhyou_detail_004_kani=true&JigyosyoCd=3410216976-00&ServiceCd=160&Type=search", "url2": "http://www.tsubasakai.jp" }, "geometry": { "type": "Point", "coordinates": [ 132.4470397, 34.3985129 ] } },
{ "type": "Feature", "properties": { "内容": "老人保健施設平和の里【通所リハビリテーション】広島市中区加古町6-1", "url": "https://www.kaigokensaku.mhlw.go.jp/34/index.php?action_kouhyou_detail_004_kani=true&JigyosyoCd=3450180066-00&ServiceCd=160&Type=search", "url2": "http://www.heiwanosato.net" }, "geometry": { "type": "Point", "coordinates": [ 132.4496011, 34.387625 ] } },
{ "type": "Feature", "properties": { "内容": "とうぎ整形外科・リハビリクリニック【通所リハビリテーション】広島県広島市中区南竹屋町5番8号メディカルケアセンター絆2階", "url": "https://www.kaigokensaku.mhlw.go.jp/34/index.php?action_kouhyou_detail_004_kani=true&JigyosyoCd=3410112092-00&ServiceCd=160&Type=search", "url2": "https://www.kizuna-mc.jp/" }, "geometry": { "type": "Point", "coordinates": [ 132.4608926, 34.3816119 ] } },
{ "type": "Feature", "properties": { "内容": "医療法人社団　田丸整形外科【通所リハビリテーション】広島市中区羽衣町2-15", "url": "https://www.kaigokensaku.mhlw.go.jp/34/index.php?action_kouhyou_detail_004_kani=true&JigyosyoCd=3410114023-00&ServiceCd=160&Type=search", "url2": "http://tamaruseikei.com" }, "geometry": { "type": "Point", "coordinates": [ 132.449176299999948, 34.380284327573193 ] } },
{ "type": "Feature", "properties": { "内容": "廣島クリニック【通所リハビリテーション】広島県広島市中区宝町2番1号フジグラン広島4階", "url": "https://www.kaigokensaku.mhlw.go.jp/34/index.php?action_kouhyou_detail_004_kani=true&JigyosyoCd=3410123958-00&ServiceCd=160&Type=search", "url2": "https://hiroshima-clinic.jp/takaramachi" }, "geometry": { "type": "Point", "coordinates": [ 132.464321087171896, 34.386017252161452 ] } },
{ "type": "Feature", "properties": { "内容": "医療法人社団曙会シムラ病院【通所リハビリテーション】広島県広島市中区舟入町3番13号", "url": "https://www.kaigokensaku.mhlw.go.jp/34/index.php?action_kouhyou_detail_004_kani=true&JigyosyoCd=3410211183-00&ServiceCd=160&Type=search", "url2": "https://www.shimura.hospital/" }, "geometry": { "type": "Point", "coordinates": [ 132.444030973463441, 34.391825591287088 ] } },
{ "type": "Feature", "properties": { "内容": "介護老人保健施設　葵の園・広島【通所リハビリテーション】広島県広島市中区平野町３番８号介護老人保健施設　葵の園・広島", "url": "https://www.kaigokensaku.mhlw.go.jp/34/index.php?action_kouhyou_detail_004_kani=true&JigyosyoCd=3450180165-00&ServiceCd=160&Type=search", "url2": "http://www.aoikai.jp/" }, "geometry": { "type": "Point", "coordinates": [ 132.462794900000063, 34.381359 ] } },
{ "type": "Feature", "properties": { "内容": "医療法人社団おると会浜脇整形外科リハビリセンター【通所リハビリテーション】広島市中区舟入中町11番7号", "url": "https://www.kaigokensaku.mhlw.go.jp/34/index.php?action_kouhyou_detail_004_kani=true&JigyosyoCd=3470205174-00&ServiceCd=160&Type=search", "url2": "http://www.hamawaki.or.jp" }, "geometry": { "type": "Point", "coordinates": [ 132.4443152, 34.3861556 ] } },
{ "type": "Feature", "properties": { "内容": "新本クリニック整形外科【通所リハビリテーション】広島県広島市東区牛田本町６丁目１−27うしたみらいビル　5階", "url": "https://www.kaigokensaku.mhlw.go.jp/34/index.php?action_kouhyou_detail_004_kani=true&JigyosyoCd=3410125151-00&ServiceCd=160&Type=search", "url2": "https://niimotoclinic.com/" }, "geometry": { "type": "Point", "coordinates": [ 132.4674498, 34.4152308 ] } },
{ "type": "Feature", "properties": { "内容": "戸坂外科医院【通所リハビリテーション】広島市東区戸坂千足二丁目5-16", "url": "https://www.kaigokensaku.mhlw.go.jp/34/index.php?action_kouhyou_detail_004_kani=true&JigyosyoCd=3410116150-00&ServiceCd=160&Type=search", "url2": "http://www.hesaka-geka.jp/" }, "geometry": { "type": "Point", "coordinates": [ 132.485066, 34.4380065 ] } },
{ "type": "Feature", "properties": { "内容": "太田川病院【通所リハビリテーション】広島市東区戸坂千足一丁目21番25号", "url": "https://www.kaigokensaku.mhlw.go.jp/34/index.php?action_kouhyou_detail_004_kani=true&JigyosyoCd=3410116234-00&ServiceCd=160&Type=search", "url2": "http://www.otagawa-hp.com/" }, "geometry": { "type": "Point", "coordinates": [ 132.4839773, 34.4368372 ] } },
{ "type": "Feature", "properties": { "内容": "医療法人社団　聖愛会　ぎおん牛田病院付属牛田クリニック【通所リハビリテーション】広島県広島市東区牛田本町1丁目5番14号エスト牛田本町ビル1階", "url": "https://www.kaigokensaku.mhlw.go.jp/34/index.php?action_kouhyou_detail_004_kani=true&JigyosyoCd=3410121622-00&ServiceCd=160&Type=search", "url2": "https://www.smile-seiaikai.com/gionushita-hospital.html" }, "geometry": { "type": "Point", "coordinates": [ 132.471452900000031, 34.4090916 ] } },
{ "type": "Feature", "properties": { "内容": "太田川東クリニック【通所リハビリテーション】広島市東区戸坂山根一丁目24番20号", "url": "https://www.kaigokensaku.mhlw.go.jp/34/index.php?action_kouhyou_detail_004_kani=true&JigyosyoCd=3410124345-00&ServiceCd=160&Type=search", "url2": "http://www.otagawa-hp.com/otagawa_higashi/" }, "geometry": { "type": "Point", "coordinates": [ 132.489443700000038, 34.4338541 ] } },
{ "type": "Feature", "properties": { "内容": "介護老人保健施設牛田バラ苑【通所リハビリテーション】広島県広島市東区牛田新町三丁目３０番３０号", "url": "https://www.kaigokensaku.mhlw.go.jp/34/index.php?action_kouhyou_detail_004_kani=true&JigyosyoCd=3450180108-00&ServiceCd=160&Type=search", "url2": "http://www.ushita-baraen.com" }, "geometry": { "type": "Point", "coordinates": [ 132.471906399999966, 34.4240939 ] } },
{ "type": "Feature", "properties": { "内容": "介護老人保健施設ウェルフェア【通所リハビリテーション】広島市東区上温品一丁目２１－６", "url": "https://www.kaigokensaku.mhlw.go.jp/34/index.php?action_kouhyou_detail_004_kani=true&JigyosyoCd=3450180116-00&ServiceCd=160&Type=search", "url2": "http://www.takamasa.or.jp" }, "geometry": { "type": "Point", "coordinates": [ 132.51359750000006, 34.4214865 ] } },
{ "type": "Feature", "properties": { "内容": "山﨑病院介護医療院【通所リハビリテーション】広島市東区上温品1-24-9", "url": "https://www.kaigokensaku.mhlw.go.jp/34/index.php?action_kouhyou_detail_004_kani=true&JigyosyoCd=34B0100012-00&ServiceCd=160&Type=search", "url2": "http://www.takamasa.or.jp/" }, "geometry": { "type": "Point", "coordinates": [ 132.5123701, 34.4216571 ] } },
{ "type": "Feature", "properties": { "内容": "森整形外科【通所リハビリテーション】広島県広島市東区光町１丁目３－１６", "url": "https://www.kaigokensaku.mhlw.go.jp/34/index.php?action_kouhyou_detail_004_kani=true&JigyosyoCd=3410116358-00&ServiceCd=160&Type=search", "url2": null }, "geometry": { "type": "Point", "coordinates": [ 132.4832214, 34.3986818 ] } },
{ "type": "Feature", "properties": { "内容": "池田整形外科リハビリテーションクリニック【通所リハビリテーション】広島県広島市東区戸坂大上4丁目29番13号", "url": "https://www.kaigokensaku.mhlw.go.jp/34/index.php?action_kouhyou_detail_004_kani=true&JigyosyoCd=3410126084-00&ServiceCd=160&Type=search", "url2": "https://www.ikedaclinic.website" }, "geometry": { "type": "Point", "coordinates": [ 132.4944968, 34.4242144 ] } },
{ "type": "Feature", "properties": { "内容": "老人保健施設スカイバード【通所リハビリテーション】広島市東区福田町3198番地", "url": "https://www.kaigokensaku.mhlw.go.jp/34/index.php?action_kouhyou_detail_004_kani=true&JigyosyoCd=3450180058-00&ServiceCd=160&Type=search", "url2": "https://www.joukou.or.jp/shisetsu/s-bird/index.php" }, "geometry": { "type": "Point", "coordinates": [ 132.54698529999996, 34.4492898 ] } },
{ "type": "Feature", "properties": { "内容": "医療法人おかもと整形外科クリニック【通所リハビリテーション】広島県広島市東区温品7丁目5-26", "url": "https://www.kaigokensaku.mhlw.go.jp/34/index.php?action_kouhyou_detail_004_kani=true&JigyosyoCd=3410121010-00&ServiceCd=160&Type=search", "url2": "https://okamoto-seikei.jp/" }, "geometry": { "type": "Point", "coordinates": [ 132.509389700000042, 34.415998 ] } },
{ "type": "Feature", "properties": { "内容": "医療法人社団まりも会　ヒロシマ平松病院【通所リハビリテーション】広島県広島市南区比治山本町11－27", "url": "https://www.kaigokensaku.mhlw.go.jp/34/index.php?action_kouhyou_detail_004_kani=true&JigyosyoCd=3410123701-00&ServiceCd=160&Type=search", "url2": "http://www.marimokai.or.jp/" }, "geometry": { "type": "Point", "coordinates": [ 132.471155400000043, 34.3799103 ] } },
{ "type": "Feature", "properties": { "内容": "のぞみ整形外科スタジアム前クリニック【通所リハビリテーション】広島県広島市南区西蟹屋４丁目8-35", "url": "https://www.kaigokensaku.mhlw.go.jp/34/index.php?action_kouhyou_detail_004_kani=true&JigyosyoCd=3410124766-00&ServiceCd=160&Type=search", "url2": "https://www.nozomi-clinic.jp/stadium/careservice" }, "geometry": { "type": "Point", "coordinates": [ 132.4819128, 34.3909001 ] } },
{ "type": "Feature", "properties": { "内容": "介護老人保健施設ひうな荘【通所リハビリテーション】広島市南区日宇那町30番1号", "url": "https://www.kaigokensaku.mhlw.go.jp/34/index.php?action_kouhyou_detail_004_kani=true&JigyosyoCd=3450180025-00&ServiceCd=160&Type=search", "url2": "http://www.misasakai.or.jp/shisetsu/hiunaso.php" }, "geometry": { "type": "Point", "coordinates": [ 132.492701, 34.3656837 ] } },
{ "type": "Feature", "properties": { "内容": "介護老人保健施設　ｅハウス【通所リハビリテーション】広島市南区仁保一丁目６－１８", "url": "https://www.kaigokensaku.mhlw.go.jp/34/index.php?action_kouhyou_detail_004_kani=true&JigyosyoCd=3450180082-00&ServiceCd=160&Type=search", "url2": "http://www.hiroshimakosei.or.jp/" }, "geometry": { "type": "Point", "coordinates": [ 132.493689600000039, 34.3734911 ] } },
{ "type": "Feature", "properties": { "内容": "広島シーサイド病院介護医療院【通所リハビリテーション】広島市南区元宇品町26番20号", "url": "https://www.kaigokensaku.mhlw.go.jp/34/index.php?action_kouhyou_detail_004_kani=true&JigyosyoCd=34B0100020-00&ServiceCd=160&Type=search", "url2": "http://www.ss.wadoukai.jp/" }, "geometry": { "type": "Point", "coordinates": [ 132.459085499999986, 34.3485727 ] } },
{ "type": "Feature", "properties": { "内容": "医療法人社団みのりの会　田島医院【通所リハビリテーション】広島市南区宇品東一丁目4番19号田島医院２F　すこやかルーム", "url": "https://www.kaigokensaku.mhlw.go.jp/34/index.php?action_kouhyou_detail_004_kani=true&JigyosyoCd=3410117349-00&ServiceCd=160&Type=search", "url2": "http://tajima-clinic.jp/" }, "geometry": { "type": "Point", "coordinates": [ 132.468911400000025, 34.3640221 ] } },
{ "type": "Feature", "properties": { "内容": "大瀬戸リハビリ整形外科【通所リハビリテーション】広島市南区宇品御幸一丁目17番1号", "url": "https://www.kaigokensaku.mhlw.go.jp/34/index.php?action_kouhyou_detail_004_kani=true&JigyosyoCd=3410118289-00&ServiceCd=160&Type=search", "url2": "http://www.ohseto.or.jp/" }, "geometry": { "type": "Point", "coordinates": [ 132.4643423, 34.3681548 ] } },
{ "type": "Feature", "properties": { "内容": "介護老人保健施設　洋光台バラ苑【通所リハビリテーション】広島県広島市南区向洋新町一丁目１７－１７", "url": "https://www.kaigokensaku.mhlw.go.jp/34/index.php?action_kouhyou_detail_004_kani=true&JigyosyoCd=3450180017-00&ServiceCd=160&Type=search", "url2": "https://y-baraen.com/" }, "geometry": { "type": "Point", "coordinates": [ 132.51297969999996, 34.3661704 ] } },
{ "type": "Feature", "properties": { "内容": "医療法人社団　古川医院【通所リハビリテーション】広島市南区東雲本町一丁目1番2号", "url": "https://www.kaigokensaku.mhlw.go.jp/34/index.php?action_kouhyou_detail_004_kani=true&JigyosyoCd=3410114247-00&ServiceCd=160&Type=search", "url2": "http://www.furukawa-iin.com" }, "geometry": { "type": "Point", "coordinates": [ 132.4839263, 34.384326800000011 ] } },
{ "type": "Feature", "properties": { "内容": "寛田クリニック【通所リハビリテーション】広島市南区稲荷町3番20号", "url": "https://www.kaigokensaku.mhlw.go.jp/34/index.php?action_kouhyou_detail_004_kani=true&JigyosyoCd=3410118719-00&ServiceCd=160&Type=search", "url2": "http://www.hishokai.or.jp/" }, "geometry": { "type": "Point", "coordinates": [ 132.470393899999976, 34.3921191 ] } },
{ "type": "Feature", "properties": { "内容": "奥田整形外科皮膚科医院【通所リハビリテーション】広島県広島市西区井口明神１丁目１５番２１号", "url": "https://www.kaigokensaku.mhlw.go.jp/34/index.php?action_kouhyou_detail_004_kani=true&JigyosyoCd=3410214989-00&ServiceCd=160&Type=search", "url2": null }, "geometry": { "type": "Point", "coordinates": [ 132.3917277, 34.3723171 ] } },
{ "type": "Feature", "properties": { "内容": "蜂須賀整形外科【通所リハビリテーション】広島県広島市西区己斐本町2丁目12-27", "url": "https://www.kaigokensaku.mhlw.go.jp/34/index.php?action_kouhyou_detail_004_kani=true&JigyosyoCd=3410216455-00&ServiceCd=160&Type=search", "url2": "http://www.hachisukaseikei.jp/" }, "geometry": { "type": "Point", "coordinates": [ 132.426165500000025, 34.3941105 ] } },
{ "type": "Feature", "properties": { "内容": "たがしらクリニック【通所リハビリテーション】広島県広島市西区中広町2-22-21ステップ1階", "url": "https://www.kaigokensaku.mhlw.go.jp/34/index.php?action_kouhyou_detail_004_kani=true&JigyosyoCd=3410218634-00&ServiceCd=160&Type=search", "url2": "https://www.tagashira-cli.com/" }, "geometry": { "type": "Point", "coordinates": [ 132.4436617, 34.4034856 ] } },
{ "type": "Feature", "properties": { "内容": "コールメディカルクリニック広島【通所リハビリテーション】広島市西区古田台2丁目12-9", "url": "https://www.kaigokensaku.mhlw.go.jp/34/index.php?action_kouhyou_detail_004_kani=true&JigyosyoCd=3410221802-00&ServiceCd=160&Type=search", "url2": "https://call-medical-clinic.com" }, "geometry": { "type": "Point", "coordinates": [ 132.40107009999997, 34.3945572 ] } },
{ "type": "Feature", "properties": { "内容": "西広島幸楽苑【通所リハビリテーション】広島市西区田方２丁目１６番４５号", "url": "https://www.kaigokensaku.mhlw.go.jp/34/index.php?action_kouhyou_detail_004_kani=true&JigyosyoCd=3450280098-00&ServiceCd=160&Type=search", "url2": "http://ph.wadoukai.jp" }, "geometry": { "type": "Point", "coordinates": [ 132.3961342, 34.3917794 ] } },
{ "type": "Feature", "properties": { "内容": "あらき脳・循環器・リハビリクリニック【通所リハビリテーション】広島県広島市西区庚午北1丁目5番15号ARAKIHEALTHCAREPLAZA", "url": "https://www.kaigokensaku.mhlw.go.jp/34/index.php?action_kouhyou_detail_004_kani=true&JigyosyoCd=3410225530-00&ServiceCd=160&Type=search", "url2": "https://arakihp.jp/healthcareplaza/clinic" }, "geometry": { "type": "Point", "coordinates": [ 132.422874796888948, 34.391009215806022 ] } },
{ "type": "Feature", "properties": { "内容": "医療法人社団玉章会　力田病院【通所リハビリテーション】広島市西区鈴が峰町１４番２０号", "url": "https://www.kaigokensaku.mhlw.go.jp/34/index.php?action_kouhyou_detail_004_kani=true&JigyosyoCd=3410210102-00&ServiceCd=160&Type=search", "url2": "https://www.gyokushokai1996.com/rehabilitation.html" }, "geometry": { "type": "Point", "coordinates": [ 132.397112200000038, 34.3822668 ] } },
{ "type": "Feature", "properties": { "内容": "ほり整形外科【通所リハビリテーション】広島市西区草津新町二丁目6-10", "url": "https://www.kaigokensaku.mhlw.go.jp/34/index.php?action_kouhyou_detail_004_kani=true&JigyosyoCd=3410216885-00&ServiceCd=160&Type=search", "url2": "http://www.hori-seikei.com" }, "geometry": { "type": "Point", "coordinates": [ 132.394118, 34.3750454 ] } },
{ "type": "Feature", "properties": { "内容": "長崎病院【通所リハビリテーション】広島県広島市西区横川新町3番11号", "url": "https://www.kaigokensaku.mhlw.go.jp/34/index.php?action_kouhyou_detail_004_kani=true&JigyosyoCd=3410223501-00&ServiceCd=160&Type=search", "url2": "http://www.nagasaki-hp.jp" }, "geometry": { "type": "Point", "coordinates": [ 132.4469578, 34.4091696 ] } },
{ "type": "Feature", "properties": { "内容": "介護老人保健施設　ピア観音【通所リハビリテーション】広島市西区観音新町一丁目７番４０号", "url": "https://www.kaigokensaku.mhlw.go.jp/34/index.php?action_kouhyou_detail_004_kani=true&JigyosyoCd=3450280122-00&ServiceCd=160&Type=search", "url2": "http://www.jiraku.or.jp/" }, "geometry": { "type": "Point", "coordinates": [ 132.4282799, 34.3741067 ] } },
{ "type": "Feature", "properties": { "内容": "医療法人社団光仁会　梶川病院【通所リハビリテーション】広島市西区天満町8番7号", "url": "https://www.kaigokensaku.mhlw.go.jp/34/index.php?action_kouhyou_detail_004_kani=true&JigyosyoCd=3410210458-00&ServiceCd=160&Type=search", "url2": "http://www.koujinkai.org/" }, "geometry": { "type": "Point", "coordinates": [ 132.440506699999986, 34.3964269 ] } },
{ "type": "Feature", "properties": { "内容": "廣島クリニック【通所リハビリテーション】広島県広島市西区東観音町20-16", "url": "https://www.kaigokensaku.mhlw.go.jp/34/index.php?action_kouhyou_detail_004_kani=true&JigyosyoCd=3410217487-00&ServiceCd=160&Type=search", "url2": "https://hiroshima-clinic.jp/" }, "geometry": { "type": "Point", "coordinates": [ 132.438092429499903, 34.390764739551244 ] } },
{ "type": "Feature", "properties": { "内容": "リハビリテーション礼和クリニック広島【通所リハビリテーション】広島県広島市西区上天満町7-13井口家具百貨店西館4階", "url": "https://www.kaigokensaku.mhlw.go.jp/34/index.php?action_kouhyou_detail_004_kani=true&JigyosyoCd=3410224954-00&ServiceCd=160&Type=search", "url2": "https://sites.google.com/view/reiwaclinic-hiroshima" }, "geometry": { "type": "Point", "coordinates": [ 132.4389112, 34.3982059 ] } },
{ "type": "Feature", "properties": { "内容": "介護老人保健施設　三滝ひまわり【通所リハビリテーション】広島市西区三滝本町二丁目１３番３４-２号", "url": "https://www.kaigokensaku.mhlw.go.jp/34/index.php?action_kouhyou_detail_004_kani=true&JigyosyoCd=3450280130-00&ServiceCd=160&Type=search", "url2": "http://www.miyauchi.or.jp/mitaki/" }, "geometry": { "type": "Point", "coordinates": [ 132.44354450000003, 34.417813700000011 ] } },
{ "type": "Feature", "properties": { "内容": "野村病院【通所リハビリテーション】広島市安佐南区祇園二丁目42-34", "url": "https://www.kaigokensaku.mhlw.go.jp/34/index.php?action_kouhyou_detail_004_kani=true&JigyosyoCd=3410214625-00&ServiceCd=160&Type=search", "url2": "http://www.medical-park.jp" }, "geometry": { "type": "Point", "coordinates": [ 132.46523389999993, 34.4390175 ] } },
{ "type": "Feature", "properties": { "内容": "かとうクリニック【通所リハビリテーション】広島市安佐南区八木二丁目3-6", "url": "https://www.kaigokensaku.mhlw.go.jp/34/index.php?action_kouhyou_detail_004_kani=true&JigyosyoCd=3410216034-00&ServiceCd=160&Type=search", "url2": null }, "geometry": { "type": "Point", "coordinates": [ 132.497280674205058, 34.480351068009483 ] } },
{ "type": "Feature", "properties": { "内容": "医療法人社団聖愛会　ぎおん牛田病院【通所リハビリテーション】広島県広島市安佐南区西原8丁目29番24号", "url": "https://www.kaigokensaku.mhlw.go.jp/34/index.php?action_kouhyou_detail_004_kani=true&JigyosyoCd=3410222479-00&ServiceCd=160&Type=search", "url2": "https://www.smile-seiaikai.com/gionushita-hospital.html" }, "geometry": { "type": "Point", "coordinates": [ 132.470876200000021, 34.4427484 ] } },
{ "type": "Feature", "properties": { "内容": "よりしま内科外科医院【通所リハビリテーション】広島県広島市安佐南区祇園六丁目２１番１６号", "url": "https://www.kaigokensaku.mhlw.go.jp/34/index.php?action_kouhyou_detail_004_kani=true&JigyosyoCd=3410222545-00&ServiceCd=160&Type=search", "url2": "https://yorishima.com/" }, "geometry": { "type": "Point", "coordinates": [ 132.465344800000025, 34.4450752 ] } },
{ "type": "Feature", "properties": { "内容": "原田整形外科病院【通所リハビリテーション】広島県広島市安佐南区上安2-15-27", "url": "https://www.kaigokensaku.mhlw.go.jp/34/index.php?action_kouhyou_detail_004_kani=true&JigyosyoCd=3410223006-00&ServiceCd=160&Type=search", "url2": "https://harada-orthopedic.jp/" }, "geometry": { "type": "Point", "coordinates": [ 132.4448071, 34.473229 ] } },
{ "type": "Feature", "properties": { "内容": "医療法人社団　和楽会　伊藤内科医院【通所リハビリテーション】広島県広島市安佐南区伴中央4丁目7－10", "url": "https://www.kaigokensaku.mhlw.go.jp/34/index.php?action_kouhyou_detail_004_kani=true&JigyosyoCd=3410223287-00&ServiceCd=160&Type=search", "url2": "http://ito-junkanki.jp/riha/index2.html" }, "geometry": { "type": "Point", "coordinates": [ 132.4047224779099, 34.457723808373871 ] } },
{ "type": "Feature", "properties": { "内容": "メリィホスピタル【通所リハビリテーション】広島県広島市安佐南区大塚西三丁目1番20号", "url": "https://www.kaigokensaku.mhlw.go.jp/34/index.php?action_kouhyou_detail_004_kani=true&JigyosyoCd=3410224384-00&ServiceCd=160&Type=search", "url2": "http://merry-house.jp/hospital/" }, "geometry": { "type": "Point", "coordinates": [ 132.3922974, 34.4457276 ] } },
{ "type": "Feature", "properties": { "内容": "医療法人博善会長尾医院【通所リハビリテーション】広島県広島市安佐南区西原4丁目17-17ケアビレッジながお", "url": "https://www.kaigokensaku.mhlw.go.jp/34/index.php?action_kouhyou_detail_004_kani=true&JigyosyoCd=3410224558-00&ServiceCd=160&Type=search", "url2": "http://www.hakuzenkai.jp/" }, "geometry": { "type": "Point", "coordinates": [ 132.4679136, 34.4378042 ] } },
{ "type": "Feature", "properties": { "内容": "介護老人保健施設　希望の園【通所リハビリテーション】広島市安佐南区八木5丁目16-2", "url": "https://www.kaigokensaku.mhlw.go.jp/34/index.php?action_kouhyou_detail_004_kani=true&JigyosyoCd=3450280064-00&ServiceCd=160&Type=search", "url2": "https://keiaikai-asa.com/publics/index/27/" }, "geometry": { "type": "Point", "coordinates": [ 132.50271, 34.4833636 ] } },
{ "type": "Feature", "properties": { "内容": "老人保健施設　しんあい【通所リハビリテーション】広島市安佐南区伴東７丁目９－３", "url": "https://www.kaigokensaku.mhlw.go.jp/34/index.php?action_kouhyou_detail_004_kani=true&JigyosyoCd=3450280072-00&ServiceCd=160&Type=search", "url2": "https://shinaikai.hibino.or.jp" }, "geometry": { "type": "Point", "coordinates": [ 132.421206100000063, 34.4646106 ] } },
{ "type": "Feature", "properties": { "内容": "高橋内科小児科医院【通所リハビリテーション】広島市安佐南区緑井二丁目12番25号", "url": "https://www.kaigokensaku.mhlw.go.jp/34/index.php?action_kouhyou_detail_004_kani=true&JigyosyoCd=3410216091-00&ServiceCd=160&Type=search", "url2": "http://www.asuka-net.or.jp/" }, "geometry": { "type": "Point", "coordinates": [ 132.470185099999981, 34.4675117 ] } },
{ "type": "Feature", "properties": { "内容": "地主クリニック【通所リハビリテーション】広島県広島市安佐南区祇園二丁目12番19号", "url": "https://www.kaigokensaku.mhlw.go.jp/34/index.php?action_kouhyou_detail_004_kani=true&JigyosyoCd=3410222644-00&ServiceCd=160&Type=search", "url2": "http://jinushi-clinic.jp/" }, "geometry": { "type": "Point", "coordinates": [ 132.467816800000037, 34.444725200000022 ] } },
{ "type": "Feature", "properties": { "内容": "地方独立行政法人広島市立病院機構　広島市立リハビリテーション病院【通所リハビリテーション】広島市安佐南区伴南一丁目39番1号", "url": "https://www.kaigokensaku.mhlw.go.jp/34/index.php?action_kouhyou_detail_004_kani=true&JigyosyoCd=3410223592-00&ServiceCd=160&Type=search", "url2": "http://soriha-hiroshima.jp/" }, "geometry": { "type": "Point", "coordinates": [ 132.3835406, 34.4491517 ] } },
{ "type": "Feature", "properties": { "内容": "まつおか内科生活習慣病クリニック【通所リハビリテーション】広島県広島市安佐南区伴南5丁目1-1", "url": "https://www.kaigokensaku.mhlw.go.jp/34/index.php?action_kouhyou_detail_004_kani=true&JigyosyoCd=3410225092-00&ServiceCd=160&Type=search", "url2": "https://www.matsuokanaika.com" }, "geometry": { "type": "Point", "coordinates": [ 132.3771424, 34.4462674 ] } },
{ "type": "Feature", "properties": { "内容": "医療法人社団聖愛会　介護老人保健施設とやま【通所リハビリテーション】広島県広島市安佐南区沼田町吉山字風呂ノ元９８０－１", "url": "https://www.kaigokensaku.mhlw.go.jp/34/index.php?action_kouhyou_detail_004_kani=true&JigyosyoCd=3450280155-00&ServiceCd=160&Type=search", "url2": "http://www.smile-seiaikai.com/gionushita-hospital.html" }, "geometry": { "type": "Point", "coordinates": [ 132.344409300000052, 34.4668228 ] } },
{ "type": "Feature", "properties": { "内容": "サカ緑井病院【通所リハビリテーション】広島市安佐南区緑井６丁目３５番１号", "url": "https://www.kaigokensaku.mhlw.go.jp/34/index.php?action_kouhyou_detail_004_kani=true&JigyosyoCd=3410222172-00&ServiceCd=160&Type=search", "url2": "https://sakamidorii-ortho.jp/" }, "geometry": { "type": "Point", "coordinates": [ 132.481558022090212, 34.472083871261084 ] } },
{ "type": "Feature", "properties": { "内容": "小島クリニック【通所リハビリテーション】広島市安佐南区祇園四丁目８－５", "url": "https://www.kaigokensaku.mhlw.go.jp/34/index.php?action_kouhyou_detail_004_kani=true&JigyosyoCd=3410222768-00&ServiceCd=160&Type=search", "url2": "https://kojimaclinic.jp" }, "geometry": { "type": "Point", "coordinates": [ 132.455865, 34.4406006 ] } },
{ "type": "Feature", "properties": { "内容": "広島医療生活協同組合　広島共立病院【通所リハビリテーション】広島県広島市安佐南区中須2丁目19-6広島共立病院北館３階", "url": "https://www.kaigokensaku.mhlw.go.jp/34/index.php?action_kouhyou_detail_004_kani=true&JigyosyoCd=3410223683-00&ServiceCd=160&Type=search", "url2": "http://www.hiroshimairyo.or.jp" }, "geometry": { "type": "Point", "coordinates": [ 132.474482299999977, 34.4609375 ] } },
{ "type": "Feature", "properties": { "内容": "介護老人保健施設ベルローゼ【通所リハビリテーション】広島市安佐南区上安六丁目３１番１号", "url": "https://www.kaigokensaku.mhlw.go.jp/34/index.php?action_kouhyou_detail_004_kani=true&JigyosyoCd=3450280056-00&ServiceCd=160&Type=search", "url2": "http://www.igl.or.jp/kourei/daycare.html" }, "geometry": { "type": "Point", "coordinates": [ 132.444664699999947, 34.4832175 ] } },
{ "type": "Feature", "properties": { "内容": "高陽第一診療所【通所リハビリテーション】広島市安佐北区落合1丁目14番9号", "url": "https://www.kaigokensaku.mhlw.go.jp/34/index.php?action_kouhyou_detail_004_kani=true&JigyosyoCd=3410214666-00&ServiceCd=160&Type=search", "url2": "http://www.koyodaiichi.jp/" }, "geometry": { "type": "Point", "coordinates": [ 132.510676718096818, 34.472400878758272 ] } },
{ "type": "Feature", "properties": { "内容": "介護老人保健施設白木ツジマチ【通所リハビリテーション】広島市安佐北区白木町小越218番2", "url": "https://www.kaigokensaku.mhlw.go.jp/34/index.php?action_kouhyou_detail_004_kani=true&JigyosyoCd=3450280106-00&ServiceCd=160&Type=search", "url2": "https://www.misasakai.or.jp/shisetsu/izumi.php" }, "geometry": { "type": "Point", "coordinates": [ 132.662939163235478, 34.552288470097231 ] } },
{ "type": "Feature", "properties": { "内容": "医療法人社団恵正会二宮内科【通所リハビリテーション】広島市安佐北区可部5丁目14番16号", "url": "https://www.kaigokensaku.mhlw.go.jp/34/index.php?action_kouhyou_detail_004_kani=true&JigyosyoCd=3410218204-00&ServiceCd=160&Type=search", "url2": "http://www.keiseikai-nmn.net" }, "geometry": { "type": "Point", "coordinates": [ 132.509816399999977, 34.5200538 ] } },
{ "type": "Feature", "properties": { "内容": "高陽整形外科クリニック【通所リハビリテーション】広島市安佐北区口田南8丁目14-13", "url": "https://www.kaigokensaku.mhlw.go.jp/34/index.php?action_kouhyou_detail_004_kani=true&JigyosyoCd=3410221083-00&ServiceCd=160&Type=search", "url2": "http://www.lifeathlete.or.jp" }, "geometry": { "type": "Point", "coordinates": [ 132.504438199999981, 34.465062900000042 ] } },
{ "type": "Feature", "properties": { "内容": "介護老人保健施設菜の花【通所リハビリテーション】広島市安佐北区可部5丁目4-19-10", "url": "https://www.kaigokensaku.mhlw.go.jp/34/index.php?action_kouhyou_detail_004_kani=true&JigyosyoCd=3450280114-00&ServiceCd=160&Type=search", "url2": "https://nanohana-kabe.com/" }, "geometry": { "type": "Point", "coordinates": [ 132.509416500000043, 34.5214286 ] } },
{ "type": "Feature", "properties": { "内容": "中岡内科【通所リハビリテーション】広島県広島市安佐北区可部南2丁目14-14", "url": "https://www.kaigokensaku.mhlw.go.jp/34/index.php?action_kouhyou_detail_004_kani=true&JigyosyoCd=3410221323-00&ServiceCd=160&Type=search", "url2": "https://keiseikai-nmn.net/wp3/daycare_soyokaze/" }, "geometry": { "type": "Point", "coordinates": [ 132.517624200305789, 34.5032866 ] } },
{ "type": "Feature", "properties": { "内容": "介護老人保健施設ふかわ・くにくさ【通所リハビリテーション】広島市安佐北区上深川町186番地1", "url": "https://www.kaigokensaku.mhlw.go.jp/34/index.php?action_kouhyou_detail_004_kani=true&JigyosyoCd=3450280148-00&ServiceCd=160&Type=search", "url2": "https://www.kunikusa.or.jp/" }, "geometry": { "type": "Point", "coordinates": [ 132.552550699999983, 34.4734042 ] } },
{ "type": "Feature", "properties": { "内容": "高陽中央病院【通所リハビリテーション】広島県広島市安佐北区落合5丁目1－10", "url": "https://www.kaigokensaku.mhlw.go.jp/34/index.php?action_kouhyou_detail_004_kani=true&JigyosyoCd=3410213338-00&ServiceCd=160&Type=search", "url2": "https://koyochuobyouin.jimdo.com/" }, "geometry": { "type": "Point", "coordinates": [ 132.513159200000018, 34.4803809 ] } },
{ "type": "Feature", "properties": { "内容": "長久堂野村病院【通所リハビリテーション】広島市安佐北区可部南４丁目１７－３０", "url": "https://www.kaigokensaku.mhlw.go.jp/34/index.php?action_kouhyou_detail_004_kani=true&JigyosyoCd=3410214005-00&ServiceCd=160&Type=search", "url2": "http://www.chokyudo-nomura.or.jp/" }, "geometry": { "type": "Point", "coordinates": [ 132.512724899999967, 34.5050807 ] } },
{ "type": "Feature", "properties": { "内容": "医療法人社団博寿会山下医院【通所リハビリテーション】広島市安佐北区口田一丁目15番10号", "url": "https://www.kaigokensaku.mhlw.go.jp/34/index.php?action_kouhyou_detail_004_kani=true&JigyosyoCd=3410214997-00&ServiceCd=160&Type=search", "url2": null }, "geometry": { "type": "Point", "coordinates": [ 132.495388899999966, 34.461774 ] } },
{ "type": "Feature", "properties": { "内容": "老人保健施設　さんさん高陽【通所リハビリテーション】広島市安佐北区亀崎四丁目7番1号", "url": "https://www.kaigokensaku.mhlw.go.jp/34/index.php?action_kouhyou_detail_004_kani=true&JigyosyoCd=3450280015-00&ServiceCd=160&Type=search", "url2": "http://www.usuikai.jp/sansan/" }, "geometry": { "type": "Point", "coordinates": [ 132.52585810000005, 34.482181 ] } },
{ "type": "Feature", "properties": { "内容": "医療法人みかんの会　平田整形外科リハビリクリニック【通所リハビリテーション】広島県広島市安芸区矢野西1丁目31-8", "url": "https://www.kaigokensaku.mhlw.go.jp/34/index.php?action_kouhyou_detail_004_kani=true&JigyosyoCd=3410123925-00&ServiceCd=160&Type=search", "url2": null }, "geometry": { "type": "Point", "coordinates": [ 132.533094799999958, 34.3529806 ] } },
{ "type": "Feature", "properties": { "内容": "クリニック福本リハビリ整形外科【通所リハビリテーション】広島県広島市安芸区矢野東２－３１－１１", "url": "https://www.kaigokensaku.mhlw.go.jp/34/index.php?action_kouhyou_detail_004_kani=true&JigyosyoCd=3410124287-00&ServiceCd=160&Type=search", "url2": "http://clinic-fukumoto.com" }, "geometry": { "type": "Point", "coordinates": [ 132.5360283411392, 34.355399554368084 ] } },
{ "type": "Feature", "properties": { "内容": "介護老人保健施設あき【通所リハビリテーション】広島県広島市安芸区瀬野4丁目1641-1介護老人保健施設あき", "url": "https://www.kaigokensaku.mhlw.go.jp/34/index.php?action_kouhyou_detail_004_kani=true&JigyosyoCd=3450180173-00&ServiceCd=160&Type=search", "url2": "http://shoueikai-sakamoto.com/" }, "geometry": { "type": "Point", "coordinates": [ 132.603367339950495, 34.42493346586275 ] } },
{ "type": "Feature", "properties": { "内容": "老人保健施設　りは・くにくさ【通所リハビリテーション】広島市安芸区阿戸町485-1", "url": "https://www.kaigokensaku.mhlw.go.jp/34/index.php?action_kouhyou_detail_004_kani=true&JigyosyoCd=3450180033-00&ServiceCd=160&Type=search", "url2": "https://www.kunikusa.or.jp/" }, "geometry": { "type": "Point", "coordinates": [ 132.62426389999996, 34.3740116 ] } },
{ "type": "Feature", "properties": { "内容": "はたのリハビリ整形外科【通所リハビリテーション】広島市安芸区中野５丁目13番３０号はたのリハビリ整形外科", "url": "https://www.kaigokensaku.mhlw.go.jp/34/index.php?action_kouhyou_detail_004_kani=true&JigyosyoCd=3410118230-00&ServiceCd=160&Type=search", "url2": "https://hatano-group.jp/" }, "geometry": { "type": "Point", "coordinates": [ 132.580850300000066, 34.4023476 ] } },
{ "type": "Feature", "properties": { "内容": "老人保健施設せのがわ【通所リハビリテーション】広島市安芸区中野6丁目8番2号老人保健施設せのがわ", "url": "https://www.kaigokensaku.mhlw.go.jp/34/index.php?action_kouhyou_detail_004_kani=true&JigyosyoCd=3450180041-00&ServiceCd=160&Type=search", "url2": "https://hatano-group.jp/pages/70/" }, "geometry": { "type": "Point", "coordinates": [ 132.582852600000024, 34.4116246 ] } },
{ "type": "Feature", "properties": { "内容": "津元クリニック【通所リハビリテーション】広島県広島市佐伯区五月が丘二丁目7-25", "url": "https://www.kaigokensaku.mhlw.go.jp/34/index.php?action_kouhyou_detail_004_kani=true&JigyosyoCd=3410217115-00&ServiceCd=160&Type=search", "url2": "http://home.att.ne.jp/lemon/tsumoto/index.htm" }, "geometry": { "type": "Point", "coordinates": [ 132.400620611639397, 34.420759488870488 ] } },
{ "type": "Feature", "properties": { "内容": "福原リハビリテーション整形外科・内科医院【通所リハビリテーション】広島市佐伯区海老園2-9-22", "url": "https://www.kaigokensaku.mhlw.go.jp/34/index.php?action_kouhyou_detail_004_kani=true&JigyosyoCd=3410217883-00&ServiceCd=160&Type=search", "url2": null }, "geometry": { "type": "Point", "coordinates": [ 132.362636899999984, 34.3643541 ] } },
{ "type": "Feature", "properties": { "内容": "医療法人社団一陽会原田病院【通所リハビリテーション】広島県広島市佐伯区海老山町7番10号", "url": "https://www.kaigokensaku.mhlw.go.jp/34/index.php?action_kouhyou_detail_004_kani=true&JigyosyoCd=3410215192-00&ServiceCd=160&Type=search", "url2": "http://www.icy.or.jp/harada-hospital/" }, "geometry": { "type": "Point", "coordinates": [ 132.364350699999932, 34.3640598 ] } },
{ "type": "Feature", "properties": { "内容": "医療法人社団　朋和会　西広島リハビリテーション病院【通所リハビリテーション】広島市佐伯区三宅６丁目２６５番地", "url": "https://www.kaigokensaku.mhlw.go.jp/34/index.php?action_kouhyou_detail_004_kani=true&JigyosyoCd=3410216117-00&ServiceCd=160&Type=search", "url2": "http://www.welnet.jp" }, "geometry": { "type": "Point", "coordinates": [ 132.3390756, 34.3781129 ] } },
{ "type": "Feature", "properties": { "内容": "医療法人社団朋和会老人保健施設　花の丘【通所リハビリテーション】広島市佐伯区三宅6丁目265番地", "url": "https://www.kaigokensaku.mhlw.go.jp/34/index.php?action_kouhyou_detail_004_kani=true&JigyosyoCd=3450280023-00&ServiceCd=160&Type=search", "url2": "https://www.welnet.jp/hananooka/" }, "geometry": { "type": "Point", "coordinates": [ 132.3390756, 34.3781129 ] } },
{ "type": "Feature", "properties": { "内容": "五日市幸楽苑【通所リハビリテーション】広島市佐伯区五日市町下河内１８８－６介護老人保健施設　五日市幸楽苑　１階", "url": "https://www.kaigokensaku.mhlw.go.jp/34/index.php?action_kouhyou_detail_004_kani=true&JigyosyoCd=3450280049-00&ServiceCd=160&Type=search", "url2": "http://www.gh.wadoukai.jp" }, "geometry": { "type": "Point", "coordinates": [ 132.3531964, 34.4079292 ] } },
{ "type": "Feature", "properties": { "内容": "介護老人保健施設湯来まつむら【通所リハビリテーション】広島市佐伯区湯来町白砂棡曽利５９０番", "url": "https://www.kaigokensaku.mhlw.go.jp/34/index.php?action_kouhyou_detail_004_kani=true&JigyosyoCd=3451980068-00&ServiceCd=160&Type=search", "url2": "http://www.matsumura-cc.jp/ym/" }, "geometry": { "type": "Point", "coordinates": [ 132.2882846, 34.4211295 ] } },
{ "type": "Feature", "properties": { "内容": "医療法人和光　和光整形外科クリニック【通所リハビリテーション】広島県広島市佐伯区八幡東2-28-8-7", "url": "https://www.kaigokensaku.mhlw.go.jp/34/index.php?action_kouhyou_detail_004_kani=true&JigyosyoCd=3410218337-00&ServiceCd=160&Type=search", "url2": "https://www.wakoseikei.com/" }, "geometry": { "type": "Point", "coordinates": [ 132.35975562209012, 34.383952646957823 ] } },
{ "type": "Feature", "properties": { "内容": "平尾クリニック【通所リハビリテーション】広島県広島市佐伯区五日市駅前１－１１－３９", "url": "https://www.kaigokensaku.mhlw.go.jp/34/index.php?action_kouhyou_detail_004_kani=true&JigyosyoCd=3410223196-00&ServiceCd=160&Type=search", "url2": "http://www.hiraoclinic.jp" }, "geometry": { "type": "Point", "coordinates": [ 132.367147599999953, 34.3671845 ] } },
{ "type": "Feature", "properties": { "内容": "生協さえき病院【通所リハビリテーション】広島市佐伯区八幡東3丁目11-29", "url": "https://www.kaigokensaku.mhlw.go.jp/34/index.php?action_kouhyou_detail_004_kani=true&JigyosyoCd=3410221703-00&ServiceCd=160&Type=search", "url2": "http://www.hch.coop/hch/saeki/saeki.htm" }, "geometry": { "type": "Point", "coordinates": [ 132.365067400000044, 34.3877042 ] } },
{ "type": "Feature", "properties": { "内容": "のぞみ整形外科ヒロシマ【通所リハビリテーション】広島市佐伯区利松3-6-30", "url": "https://www.kaigokensaku.mhlw.go.jp/34/index.php?action_kouhyou_detail_004_kani=true&JigyosyoCd=3410223030-00&ServiceCd=160&Type=search", "url2": "http://nozomi-clinic.jp" }, "geometry": { "type": "Point", "coordinates": [ 132.36583429999996, 34.4004305 ] } },
{ "type": "Feature", "properties": { "内容": "大矢整形外科病院【通所リハビリテーション】広島県呉市中央四丁目４番５号", "url": "https://www.kaigokensaku.mhlw.go.jp/34/index.php?action_kouhyou_detail_004_kani=true&JigyosyoCd=3410510782-00&ServiceCd=160&Type=search", "url2": "http://ooya.or.jp" }, "geometry": { "type": "Point", "coordinates": [ 132.5676192, 34.2484803 ] } },
{ "type": "Feature", "properties": { "内容": "老人保健施設　コスモス園【通所リハビリテーション】呉市焼山北三丁目１７１番地４", "url": "https://www.kaigokensaku.mhlw.go.jp/34/index.php?action_kouhyou_detail_004_kani=true&JigyosyoCd=3450580018-00&ServiceCd=160&Type=search", "url2": "http://www.hakujukai.jp/" }, "geometry": { "type": "Point", "coordinates": [ 132.553370598394736, 34.309606475564486 ] } },
{ "type": "Feature", "properties": { "内容": "老人保健施設　成寿園【通所リハビリテーション】広島県呉市広町字白石免田13012番地", "url": "https://www.kaigokensaku.mhlw.go.jp/34/index.php?action_kouhyou_detail_004_kani=true&JigyosyoCd=3450580026-00&ServiceCd=160&Type=search", "url2": "http://www.seijukai-welfare.jp/top.html" }, "geometry": { "type": "Point", "coordinates": [ 132.637829900000042, 34.2202702 ] } },
{ "type": "Feature", "properties": { "内容": "介護老人保健施設　あすらや荘【通所リハビリテーション】呉市郷原町２３８０番地", "url": "https://www.kaigokensaku.mhlw.go.jp/34/index.php?action_kouhyou_detail_004_kani=true&JigyosyoCd=3450580042-00&ServiceCd=160&Type=search", "url2": "http://www.misasakai.or.jp/" }, "geometry": { "type": "Point", "coordinates": [ 132.648738099999946, 34.2957483 ] } },
{ "type": "Feature", "properties": { "内容": "介護老人保健施設　呉中央コスモス園【通所リハビリテーション】呉市西中央３丁目６番７号", "url": "https://www.kaigokensaku.mhlw.go.jp/34/index.php?action_kouhyou_detail_004_kani=true&JigyosyoCd=3450580067-00&ServiceCd=160&Type=search", "url2": "http://www.hakujukai.jp/" }, "geometry": { "type": "Point", "coordinates": [ 132.560169, 34.2498399 ] } },
{ "type": "Feature", "properties": { "内容": "介護老人保健施設大浜【通所リハビリテーション】呉市豊浜町大字大浜字深田４８２番地の１", "url": "https://www.kaigokensaku.mhlw.go.jp/34/index.php?action_kouhyou_detail_004_kani=true&JigyosyoCd=3450580083-00&ServiceCd=160&Type=search", "url2": "http://www.seijukai-welfare.jp/top.html" }, "geometry": { "type": "Point", "coordinates": [ 132.808187564874743, 34.165780864856117 ] } },
{ "type": "Feature", "properties": { "内容": "介護老人保健施設　阿賀コスモス園【通所リハビリテーション】呉市阿賀南３丁目７番１号", "url": "https://www.kaigokensaku.mhlw.go.jp/34/index.php?action_kouhyou_detail_004_kani=true&JigyosyoCd=3450580109-00&ServiceCd=160&Type=search", "url2": "http://www.hakujukai.jp/" }, "geometry": { "type": "Point", "coordinates": [ 132.598013199999968, 34.2341597 ] } },
{ "type": "Feature", "properties": { "内容": "介護老人保健施設　葵の園・安浦【通所リハビリテーション】広島県呉市安浦町安登西五丁目11番19号", "url": "https://www.kaigokensaku.mhlw.go.jp/34/index.php?action_kouhyou_detail_004_kani=true&JigyosyoCd=3470503529-00&ServiceCd=160&Type=search", "url2": "http://www.aoikai.jp/yasuura" }, "geometry": { "type": "Point", "coordinates": [ 132.720393645492777, 34.252526302635601 ] } },
{ "type": "Feature", "properties": { "内容": "マッターホルンリハビリテーション病院【通所リハビリテーション】広島県呉市中通1丁目5-25", "url": "https://www.kaigokensaku.mhlw.go.jp/34/index.php?action_kouhyou_detail_004_kani=true&JigyosyoCd=3410512796-00&ServiceCd=160&Type=search", "url2": "http://www.matterhorn-hospital.jp/" }, "geometry": { "type": "Point", "coordinates": [ 132.562618799999967, 34.24218 ] } },
{ "type": "Feature", "properties": { "内容": "医療法人社団仁井谷医院　にいたにクリニック【通所リハビリテーション】広島県呉市中通2丁目8-18", "url": "https://www.kaigokensaku.mhlw.go.jp/34/index.php?action_kouhyou_detail_004_kani=true&JigyosyoCd=3410515088-00&ServiceCd=160&Type=search", "url2": "http://www.niitani-clinic.jp/" }, "geometry": { "type": "Point", "coordinates": [ 132.56353593862309, 34.243714265495946 ] } },
{ "type": "Feature", "properties": { "内容": "医療法人社団　仁井谷医院【通所リハビリテーション】広島県呉市音戸町高須3丁目7番2号", "url": "https://www.kaigokensaku.mhlw.go.jp/34/index.php?action_kouhyou_detail_004_kani=true&JigyosyoCd=3413111091-00&ServiceCd=160&Type=search", "url2": "http://www.niitani-iin.jp/" }, "geometry": { "type": "Point", "coordinates": [ 132.539761366795346, 34.187957536506858 ] } },
{ "type": "Feature", "properties": { "内容": "医療法人社団有信会呉記念病院【通所リハビリテーション】呉市郷原町２３７９番地４２", "url": "https://www.kaigokensaku.mhlw.go.jp/34/index.php?action_kouhyou_detail_004_kani=true&JigyosyoCd=3410510857-00&ServiceCd=160&Type=search", "url2": "https://www.kurekinen.jp/" }, "geometry": { "type": "Point", "coordinates": [ 132.651990299999966, 34.3056392 ] } },
{ "type": "Feature", "properties": { "内容": "医療法人社団有信会　呉記念クリニック【通所リハビリテーション】呉市阿賀北3丁目4-11", "url": "https://www.kaigokensaku.mhlw.go.jp/34/index.php?action_kouhyou_detail_004_kani=true&JigyosyoCd=3410514214-00&ServiceCd=160&Type=search", "url2": "http://1221.byoinnavi.jp/" }, "geometry": { "type": "Point", "coordinates": [ 132.59137396441804, 34.251741549867205 ] } },
{ "type": "Feature", "properties": { "内容": "医療法人社団　住吉医院【通所リハビリテーション】呉市川尻町東1丁目10-13", "url": "https://www.kaigokensaku.mhlw.go.jp/34/index.php?action_kouhyou_detail_004_kani=true&JigyosyoCd=3414010441-00&ServiceCd=160&Type=search", "url2": "http://www.sumiyoshicl.com/" }, "geometry": { "type": "Point", "coordinates": [ 132.6969772, 34.2358284 ] } },
{ "type": "Feature", "properties": { "内容": "介護老人保健施設　メディケア・くれ【通所リハビリテーション】広島県呉市中央2丁目6番20号", "url": "https://www.kaigokensaku.mhlw.go.jp/34/index.php?action_kouhyou_detail_004_kani=true&JigyosyoCd=3450580075-00&ServiceCd=160&Type=search", "url2": "http://www.hospital-maeda.jp/" }, "geometry": { "type": "Point", "coordinates": [ 132.561674904893493, 34.245668868802817 ] } },
{ "type": "Feature", "properties": { "内容": "呉市医師会病院【通所リハビリテーション】広島県呉市朝日町１９番１９号", "url": "https://www.kaigokensaku.mhlw.go.jp/34/index.php?action_kouhyou_detail_004_kani=true&JigyosyoCd=3410511970-00&ServiceCd=160&Type=search", "url2": "http://www.kure.hiroshima.med.or.jp/hp/tuusyo.html" }, "geometry": { "type": "Point", "coordinates": [ 132.575198266801067, 34.251647769213591 ] } },
{ "type": "Feature", "properties": { "内容": "医療法人社団豊和会　豊田内科胃腸科【通所リハビリテーション】広島県呉市伏原2丁目7-22", "url": "https://www.kaigokensaku.mhlw.go.jp/34/index.php?action_kouhyou_detail_004_kani=true&JigyosyoCd=3410513174-00&ServiceCd=160&Type=search", "url2": "https://www.toyota-clinic.com/daycare/" }, "geometry": { "type": "Point", "coordinates": [ 132.576606099999907, 34.2538676 ] } },
{ "type": "Feature", "properties": { "内容": "呉整形外科クリニック【通所リハビリテーション】広島県呉市宝町2-50レクレ4階", "url": "https://www.kaigokensaku.mhlw.go.jp/34/index.php?action_kouhyou_detail_004_kani=true&JigyosyoCd=3410514511-00&ServiceCd=160&Type=search", "url2": "http://www.hishokai.or.jp/" }, "geometry": { "type": "Point", "coordinates": [ 132.557149900000013, 34.2442657 ] } },
{ "type": "Feature", "properties": { "内容": "岸槌医院【通所リハビリテーション】広島県呉市海岸2丁目16－12", "url": "https://www.kaigokensaku.mhlw.go.jp/34/index.php?action_kouhyou_detail_004_kani=true&JigyosyoCd=3410515237-00&ServiceCd=160&Type=search", "url2": "https://www.kishiduchi-iin.jp/kawaraishi/index.html" }, "geometry": { "type": "Point", "coordinates": [ 132.544487099999969, 34.2464317 ] } },
{ "type": "Feature", "properties": { "内容": "介護老人保健施設あおやま【通所リハビリテーション】呉市阿賀北6-15-30", "url": "https://www.kaigokensaku.mhlw.go.jp/34/index.php?action_kouhyou_detail_004_kani=true&JigyosyoCd=3450580117-00&ServiceCd=160&Type=search", "url2": "http://www.aoyama-sei.or.jp" }, "geometry": { "type": "Point", "coordinates": [ 132.6009904, 34.2487911 ] } },
{ "type": "Feature", "properties": { "内容": "医療法人社団わらび会　脇田医院【通所リハビリテーション】広島県呉市焼山中央2丁目1番１号", "url": "https://www.kaigokensaku.mhlw.go.jp/34/index.php?action_kouhyou_detail_004_kani=true&JigyosyoCd=3410510204-00&ServiceCd=160&Type=search", "url2": "https://www.wakita-clinic.com/" }, "geometry": { "type": "Point", "coordinates": [ 132.556447599999956, 34.2953809 ] } },
{ "type": "Feature", "properties": { "内容": "かわの内科胃腸科【通所リハビリテーション】広島県呉市本町4-2", "url": "https://www.kaigokensaku.mhlw.go.jp/34/index.php?action_kouhyou_detail_004_kani=true&JigyosyoCd=3410514172-00&ServiceCd=160&Type=search", "url2": "https://www.kawanonaika.net/" }, "geometry": { "type": "Point", "coordinates": [ 132.568378400000029, 34.2456516 ] } },
{ "type": "Feature", "properties": { "内容": "老人保健施設さざなみ苑【通所リハビリテーション】広島県呉市音戸町高須3丁目7番15号", "url": "https://www.kaigokensaku.mhlw.go.jp/34/index.php?action_kouhyou_detail_004_kani=true&JigyosyoCd=3470503982-00&ServiceCd=160&Type=search", "url2": null }, "geometry": { "type": "Point", "coordinates": [ 132.541422100000034, 34.1878466 ] } },
{ "type": "Feature", "properties": { "内容": "医療法人楽生会　馬場病院【通所リハビリテーション】広島県竹原市下野町1744番地", "url": "https://www.kaigokensaku.mhlw.go.jp/34/index.php?action_kouhyou_detail_004_kani=true&JigyosyoCd=3410710143-00&ServiceCd=160&Type=search", "url2": "http://www.rakuseikai.jp" }, "geometry": { "type": "Point", "coordinates": [ 132.888255, 34.3351397 ] } },
{ "type": "Feature", "properties": { "内容": "老人保健施設　ゆさか【通所リハビリテーション】竹原市西野町槇ヶ坪184番地", "url": "https://www.kaigokensaku.mhlw.go.jp/34/index.php?action_kouhyou_detail_004_kani=true&JigyosyoCd=3450780022-00&ServiceCd=160&Type=search", "url2": "http://www.jinjyukai-takehara.or.jp" }, "geometry": { "type": "Point", "coordinates": [ 132.884777399999962, 34.3954898 ] } },
{ "type": "Feature", "properties": { "内容": "介護老人保健施設　まお【通所リハビリテーション】竹原市下野町3126番地1", "url": "https://www.kaigokensaku.mhlw.go.jp/34/index.php?action_kouhyou_detail_004_kani=true&JigyosyoCd=3450780030-00&ServiceCd=160&Type=search", "url2": "http://www.yasudabyouin.com/" }, "geometry": { "type": "Point", "coordinates": [ 132.899761600000033, 34.3529815 ] } },
{ "type": "Feature", "properties": { "内容": "医療法人社団　あおい会　大田整形外科【通所リハビリテーション】竹原市中央四丁目4番25号", "url": "https://www.kaigokensaku.mhlw.go.jp/34/index.php?action_kouhyou_detail_004_kani=true&JigyosyoCd=3410710507-00&ServiceCd=160&Type=search", "url2": "http://www.ohta-cl.jp/rehabilitation/" }, "geometry": { "type": "Point", "coordinates": [ 132.908357499999966, 34.3404473 ] } },
{ "type": "Feature", "properties": { "内容": "国家公務員共済組合連合会呉共済病院忠海分院【通所リハビリテーション】竹原市忠海中町2-2-45", "url": "https://www.kaigokensaku.mhlw.go.jp/34/index.php?action_kouhyou_detail_004_kani=true&JigyosyoCd=3410710010-00&ServiceCd=160&Type=search", "url2": "https://www.kure-kyosai.jp/tadanoumi/daycare/" }, "geometry": { "type": "Point", "coordinates": [ 132.99234343306577, 34.337968987106166 ] } },
{ "type": "Feature", "properties": { "内容": "白須整形外科クリニック【通所リハビリテーション】広島県三原市港町１丁目6-6コウサキビル1階", "url": "https://www.kaigokensaku.mhlw.go.jp/34/index.php?action_kouhyou_detail_004_kani=true&JigyosyoCd=3410911626-00&ServiceCd=160&Type=search", "url2": null }, "geometry": { "type": "Point", "coordinates": [ 133.0802483, 34.3994716 ] } },
{ "type": "Feature", "properties": { "内容": "社会医療法人里仁会　介護老人保健施設　里仁苑【通所リハビリテーション】三原市皆実３丁目３－２８", "url": "https://www.kaigokensaku.mhlw.go.jp/34/index.php?action_kouhyou_detail_004_kani=true&JigyosyoCd=3450980010-00&ServiceCd=160&Type=search", "url2": "http://www.rijinen.jp/outline/rijinen.html" }, "geometry": { "type": "Point", "coordinates": [ 133.0660891, 34.3914809 ] } },
{ "type": "Feature", "properties": { "内容": "医療法人仁康会老人保健施設　桃源の郷【通所リハビリテーション】三原市小泉町4258", "url": "https://www.kaigokensaku.mhlw.go.jp/34/index.php?action_kouhyou_detail_004_kani=true&JigyosyoCd=3450980036-00&ServiceCd=160&Type=search", "url2": "http://www.jinkokai.jp" }, "geometry": { "type": "Point", "coordinates": [ 132.984558099999958, 34.3690301 ] } },
{ "type": "Feature", "properties": { "内容": "社会医療法人　里仁会　介護老人保健施設　仁和の里【通所リハビリテーション】三原市大和町和木１５０５", "url": "https://www.kaigokensaku.mhlw.go.jp/34/index.php?action_kouhyou_detail_004_kani=true&JigyosyoCd=3453880019-00&ServiceCd=160&Type=search", "url2": "http://rijinkai.or.jp/" }, "geometry": { "type": "Point", "coordinates": [ 132.922829900000011, 34.5108982 ] } },
{ "type": "Feature", "properties": { "内容": "医療法人仁康会介護老人保健施設　ドリームせせらぎ【通所リハビリテーション】三原市本郷町船木3105-3", "url": "https://www.kaigokensaku.mhlw.go.jp/34/index.php?action_kouhyou_detail_004_kani=true&JigyosyoCd=3453980025-00&ServiceCd=160&Type=search", "url2": "http://www.jinkokai.jp/seseragi/" }, "geometry": { "type": "Point", "coordinates": [ 132.96668539999996, 34.43022 ] } },
{ "type": "Feature", "properties": { "内容": "三原市医師会病院【通所リハビリテーション】三原市宮浦1丁目15番1号", "url": "https://www.kaigokensaku.mhlw.go.jp/34/index.php?action_kouhyou_detail_004_kani=true&JigyosyoCd=3410911063-00&ServiceCd=160&Type=search", "url2": "http://mihara-hiroshima-med.jp/hp/" }, "geometry": { "type": "Point", "coordinates": [ 133.064225099999931, 34.400219 ] } },
{ "type": "Feature", "properties": { "内容": "医療法人宗斉会須波宗斉会病院【通所リハビリテーション】広島県三原市須波ハイツ２丁目２番５号", "url": "https://www.kaigokensaku.mhlw.go.jp/34/index.php?action_kouhyou_detail_004_kani=true&JigyosyoCd=3410911196-00&ServiceCd=160&Type=search", "url2": "https://www.syusaikai.jp/" }, "geometry": { "type": "Point", "coordinates": [ 133.077202899999946, 34.352133 ] } },
{ "type": "Feature", "properties": { "内容": "介護老人保健施設　三恵苑【通所リハビリテーション】三原市城町三丁目７番１号", "url": "https://www.kaigokensaku.mhlw.go.jp/34/index.php?action_kouhyou_detail_004_kani=true&JigyosyoCd=3450980028-00&ServiceCd=160&Type=search", "url2": "https://sankeien.net/" }, "geometry": { "type": "Point", "coordinates": [ 133.083587976696748, 34.396501718538715 ] } },
{ "type": "Feature", "properties": { "内容": "医療法人社団　樹良会　高亀医院【通所リハビリテーション】広島県尾道市久保二丁目24番15号", "url": "https://www.kaigokensaku.mhlw.go.jp/34/index.php?action_kouhyou_detail_004_kani=true&JigyosyoCd=3411110509-00&ServiceCd=160&Type=search", "url2": "https://www.kougame.jp/" }, "geometry": { "type": "Point", "coordinates": [ 133.206019, 34.4097839 ] } },
{ "type": "Feature", "properties": { "内容": "因島医師会病院【通所リハビリテーション】尾道市因島中庄町１９６２番地", "url": "https://www.kaigokensaku.mhlw.go.jp/34/index.php?action_kouhyou_detail_004_kani=true&JigyosyoCd=3411310448-00&ServiceCd=160&Type=search", "url2": "http://innoshima.com/ishikai/hospital/" }, "geometry": { "type": "Point", "coordinates": [ 133.153065, 34.313118 ] } },
{ "type": "Feature", "properties": { "内容": "介護老人保健施設　シラユリ【通所リハビリテーション】尾道市向東町字鍵屋谷2830", "url": "https://www.kaigokensaku.mhlw.go.jp/34/index.php?action_kouhyou_detail_004_kani=true&JigyosyoCd=3451180057-00&ServiceCd=160&Type=search", "url2": "https://www.yoshiharamedicalgroup.com/" }, "geometry": { "type": "Point", "coordinates": [ 133.218046400000048, 34.4025652 ] } },
{ "type": "Feature", "properties": { "内容": "因島医師会介護老人保健施設ビロードの丘【通所リハビリテーション】尾道市因島中庄町1955番地", "url": "https://www.kaigokensaku.mhlw.go.jp/34/index.php?action_kouhyou_detail_004_kani=true&JigyosyoCd=3451180065-00&ServiceCd=160&Type=search", "url2": null }, "geometry": { "type": "Point", "coordinates": [ 133.153467800000044, 34.3122848 ] } },
{ "type": "Feature", "properties": { "内容": "老人保健施設　あおかげ苑【通所リハビリテーション】広島県尾道市因島中庄町1032番地の1", "url": "https://www.kaigokensaku.mhlw.go.jp/34/index.php?action_kouhyou_detail_004_kani=true&JigyosyoCd=3451380012-00&ServiceCd=160&Type=search", "url2": "https://aokage.jp/" }, "geometry": { "type": "Point", "coordinates": [ 133.175699799999961, 34.3114263 ] } },
{ "type": "Feature", "properties": { "内容": "公立みつぎ総合病院介護老人保健施設「みつぎの苑」【通所リハビリテーション】尾道市御調町高尾１３４８番地６", "url": "https://www.kaigokensaku.mhlw.go.jp/34/index.php?action_kouhyou_detail_004_kani=true&JigyosyoCd=3454180013-00&ServiceCd=160&Type=search", "url2": "http://www.mitsugibyouin.com" }, "geometry": { "type": "Point", "coordinates": [ 133.1327265, 34.5140678 ] } },
{ "type": "Feature", "properties": { "内容": "介護老人保健施設くぼ【通所リハビリテーション】尾道市久保二丁目24番17号", "url": "https://www.kaigokensaku.mhlw.go.jp/34/index.php?action_kouhyou_detail_004_kani=true&JigyosyoCd=3451180016-00&ServiceCd=160&Type=search", "url2": "https://www.kougame.jp/" }, "geometry": { "type": "Point", "coordinates": [ 133.205894, 34.4098394 ] } },
{ "type": "Feature", "properties": { "内容": "一般社団法人尾道市医師会　介護老人保健施設　やすらぎの家【通所リハビリテーション】尾道市久保町1718番地", "url": "https://www.kaigokensaku.mhlw.go.jp/34/index.php?action_kouhyou_detail_004_kani=true&JigyosyoCd=3451180032-00&ServiceCd=160&Type=search", "url2": "http://www.onomichi-med.or.jp/yasuraginoie/" }, "geometry": { "type": "Point", "coordinates": [ 133.209398800000031, 34.4217243 ] } },
{ "type": "Feature", "properties": { "内容": "介護老人保健施設　精彩園【通所リハビリテーション】広島県尾道市美ノ郷町三成339番地3", "url": "https://www.kaigokensaku.mhlw.go.jp/34/index.php?action_kouhyou_detail_004_kani=true&JigyosyoCd=3451180040-00&ServiceCd=160&Type=search", "url2": "http://www.seisaikai.or.jp" }, "geometry": { "type": "Point", "coordinates": [ 133.197620090213036, 34.441207451854723 ] } },
{ "type": "Feature", "properties": { "内容": "医療法人社団神田会　木曽病院【通所リハビリテーション】広島県尾道市神田町２番２４号", "url": "https://www.kaigokensaku.mhlw.go.jp/34/index.php?action_kouhyou_detail_004_kani=true&JigyosyoCd=3411110574-00&ServiceCd=160&Type=search", "url2": "http://www.kiso-hospital.or.jp/" }, "geometry": { "type": "Point", "coordinates": [ 133.169440832540857, 34.402067852452397 ] } },
{ "type": "Feature", "properties": { "内容": "田辺クリニック【通所リハビリテーション】尾道市古浜町6番20号", "url": "https://www.kaigokensaku.mhlw.go.jp/34/index.php?action_kouhyou_detail_004_kani=true&JigyosyoCd=3411111721-00&ServiceCd=160&Type=search", "url2": "http://www.tanabecl.or.jp/" }, "geometry": { "type": "Point", "coordinates": [ 133.174171300000012, 34.399112700000011 ] } },
{ "type": "Feature", "properties": { "内容": "山本病院【通所リハビリテーション】広島県尾道市高須町７３５番地", "url": "https://www.kaigokensaku.mhlw.go.jp/34/index.php?action_kouhyou_detail_004_kani=true&JigyosyoCd=3411112307-00&ServiceCd=160&Type=search", "url2": "http://www.yamamoto-hospital.jp" }, "geometry": { "type": "Point", "coordinates": [ 133.2321608, 34.437678 ] } },
{ "type": "Feature", "properties": { "内容": "医療法人社団　回生会　永井医院【通所リハビリテーション】尾道市瀬戸田町瀬戸田349-7", "url": "https://www.kaigokensaku.mhlw.go.jp/34/index.php?action_kouhyou_detail_004_kani=true&JigyosyoCd=3413910146-00&ServiceCd=160&Type=search", "url2": null }, "geometry": { "type": "Point", "coordinates": [ 133.0857416, 34.3030605 ] } },
{ "type": "Feature", "properties": { "内容": "神原こうじクリニック【通所リハビリテーション】尾道市浦崎町2746", "url": "https://www.kaigokensaku.mhlw.go.jp/34/index.php?action_kouhyou_detail_004_kani=true&JigyosyoCd=3411111697-00&ServiceCd=160&Type=search", "url2": null }, "geometry": { "type": "Point", "coordinates": [ 133.274773099999948, 34.404291 ] } },
{ "type": "Feature", "properties": { "内容": "医療法人辰川会山陽ぬまくま腎クリニック【通所リハビリテーション】広島県福山市沼隈町草深2031-1", "url": "https://www.kaigokensaku.mhlw.go.jp/34/index.php?action_kouhyou_detail_004_kani=true&JigyosyoCd=3411515434-00&ServiceCd=160&Type=search", "url2": "http://www.sanyo.or.jp" }, "geometry": { "type": "Point", "coordinates": [ 133.322138900000027, 34.3871796 ] } },
{ "type": "Feature", "properties": { "内容": "楠本病院【通所リハビリテーション】広島県福山市曙町3丁目19番18号", "url": "https://www.kaigokensaku.mhlw.go.jp/34/index.php?action_kouhyou_detail_004_kani=true&JigyosyoCd=3411513769-00&ServiceCd=160&Type=search", "url2": "http://kusumoto.or.jp/" }, "geometry": { "type": "Point", "coordinates": [ 133.397153099999969, 34.4708287 ] } },
{ "type": "Feature", "properties": { "内容": "松岡病院【通所リハビリテーション】福山市宝町5-32", "url": "https://www.kaigokensaku.mhlw.go.jp/34/index.php?action_kouhyou_detail_004_kani=true&JigyosyoCd=3411510310-00&ServiceCd=160&Type=search", "url2": null }, "geometry": { "type": "Point", "coordinates": [ 133.3663623, 34.489840600000043 ] } },
{ "type": "Feature", "properties": { "内容": "庵谷内科循環器科【通所リハビリテーション】福山市御幸町大字上岩成234番地１", "url": "https://www.kaigokensaku.mhlw.go.jp/34/index.php?action_kouhyou_detail_004_kani=true&JigyosyoCd=3411514312-00&ServiceCd=160&Type=search", "url2": null }, "geometry": { "type": "Point", "coordinates": [ 133.346840400000019, 34.5482788 ] } },
{ "type": "Feature", "properties": { "内容": "おかだ(外科・内科)医院【通所リハビリテーション】福山市赤坂町大字早戸1470番地おかだ（外科･内科）医院　通所リハビリテーション", "url": "https://www.kaigokensaku.mhlw.go.jp/34/index.php?action_kouhyou_detail_004_kani=true&JigyosyoCd=3411510344-00&ServiceCd=160&Type=search", "url2": "https://v-sys.salesforce.com" }, "geometry": { "type": "Point", "coordinates": [ 133.310883800000056, 34.4597598 ] } },
{ "type": "Feature", "properties": { "内容": "医療法人ふじえ　松山内科【通所リハビリテーション】広島県福山市藤江町1724番地1", "url": "https://www.kaigokensaku.mhlw.go.jp/34/index.php?action_kouhyou_detail_004_kani=true&JigyosyoCd=3411516069-00&ServiceCd=160&Type=search", "url2": "https://matsuyama-clinic.jp/" }, "geometry": { "type": "Point", "coordinates": [ 133.278110249073762, 34.423219475892047 ] } },
{ "type": "Feature", "properties": { "内容": "医療法人紅萌会　福山記念病院【通所リハビリテーション】広島県福山市港町一丁目15-30", "url": "https://www.kaigokensaku.mhlw.go.jp/34/index.php?action_kouhyou_detail_004_kani=true&JigyosyoCd=3411511383-00&ServiceCd=160&Type=search", "url2": "https://www.kbk-group.or.jp" }, "geometry": { "type": "Point", "coordinates": [ 133.3802842, 34.4842884 ] } },
{ "type": "Feature", "properties": { "内容": "介護老人保健施設ビーブル春秋苑【通所リハビリテーション】福山市王子町１－４－５", "url": "https://www.kaigokensaku.mhlw.go.jp/34/index.php?action_kouhyou_detail_004_kani=true&JigyosyoCd=3451580033-00&ServiceCd=160&Type=search", "url2": "http://www.kbk-group.or.jp/" }, "geometry": { "type": "Point", "coordinates": [ 133.383606099999952, 34.4868076 ] } },
{ "type": "Feature", "properties": { "内容": "介護老人保健施設かなえ【通所リハビリテーション】福山市金江町藁江５５０番地１", "url": "https://www.kaigokensaku.mhlw.go.jp/34/index.php?action_kouhyou_detail_004_kani=true&JigyosyoCd=3451580058-00&ServiceCd=160&Type=search", "url2": "http://www.eiwa-kai.or.jp/" }, "geometry": { "type": "Point", "coordinates": [ 133.307723600000031, 34.4412811 ] } },
{ "type": "Feature", "properties": { "内容": "介護老人保健施設　ビーブルかんなべ【通所リハビリテーション】福山市神辺町川南547番地7", "url": "https://www.kaigokensaku.mhlw.go.jp/34/index.php?action_kouhyou_detail_004_kani=true&JigyosyoCd=3451580116-00&ServiceCd=160&Type=search", "url2": "http://kbk-group.or.jp/b-k.html" }, "geometry": { "type": "Point", "coordinates": [ 133.369264, 34.5377052 ] } },
{ "type": "Feature", "properties": { "内容": "神原病院【通所リハビリテーション】広島県福山市赤坂町赤坂1313", "url": "https://www.kaigokensaku.mhlw.go.jp/34/index.php?action_kouhyou_detail_004_kani=true&JigyosyoCd=3411510849-00&ServiceCd=160&Type=search", "url2": "https://kambara-hp.sakura.ne.jp/" }, "geometry": { "type": "Point", "coordinates": [ 133.3029402, 34.4718867 ] } },
{ "type": "Feature", "properties": { "内容": "医療法人社団黎明会　さくらの丘クリニック【通所リハビリテーション】福山市駅家町法成寺１０８", "url": "https://www.kaigokensaku.mhlw.go.jp/34/index.php?action_kouhyou_detail_004_kani=true&JigyosyoCd=3411512662-00&ServiceCd=160&Type=search", "url2": "http://ekiya-sakura.jp" }, "geometry": { "type": "Point", "coordinates": [ 133.325967344180299, 34.55389003914393 ] } },
{ "type": "Feature", "properties": { "内容": "山南クリニック【通所リハビリテーション】広島県福山市沼隈町大字中山南１３８７番地", "url": "https://www.kaigokensaku.mhlw.go.jp/34/index.php?action_kouhyou_detail_004_kani=true&JigyosyoCd=3411515715-00&ServiceCd=160&Type=search", "url2": "http://shounankai.or.jp/" }, "geometry": { "type": "Point", "coordinates": [ 133.3219315, 34.4177449 ] } },
{ "type": "Feature", "properties": { "内容": "医療法人三宅会グッドライフ病院【通所リハビリテーション】広島県福山市東町1－1－18グッドライフ病院・7階", "url": "https://www.kaigokensaku.mhlw.go.jp/34/index.php?action_kouhyou_detail_004_kani=true&JigyosyoCd=3411515921-00&ServiceCd=160&Type=search", "url2": "http://www.goodlifehospital.jp" }, "geometry": { "type": "Point", "coordinates": [ 133.368570500000033, 34.4900712 ] } },
{ "type": "Feature", "properties": { "内容": "寺岡記念病院【通所リハビリテーション】福山市新市町新市37番地", "url": "https://www.kaigokensaku.mhlw.go.jp/34/index.php?action_kouhyou_detail_004_kani=true&JigyosyoCd=3414510051-00&ServiceCd=160&Type=search", "url2": "http://www.teraoka-hosp.jp/" }, "geometry": { "type": "Point", "coordinates": [ 133.28034, 34.5503746 ] } },
{ "type": "Feature", "properties": { "内容": "老人保健施設サンビレッジ【通所リハビリテーション】福山市春日町7-6-27", "url": "https://www.kaigokensaku.mhlw.go.jp/34/index.php?action_kouhyou_detail_004_kani=true&JigyosyoCd=3451580025-00&ServiceCd=160&Type=search", "url2": "http://www.toukoukai.or.jp/" }, "geometry": { "type": "Point", "coordinates": [ 133.415207900000041, 34.5087723 ] } },
{ "type": "Feature", "properties": { "内容": "介護老人保健施設　サンスクエア沼南【通所リハビリテーション】福山市水呑町3332-1", "url": "https://www.kaigokensaku.mhlw.go.jp/34/index.php?action_kouhyou_detail_004_kani=true&JigyosyoCd=3451580041-00&ServiceCd=160&Type=search", "url2": "http://www.sunsquare-1993.org/roken-sunsqu.htm" }, "geometry": { "type": "Point", "coordinates": [ 133.386757, 34.4384823 ] } },
{ "type": "Feature", "properties": { "内容": "介護老人保健施設　くつろぎ苑【通所リハビリテーション】福山市東手城町1丁目28番31号", "url": "https://www.kaigokensaku.mhlw.go.jp/34/index.php?action_kouhyou_detail_004_kani=true&JigyosyoCd=3451580082-00&ServiceCd=160&Type=search", "url2": "https://kutsurogien.com/" }, "geometry": { "type": "Point", "coordinates": [ 133.402074099999936, 34.4842914 ] } },
{ "type": "Feature", "properties": { "内容": "駅家リハビリテーションＳＡＫＵＲＡ【通所リハビリテーション】福山市駅家町万能倉１０４６－２", "url": "https://www.kaigokensaku.mhlw.go.jp/34/index.php?action_kouhyou_detail_004_kani=true&JigyosyoCd=3451580108-00&ServiceCd=160&Type=search", "url2": "https://ekiya-sakura.jp/sakura/index.html" }, "geometry": { "type": "Point", "coordinates": [ 133.329758, 34.5500176 ] } },
{ "type": "Feature", "properties": { "内容": "介護老人保健施設ゆめの杜【通所リハビリテーション】広島県福山市千田町大字千田2591-1", "url": "https://www.kaigokensaku.mhlw.go.jp/34/index.php?action_kouhyou_detail_004_kani=true&JigyosyoCd=3451580132-00&ServiceCd=160&Type=search", "url2": "https://www.yumenomori-rk.jp" }, "geometry": { "type": "Point", "coordinates": [ 133.38605530000001, 34.5174266 ] } },
{ "type": "Feature", "properties": { "内容": "介護老人保健施設ぬまくま【通所リハビリテーション】福山市沼隈町大字中山南４６９番地３", "url": "https://www.kaigokensaku.mhlw.go.jp/34/index.php?action_kouhyou_detail_004_kani=true&JigyosyoCd=3454380019-00&ServiceCd=160&Type=search", "url2": "http://shounankai.or.jp/" }, "geometry": { "type": "Point", "coordinates": [ 133.32310080000002, 34.419142 ] } },
{ "type": "Feature", "properties": { "内容": "介護老人保健施設ジョイトピアしんいち【通所リハビリテーション】福山市新市町下安井３５１０", "url": "https://www.kaigokensaku.mhlw.go.jp/34/index.php?action_kouhyou_detail_004_kani=true&JigyosyoCd=3454580014-00&ServiceCd=160&Type=search", "url2": "http://www.joytopia.or.jp/" }, "geometry": { "type": "Point", "coordinates": [ 133.283444700000018, 34.5712617 ] } },
{ "type": "Feature", "properties": { "内容": "医療法人社団玄同会小畠病院【通所リハビリテーション】広島県福山市駅家町上山守203リハビリテーション科3階", "url": "https://www.kaigokensaku.mhlw.go.jp/34/index.php?action_kouhyou_detail_004_kani=true&JigyosyoCd=3411512654-00&ServiceCd=160&Type=search", "url2": "https://kobatake.or.jp/" }, "geometry": { "type": "Point", "coordinates": [ 133.331684399999972, 34.5344712 ] } },
{ "type": "Feature", "properties": { "内容": "水永リハビリテーション病院【通所リハビリテーション】広島県福山市南蔵王町４丁目１６番１６号", "url": "https://www.kaigokensaku.mhlw.go.jp/34/index.php?action_kouhyou_detail_004_kani=true&JigyosyoCd=3411512894-00&ServiceCd=160&Type=search", "url2": "https://www.mizunaga-reha.com" }, "geometry": { "type": "Point", "coordinates": [ 133.3973294, 34.4986954 ] } },
{ "type": "Feature", "properties": { "内容": "医療法人光耀会岩﨑整形外科【通所リハビリテーション】広島県福山市木之庄町２－７－５", "url": "https://www.kaigokensaku.mhlw.go.jp/34/index.php?action_kouhyou_detail_004_kani=true&JigyosyoCd=3411515764-00&ServiceCd=160&Type=search", "url2": "https://www.iwasaki-seikeigeka.com/rehabilitation/" }, "geometry": { "type": "Point", "coordinates": [ 133.3541821, 34.4979065 ] } },
{ "type": "Feature", "properties": { "内容": "老人保健施設ハイトピア・カイセイ【通所リハビリテーション】広島県福山市引野町5丁目9番21号", "url": "https://www.kaigokensaku.mhlw.go.jp/34/index.php?action_kouhyou_detail_004_kani=true&JigyosyoCd=3451580017-00&ServiceCd=160&Type=search", "url2": "http://www.haitopia.fukuyama-kaisei.jp/index.html" }, "geometry": { "type": "Point", "coordinates": [ 133.403579, 34.4929627 ] } },
{ "type": "Feature", "properties": { "内容": "介護老人保健施設グリーンハウス宏喜苑【通所リハビリテーション】福山市南本庄三丁目8番17号", "url": "https://www.kaigokensaku.mhlw.go.jp/34/index.php?action_kouhyou_detail_004_kani=true&JigyosyoCd=3451580074-00&ServiceCd=160&Type=search", "url2": "https://koukien.com/" }, "geometry": { "type": "Point", "coordinates": [ 133.353527, 34.4840467 ] } },
{ "type": "Feature", "properties": { "内容": "介護老人保健施設せんだの里【通所リハビリテーション】福山市千田町二丁目5番5号", "url": "https://www.kaigokensaku.mhlw.go.jp/34/index.php?action_kouhyou_detail_004_kani=true&JigyosyoCd=3451580090-00&ServiceCd=160&Type=search", "url2": "http://www.sendanosato.com/" }, "geometry": { "type": "Point", "coordinates": [ 133.367408800000021, 34.5177462 ] } },
{ "type": "Feature", "properties": { "内容": "介護老人保健施設　ふぁみりい【通所リハビリテーション】広島県福山市神辺町字道上2977-1", "url": "https://www.kaigokensaku.mhlw.go.jp/34/index.php?action_kouhyou_detail_004_kani=true&JigyosyoCd=3454480025-00&ServiceCd=160&Type=search", "url2": "http://family-roken.jp/" }, "geometry": { "type": "Point", "coordinates": [ 133.353318108239819, 34.550484137969249 ] } },
{ "type": "Feature", "properties": { "内容": "奥坊クリニック【通所リハビリテーション】福山市西桜町一丁目6-1", "url": "https://www.kaigokensaku.mhlw.go.jp/34/index.php?action_kouhyou_detail_004_kani=true&JigyosyoCd=3411511581-00&ServiceCd=160&Type=search", "url2": "http://www.okunobou.or.jp/home/tsurihabiri.html" }, "geometry": { "type": "Point", "coordinates": [ 133.357746300000031, 34.48408280000001 ] } },
{ "type": "Feature", "properties": { "内容": "松永脳外科クリニック【通所リハビリテーション】広島県福山市宮前町二丁目６番２０号", "url": "https://www.kaigokensaku.mhlw.go.jp/34/index.php?action_kouhyou_detail_004_kani=true&JigyosyoCd=3411511920-00&ServiceCd=160&Type=search", "url2": "http://www.matsunaga-nogeka-clinic.com/" }, "geometry": { "type": "Point", "coordinates": [ 133.262117200000034, 34.4541433 ] } },
{ "type": "Feature", "properties": { "内容": "脳神経センター　大田記念病院【通所リハビリテーション】広島県福山市沖野上町3丁目6番28号", "url": "https://www.kaigokensaku.mhlw.go.jp/34/index.php?action_kouhyou_detail_004_kani=true&JigyosyoCd=3411512829-00&ServiceCd=160&Type=search", "url2": "https://otahp.jp/region/home_support/#sec03" }, "geometry": { "type": "Point", "coordinates": [ 133.373668400000042, 34.4720422 ] } },
{ "type": "Feature", "properties": { "内容": "福山第一病院【通所リハビリテーション】福山市南蔵王町5丁目14番5号", "url": "https://www.kaigokensaku.mhlw.go.jp/34/index.php?action_kouhyou_detail_004_kani=true&JigyosyoCd=3411513017-00&ServiceCd=160&Type=search", "url2": "https://www.jojokai.or.jp/" }, "geometry": { "type": "Point", "coordinates": [ 133.4020342, 34.50372550000003 ] } },
{ "type": "Feature", "properties": { "内容": "石井内科【通所リハビリテーション】広島県福山市本郷町1605番地2", "url": "https://www.kaigokensaku.mhlw.go.jp/34/index.php?action_kouhyou_detail_004_kani=true&JigyosyoCd=3411513041-00&ServiceCd=160&Type=search", "url2": "https://www.ishiinaika.jp/" }, "geometry": { "type": "Point", "coordinates": [ 133.245953900000018, 34.4686413 ] } },
{ "type": "Feature", "properties": { "内容": "西福山病院【通所リハビリテーション】広島県福山市松永町340-1", "url": "https://www.kaigokensaku.mhlw.go.jp/34/index.php?action_kouhyou_detail_004_kani=true&JigyosyoCd=3411513280-00&ServiceCd=160&Type=search", "url2": "http://nishifuk.or.jp" }, "geometry": { "type": "Point", "coordinates": [ 133.259412, 34.4518325 ] } },
{ "type": "Feature", "properties": { "内容": "医療法人社団　石田内科・循環器科【通所リハビリテーション】福山市東川口町4丁目9番12号", "url": "https://www.kaigokensaku.mhlw.go.jp/34/index.php?action_kouhyou_detail_004_kani=true&JigyosyoCd=3411513595-00&ServiceCd=160&Type=search", "url2": "http://www.ishida.or.jp/day/index.html" }, "geometry": { "type": "Point", "coordinates": [ 133.385754, 34.4736449 ] } },
{ "type": "Feature", "properties": { "内容": "中村整形外科【通所リハビリテーション】福山市南蔵王町２丁目４番１１号", "url": "https://www.kaigokensaku.mhlw.go.jp/34/index.php?action_kouhyou_detail_004_kani=true&JigyosyoCd=3411514015-00&ServiceCd=160&Type=search", "url2": "http://nakamura-ortho.com/" }, "geometry": { "type": "Point", "coordinates": [ 133.391949, 34.5038033 ] } },
{ "type": "Feature", "properties": { "内容": "福山整形外科クリニック【通所リハビリテーション】福山市神辺町川北1533", "url": "https://www.kaigokensaku.mhlw.go.jp/34/index.php?action_kouhyou_detail_004_kani=true&JigyosyoCd=3411515244-00&ServiceCd=160&Type=search", "url2": "http://www.hishokai.or.jp" }, "geometry": { "type": "Point", "coordinates": [ 133.36335889999998, 34.5416796 ] } },
{ "type": "Feature", "properties": { "内容": "介護医療院みしま【通所リハビリテーション】広島県福山市新市町宮内186-5", "url": "https://www.kaigokensaku.mhlw.go.jp/34/index.php?action_kouhyou_detail_004_kani=true&JigyosyoCd=34B1500020-00&ServiceCd=160&Type=search", "url2": "https://mishima-iin.com/" }, "geometry": { "type": "Point", "coordinates": [ 133.274559900000014, 34.5691696 ] } },
{ "type": "Feature", "properties": { "内容": "住吉ふじい病院【通所リハビリテーション】広島県福山市住吉町５-８1階", "url": "https://www.kaigokensaku.mhlw.go.jp/34/index.php?action_kouhyou_detail_004_kani=true&JigyosyoCd=3411513678-00&ServiceCd=160&Type=search", "url2": "http://www.seo-hp.or.jp" }, "geometry": { "type": "Point", "coordinates": [ 133.371126199999907, 34.4858632 ] } },
{ "type": "Feature", "properties": { "内容": "佐藤脳神経外科【通所リハビリテーション】福山市松永町5丁目23番23号", "url": "https://www.kaigokensaku.mhlw.go.jp/34/index.php?action_kouhyou_detail_004_kani=true&JigyosyoCd=3411514049-00&ServiceCd=160&Type=search", "url2": "http://www.ryofukai.jp/" }, "geometry": { "type": "Point", "coordinates": [ 133.26057609999998, 34.4461332 ] } },
{ "type": "Feature", "properties": { "内容": "医療法人慈彗会　亀川病院【通所リハビリテーション】福山市神辺町字下御領682番地の1", "url": "https://www.kaigokensaku.mhlw.go.jp/34/index.php?action_kouhyou_detail_004_kani=true&JigyosyoCd=3414410344-00&ServiceCd=160&Type=search", "url2": "http://www.kamegawa-hospital.jp/" }, "geometry": { "type": "Point", "coordinates": [ 133.398480599999971, 34.5646525 ] } },
{ "type": "Feature", "properties": { "内容": "小川内科胃腸科【通所リハビリテーション】福山市神辺町大字新徳田５４５番地の１", "url": "https://www.kaigokensaku.mhlw.go.jp/34/index.php?action_kouhyou_detail_004_kani=true&JigyosyoCd=3414410419-00&ServiceCd=160&Type=search", "url2": "http://www.ogawanaika.or.jp" }, "geometry": { "type": "Point", "coordinates": [ 133.364283699999987, 34.5465125 ] } },
{ "type": "Feature", "properties": { "内容": "優輝整形リハビリステーション【通所リハビリテーション】福山市神辺町大字川南105番1", "url": "https://www.kaigokensaku.mhlw.go.jp/34/index.php?action_kouhyou_detail_004_kani=true&JigyosyoCd=3414410450-00&ServiceCd=160&Type=search", "url2": "https://www.web-clover.net/yuukiseikei/" }, "geometry": { "type": "Point", "coordinates": [ 133.366389199999958, 34.539891 ] } },
{ "type": "Feature", "properties": { "内容": "介護老人保健施設かがやき苑【通所リハビリテーション】広島県府中市上下町深江10488番地1", "url": "https://www.kaigokensaku.mhlw.go.jp/34/index.php?action_kouhyou_detail_004_kani=true&JigyosyoCd=3454780010-00&ServiceCd=160&Type=search", "url2": null }, "geometry": { "type": "Point", "coordinates": [ 133.12009139999995, 34.6825944 ] } },
{ "type": "Feature", "properties": { "内容": "介護医療院みのり【通所リハビリテーション】広島県府中市元町43-1", "url": "https://www.kaigokensaku.mhlw.go.jp/34/index.php?action_kouhyou_detail_004_kani=true&JigyosyoCd=34B1700018-00&ServiceCd=160&Type=search", "url2": "https://www.youseikai-grp.jp/kh/" }, "geometry": { "type": "Point", "coordinates": [ 133.242575499999987, 34.5714002 ] } },
{ "type": "Feature", "properties": { "内容": "府中北市民病院【通所リハビリテーション】広島県府中市上下町上下2101番地", "url": "https://www.kaigokensaku.mhlw.go.jp/34/index.php?action_kouhyou_detail_004_kani=true&JigyosyoCd=3411710738-00&ServiceCd=160&Type=search", "url2": "https://kitashimin.fuchuhp.jp/" }, "geometry": { "type": "Point", "coordinates": [ 133.120174300000031, 34.6965844 ] } },
{ "type": "Feature", "properties": { "内容": "介護老人保健施設　あいあい【通所リハビリテーション】広島県府中市三郎丸町１３７", "url": "https://www.kaigokensaku.mhlw.go.jp/34/index.php?action_kouhyou_detail_004_kani=true&JigyosyoCd=3451780013-00&ServiceCd=160&Type=search", "url2": "http://www.aiai-fukushi.net/saburo/" }, "geometry": { "type": "Point", "coordinates": [ 133.187687200000028, 34.5443113 ] } },
{ "type": "Feature", "properties": { "内容": "中川整形外科医院【通所リハビリテーション】府中市中須町77番地", "url": "https://www.kaigokensaku.mhlw.go.jp/34/index.php?action_kouhyou_detail_004_kani=true&JigyosyoCd=3411710324-00&ServiceCd=160&Type=search", "url2": null }, "geometry": { "type": "Point", "coordinates": [ 133.267179899999974, 34.5556237 ] } },
{ "type": "Feature", "properties": { "内容": "介護老人保健施設リカバリーセンター章仁苑【通所リハビリテーション】広島県三次市和知町字歳政１１８００番地２１", "url": "https://www.kaigokensaku.mhlw.go.jp/34/index.php?action_kouhyou_detail_004_kani=true&JigyosyoCd=3451980027-00&ServiceCd=160&Type=search", "url2": "http://www.shoujin.or.jp" }, "geometry": { "type": "Point", "coordinates": [ 132.921161812442051, 34.798807569696258 ] } },
{ "type": "Feature", "properties": { "内容": "介護老人保健施設　ナーシングホーム　沙羅【通所リハビリテーション】三次市山家町605番地の24", "url": "https://www.kaigokensaku.mhlw.go.jp/34/index.php?action_kouhyou_detail_004_kani=true&JigyosyoCd=3451980050-00&ServiceCd=160&Type=search", "url2": "http://mifukai.jp/" }, "geometry": { "type": "Point", "coordinates": [ 132.835854700000027, 34.8457603 ] } },
{ "type": "Feature", "properties": { "内容": "医療法人社団　岡崎医院【通所リハビリテーション】三次市十日市中2丁目14‐33", "url": "https://www.kaigokensaku.mhlw.go.jp/34/index.php?action_kouhyou_detail_004_kani=true&JigyosyoCd=3411910213-00&ServiceCd=160&Type=search", "url2": null }, "geometry": { "type": "Point", "coordinates": [ 132.8495964, 34.8054821 ] } },
{ "type": "Feature", "properties": { "内容": "介護老人保健施設　ピレネ【通所リハビリテーション】三次市粟屋町1743-8", "url": "https://www.kaigokensaku.mhlw.go.jp/34/index.php?action_kouhyou_detail_004_kani=true&JigyosyoCd=3451980019-00&ServiceCd=160&Type=search", "url2": "http://www.sinwakai340.e-doctor.info/" }, "geometry": { "type": "Point", "coordinates": [ 132.836353, 34.8102089 ] } },
{ "type": "Feature", "properties": { "内容": "三次地区医師会老人保健施設あさぎり【通所リハビリテーション】三次市粟屋町柳迫1649-1", "url": "https://www.kaigokensaku.mhlw.go.jp/34/index.php?action_kouhyou_detail_004_kani=true&JigyosyoCd=3451980043-00&ServiceCd=160&Type=search", "url2": null }, "geometry": { "type": "Point", "coordinates": [ 132.836833599999977, 34.8047818 ] } },
{ "type": "Feature", "properties": { "内容": "松尾整形外科リハビリクリニック【通所リハビリテーション】広島県三次市十日市東4丁目5-7", "url": "https://www.kaigokensaku.mhlw.go.jp/34/index.php?action_kouhyou_detail_004_kani=true&JigyosyoCd=3411910916-00&ServiceCd=160&Type=search", "url2": "http://matsusei.jp/" }, "geometry": { "type": "Point", "coordinates": [ 132.860987, 34.8048685 ] } },
{ "type": "Feature", "properties": { "内容": "こぶしの里クリニック【通所リハビリテーション】庄原市東城町川東152-4", "url": "https://www.kaigokensaku.mhlw.go.jp/34/index.php?action_kouhyou_detail_004_kani=true&JigyosyoCd=3412110557-00&ServiceCd=160&Type=search", "url2": "http://koujinkai.org/kobushi/" }, "geometry": { "type": "Point", "coordinates": [ 133.2741411, 34.9021028 ] } },
{ "type": "Feature", "properties": { "内容": "庄原市立西城市民病院介護老人保健施設せせらぎ【通所リハビリテーション】庄原市西城町中野1339番地", "url": "https://www.kaigokensaku.mhlw.go.jp/34/index.php?action_kouhyou_detail_004_kani=true&JigyosyoCd=3452180023-00&ServiceCd=160&Type=search", "url2": "https://saijyo-hospital.jp/" }, "geometry": { "type": "Point", "coordinates": [ 133.1158322, 34.939795 ] } },
{ "type": "Feature", "properties": { "内容": "こぶしの里通所リハビリテーション【通所リハビリテーション】広島県庄原市東城町川東152-4", "url": "https://www.kaigokensaku.mhlw.go.jp/34/index.php?action_kouhyou_detail_004_kani=true&JigyosyoCd=3452180031-00&ServiceCd=160&Type=search", "url2": "https://keijinkai-swc.or.jp" }, "geometry": { "type": "Point", "coordinates": [ 133.2741411, 34.9021028 ] } },
{ "type": "Feature", "properties": { "内容": "医療法人社団増原会東城病院【通所リハビリテーション】広島県庄原市東城町川東1463-1", "url": "https://www.kaigokensaku.mhlw.go.jp/34/index.php?action_kouhyou_detail_004_kani=true&JigyosyoCd=3414910129-00&ServiceCd=160&Type=search", "url2": "http://www.toujyo.or.jp" }, "geometry": { "type": "Point", "coordinates": [ 133.274515560713212, 34.897104810884194 ] } },
{ "type": "Feature", "properties": { "内容": "介護老人保健施設　愛生苑【通所リハビリテーション】庄原市上原町6810番地1", "url": "https://www.kaigokensaku.mhlw.go.jp/34/index.php?action_kouhyou_detail_004_kani=true&JigyosyoCd=3452180015-00&ServiceCd=160&Type=search", "url2": "http://seijin-kai.com" }, "geometry": { "type": "Point", "coordinates": [ 133.003424707306749, 34.85343740530945 ] } },
{ "type": "Feature", "properties": { "内容": "介護老人保健施設ゆうゆ【通所リハビリテーション】広島県大竹市玖波5-2-2", "url": "https://www.kaigokensaku.mhlw.go.jp/34/index.php?action_kouhyou_detail_004_kani=true&JigyosyoCd=3452380011-00&ServiceCd=160&Type=search", "url2": "https://www.tijinkai.or.jp/" }, "geometry": { "type": "Point", "coordinates": [ 132.223782799999981, 34.2573555 ] } },
{ "type": "Feature", "properties": { "内容": "医療法人社団　親和会　やまと病院【通所リハビリテーション】大竹市元町1丁目1番5号", "url": "https://www.kaigokensaku.mhlw.go.jp/34/index.php?action_kouhyou_detail_004_kani=true&JigyosyoCd=3412310660-00&ServiceCd=160&Type=search", "url2": null }, "geometry": { "type": "Point", "coordinates": [ 132.216949699999986, 34.2069022 ] } },
{ "type": "Feature", "properties": { "内容": "下山記念クリニック【通所リハビリテーション】東広島市西条町寺家7432番地1", "url": "https://www.kaigokensaku.mhlw.go.jp/34/index.php?action_kouhyou_detail_004_kani=true&JigyosyoCd=3412511044-00&ServiceCd=160&Type=search", "url2": "https://koenkai-gr.jp/facility/102/" }, "geometry": { "type": "Point", "coordinates": [ 132.728607799999963, 34.4224946 ] } },
{ "type": "Feature", "properties": { "内容": "医療法人野村脳神経外科クリニック【通所リハビリテーション】広島県東広島市黒瀬町兼広137", "url": "https://www.kaigokensaku.mhlw.go.jp/34/index.php?action_kouhyou_detail_004_kani=true&JigyosyoCd=3412511788-00&ServiceCd=160&Type=search", "url2": null }, "geometry": { "type": "Point", "coordinates": [ 132.6630846, 34.3226054 ] } },
{ "type": "Feature", "properties": { "内容": "介護老人保健施設　葵の園・広島空港【通所リハビリテーション】東広島市河内町入野7841番地2", "url": "https://www.kaigokensaku.mhlw.go.jp/34/index.php?action_kouhyou_detail_004_kani=true&JigyosyoCd=3452580040-00&ServiceCd=160&Type=search", "url2": "http://www.aoikai.jp" }, "geometry": { "type": "Point", "coordinates": [ 132.872299399999946, 34.4433034 ] } },
{ "type": "Feature", "properties": { "内容": "介護老人保健施設　葵の園・東広島【通所リハビリテーション】広島県東広島市西条町寺家800番地", "url": "https://www.kaigokensaku.mhlw.go.jp/34/index.php?action_kouhyou_detail_004_kani=true&JigyosyoCd=3452580073-00&ServiceCd=160&Type=search", "url2": "https://www.aoikai.jp/higashihiroshima/" }, "geometry": { "type": "Point", "coordinates": [ 132.734501268412231, 34.437387336505076 ] } },
{ "type": "Feature", "properties": { "内容": "介護老人保健施設あきまろ園【通所リハビリテーション】東広島市安芸津町風早４９７番地４１", "url": "https://www.kaigokensaku.mhlw.go.jp/34/index.php?action_kouhyou_detail_004_kani=true&JigyosyoCd=3454080015-00&ServiceCd=160&Type=search", "url2": "http://hakujukai.jp" }, "geometry": { "type": "Point", "coordinates": [ 132.7852206, 34.3164103 ] } },
{ "type": "Feature", "properties": { "内容": "介護老人保健施設もみじ園【通所リハビリテーション】広島県東広島市黒瀬町乃美尾555番地1", "url": "https://www.kaigokensaku.mhlw.go.jp/34/index.php?action_kouhyou_detail_004_kani=true&JigyosyoCd=3452580065-00&ServiceCd=160&Type=search", "url2": "https://www.aoikai.jp/" }, "geometry": { "type": "Point", "coordinates": [ 132.691101300000014, 34.3165023 ] } },
{ "type": "Feature", "properties": { "内容": "井野口病院【通所リハビリテーション】広島県東広島市西条土与丸六丁目1-91", "url": "https://www.kaigokensaku.mhlw.go.jp/34/index.php?action_kouhyou_detail_004_kani=true&JigyosyoCd=3412510962-00&ServiceCd=160&Type=search", "url2": "http://inokuchi.or.jp/" }, "geometry": { "type": "Point", "coordinates": [ 132.752321951451108, 34.427054248937395 ] } },
{ "type": "Feature", "properties": { "内容": "のぞみ整形外科クリニック西条【通所リハビリテーション】広島県東広島市西条町助実1182-1", "url": "https://www.kaigokensaku.mhlw.go.jp/34/index.php?action_kouhyou_detail_004_kani=true&JigyosyoCd=3412511481-00&ServiceCd=160&Type=search", "url2": "https://www.nozomi-clinic.jp/saijo/" }, "geometry": { "type": "Point", "coordinates": [ 132.7554867, 34.4249668 ] } },
{ "type": "Feature", "properties": { "内容": "のぞみ整形外科クリニック寺家【通所リハビリテーション】広島県東広島市西条町寺家4720", "url": "https://www.kaigokensaku.mhlw.go.jp/34/index.php?action_kouhyou_detail_004_kani=true&JigyosyoCd=3412512166-00&ServiceCd=160&Type=search", "url2": "https://www.nozomi-clinic.jp/jike/" }, "geometry": { "type": "Point", "coordinates": [ 132.723261699999966, 34.437091099999989 ] } },
{ "type": "Feature", "properties": { "内容": "介護老人保健施設　きさか【通所リハビリテーション】広島県東広島市西条町土与丸１２３５番地", "url": "https://www.kaigokensaku.mhlw.go.jp/34/index.php?action_kouhyou_detail_004_kani=true&JigyosyoCd=3452580032-00&ServiceCd=160&Type=search", "url2": "http://www.kisaka-hp.or.jp" }, "geometry": { "type": "Point", "coordinates": [ 132.757800299999985, 34.4273665 ] } },
{ "type": "Feature", "properties": { "内容": "医療法人瑠璃光会山田脳神経外科【通所リハビリテーション】広島県東広島市八本松町飯田111-1", "url": "https://www.kaigokensaku.mhlw.go.jp/34/index.php?action_kouhyou_detail_004_kani=true&JigyosyoCd=3412511291-00&ServiceCd=160&Type=search", "url2": "https://www.yamada-nougeka.jp/" }, "geometry": { "type": "Point", "coordinates": [ 132.6894532, 34.4440608 ] } },
{ "type": "Feature", "properties": { "内容": "西条中央病院【通所リハビリテーション】広島県東広島市西条昭和町12番40号", "url": "https://www.kaigokensaku.mhlw.go.jp/34/index.php?action_kouhyou_detail_004_kani=true&JigyosyoCd=3412511309-00&ServiceCd=160&Type=search", "url2": "http://www.saijo-c-hp.com/" }, "geometry": { "type": "Point", "coordinates": [ 132.7428233, 34.4238823 ] } },
{ "type": "Feature", "properties": { "内容": "のだ医院【通所リハビリテーション】広島県東広島市西条中央3丁目5-6", "url": "https://www.kaigokensaku.mhlw.go.jp/34/index.php?action_kouhyou_detail_004_kani=true&JigyosyoCd=3412510368-00&ServiceCd=160&Type=search", "url2": "https://noda-1.wixsite.com/website-1" }, "geometry": { "type": "Point", "coordinates": [ 132.7439709, 34.4184117 ] } },
{ "type": "Feature", "properties": { "内容": "福富内科外科医院【通所リハビリテーション】広島県東広島市福富町久芳1539-27医療法人福富内科外科医院", "url": "https://www.kaigokensaku.mhlw.go.jp/34/index.php?action_kouhyou_detail_004_kani=true&JigyosyoCd=3412512117-00&ServiceCd=160&Type=search", "url2": "http://www.fukutomi-iin.jp/" }, "geometry": { "type": "Point", "coordinates": [ 132.776829899999939, 34.5345637 ] } },
{ "type": "Feature", "properties": { "内容": "南海診療所【通所リハビリテーション】広島県東広島市安芸津町風早2027", "url": "https://www.kaigokensaku.mhlw.go.jp/34/index.php?action_kouhyou_detail_004_kani=true&JigyosyoCd=3414010409-00&ServiceCd=160&Type=search", "url2": "https://www.nannkai.com/" }, "geometry": { "type": "Point", "coordinates": [ 132.802596, 34.3163715 ] } },
{ "type": "Feature", "properties": { "内容": "東広島記念病院【通所リハビリテーション】東広島市西条町吉行2214番地", "url": "https://www.kaigokensaku.mhlw.go.jp/34/index.php?action_kouhyou_detail_004_kani=true&JigyosyoCd=3412511051-00&ServiceCd=160&Type=search", "url2": "http://www.hmh.or.jp" }, "geometry": { "type": "Point", "coordinates": [ 132.756091800000036, 34.4383929 ] } },
{ "type": "Feature", "properties": { "内容": "かわごえクリニック【通所リハビリテーション】広島県廿日市市宮内3-1-27", "url": "https://www.kaigokensaku.mhlw.go.jp/34/index.php?action_kouhyou_detail_004_kani=true&JigyosyoCd=3412711354-00&ServiceCd=160&Type=search", "url2": "http://www.kawagoeclinic.com" }, "geometry": { "type": "Point", "coordinates": [ 132.312521400000037, 34.348302300000022 ] } },
{ "type": "Feature", "properties": { "内容": "介護老人保健施設原【通所リハビリテーション】廿日市市原９２６－１", "url": "https://www.kaigokensaku.mhlw.go.jp/34/index.php?action_kouhyou_detail_004_kani=true&JigyosyoCd=3452780038-00&ServiceCd=160&Type=search", "url2": "http://www.misasakai.or.jp/shisetsu/hara.php" }, "geometry": { "type": "Point", "coordinates": [ 132.299996800000031, 34.3687219 ] } },
{ "type": "Feature", "properties": { "内容": "介護老人保健施設ひまわり【通所リハビリテーション】廿日市市宮内字佐原田4211-4", "url": "https://www.kaigokensaku.mhlw.go.jp/34/index.php?action_kouhyou_detail_004_kani=true&JigyosyoCd=3452780012-00&ServiceCd=160&Type=search", "url2": "http://www.miyauchi.or.jp" }, "geometry": { "type": "Point", "coordinates": [ 132.298888582664517, 34.339785758274019 ] } },
{ "type": "Feature", "properties": { "内容": "大野東クリニック【通所リハビリテーション】広島県廿日市市下更地1809-９", "url": "https://www.kaigokensaku.mhlw.go.jp/34/index.php?action_kouhyou_detail_004_kani=true&JigyosyoCd=3412711305-00&ServiceCd=160&Type=search", "url2": null }, "geometry": { "type": "Point", "coordinates": [ 132.290705300000013, 34.3134816 ] } },
{ "type": "Feature", "properties": { "内容": "大野浦病院【通所リハビリテーション】広島県廿日市市丸石二丁目3番35号", "url": "https://www.kaigokensaku.mhlw.go.jp/34/index.php?action_kouhyou_detail_004_kani=true&JigyosyoCd=3413312335-00&ServiceCd=160&Type=search", "url2": "http://www.onoura.or.jp" }, "geometry": { "type": "Point", "coordinates": [ 132.261346600000024, 34.2750849 ] } },
{ "type": "Feature", "properties": { "内容": "医療法人あかね会　介護老人保健施設　シェスタ【通所リハビリテーション】廿日市市阿品四丁目51番1号", "url": "https://www.kaigokensaku.mhlw.go.jp/34/index.php?action_kouhyou_detail_004_kani=true&JigyosyoCd=3452780020-00&ServiceCd=160&Type=search", "url2": "http://www.tsuchiya-hp.jp/" }, "geometry": { "type": "Point", "coordinates": [ 132.31067459999997, 34.3200385 ] } },
{ "type": "Feature", "properties": { "内容": "介護老人保健施設「べにまんさくの里」【通所リハビリテーション】廿日市市大野1320番地", "url": "https://www.kaigokensaku.mhlw.go.jp/34/index.php?action_kouhyou_detail_004_kani=true&JigyosyoCd=3453380010-00&ServiceCd=160&Type=search", "url2": "http://www.koujinkai.org" }, "geometry": { "type": "Point", "coordinates": [ 132.274961299999973, 34.2976739 ] } },
{ "type": "Feature", "properties": { "内容": "大田整形外科【通所リハビリテーション】広島県廿日市市駅前4-28", "url": "https://www.kaigokensaku.mhlw.go.jp/34/index.php?action_kouhyou_detail_004_kani=true&JigyosyoCd=3412711438-00&ServiceCd=160&Type=search", "url2": "https://hatsukaichi-otaseikei.com" }, "geometry": { "type": "Point", "coordinates": [ 132.3362143, 34.357634784422778 ] } },
{ "type": "Feature", "properties": { "内容": "廿日市記念病院【通所リハビリテーション】廿日市市陽光台5丁目12番", "url": "https://www.kaigokensaku.mhlw.go.jp/34/index.php?action_kouhyou_detail_004_kani=true&JigyosyoCd=3412710752-00&ServiceCd=160&Type=search", "url2": "http://www.seifu.or.jp" }, "geometry": { "type": "Point", "coordinates": [ 132.308310300000016, 34.3562205 ] } },
{ "type": "Feature", "properties": { "内容": "こだま整形外科医院【通所リハビリテーション】広島県安芸高田市吉田町常友341-1", "url": "https://www.kaigokensaku.mhlw.go.jp/34/index.php?action_kouhyou_detail_004_kani=true&JigyosyoCd=3413610878-00&ServiceCd=160&Type=search", "url2": "http://aratamakai.web.fc2.com" }, "geometry": { "type": "Point", "coordinates": [ 132.699932600000011, 34.6618718 ] } },
{ "type": "Feature", "properties": { "内容": "徳永医院【通所リハビリテーション】安芸高田市甲田町高田原1419-1", "url": "https://www.kaigokensaku.mhlw.go.jp/34/index.php?action_kouhyou_detail_004_kani=true&JigyosyoCd=3413610704-00&ServiceCd=160&Type=search", "url2": null }, "geometry": { "type": "Point", "coordinates": [ 132.7565108, 34.6970849 ] } },
{ "type": "Feature", "properties": { "内容": "青木病院【通所リハビリテーション】江田島市江田島町中央４-１７-１０", "url": "https://www.kaigokensaku.mhlw.go.jp/34/index.php?action_kouhyou_detail_004_kani=true&JigyosyoCd=3413110143-00&ServiceCd=160&Type=search", "url2": "http://www.jinpuukai.or.jp" }, "geometry": { "type": "Point", "coordinates": [ 132.4785958, 34.2370397 ] } },
{ "type": "Feature", "properties": { "内容": "介護老人保健施設　あすなろ【通所リハビリテーション】江田島市江田島町江南1丁目24番12号", "url": "https://www.kaigokensaku.mhlw.go.jp/34/index.php?action_kouhyou_detail_004_kani=true&JigyosyoCd=3453180014-00&ServiceCd=160&Type=search", "url2": "http://www.jinpuukai.or.jp" }, "geometry": { "type": "Point", "coordinates": [ 132.474516599999987, 34.2040631 ] } },
{ "type": "Feature", "properties": { "内容": "島の病院おおたに【通所リハビリテーション】広島県江田島市能美町中町4711", "url": "https://www.kaigokensaku.mhlw.go.jp/34/index.php?action_kouhyou_detail_004_kani=true&JigyosyoCd=3412910089-00&ServiceCd=160&Type=search", "url2": "http://otani.or.jp/" }, "geometry": { "type": "Point", "coordinates": [ 132.452514325226844, 34.225961810750299 ] } },
{ "type": "Feature", "properties": { "内容": "老人保健施設チェリーゴード【通所リハビリテーション】広島県安芸郡府中町柳ヶ丘２０番１８号", "url": "https://www.kaigokensaku.mhlw.go.jp/34/index.php?action_kouhyou_detail_004_kani=true&JigyosyoCd=3453280012-00&ServiceCd=160&Type=search", "url2": "http://www.fig-g.jp/" }, "geometry": { "type": "Point", "coordinates": [ 132.514831800000024, 34.3828906 ] } },
{ "type": "Feature", "properties": { "内容": "介護老人保健施設さくら【通所リハビリテーション】広島県安芸郡海田町堀川町２－２３", "url": "https://www.kaigokensaku.mhlw.go.jp/34/index.php?action_kouhyou_detail_004_kani=true&JigyosyoCd=3453280020-00&ServiceCd=160&Type=search", "url2": null }, "geometry": { "type": "Point", "coordinates": [ 132.530947500000025, 34.3684371 ] } },
{ "type": "Feature", "properties": { "内容": "介護老人保健施設　熊野ゆうあいホーム【通所リハビリテーション】広島県安芸郡熊野町出来庭三丁目４－６７", "url": "https://www.kaigokensaku.mhlw.go.jp/34/index.php?action_kouhyou_detail_004_kani=true&JigyosyoCd=3453180022-00&ServiceCd=160&Type=search", "url2": "http://www.kumanoyuai.com" }, "geometry": { "type": "Point", "coordinates": [ 132.576571300000069, 34.3311948 ] } },
{ "type": "Feature", "properties": { "内容": "介護老人保健施設はまな荘【通所リハビリテーション】広島県安芸郡坂町北新地二丁目3番10号", "url": "https://www.kaigokensaku.mhlw.go.jp/34/index.php?action_kouhyou_detail_004_kani=true&JigyosyoCd=3453180030-00&ServiceCd=160&Type=search", "url2": "http://www.saiseikai.com/hamana/" }, "geometry": { "type": "Point", "coordinates": [ 132.518643600000019, 34.3507891 ] } },
{ "type": "Feature", "properties": { "内容": "老人保健施設ひこばえ【通所リハビリテーション】広島県山県郡安芸太田町大字加計683番地の１", "url": "https://www.kaigokensaku.mhlw.go.jp/34/index.php?action_kouhyou_detail_004_kani=true&JigyosyoCd=3453580023-00&ServiceCd=160&Type=search", "url2": "https://rouken-hikobae.jp/" }, "geometry": { "type": "Point", "coordinates": [ 132.318335599999955, 34.6004183 ] } },
{ "type": "Feature", "properties": { "内容": "北広島病院【通所リハビリテーション】広島県山県郡北広島町壬生433-4", "url": "https://www.kaigokensaku.mhlw.go.jp/34/index.php?action_kouhyou_detail_004_kani=true&JigyosyoCd=3413510318-00&ServiceCd=160&Type=search", "url2": "http://www.m-meiwakai.ne.jp" }, "geometry": { "type": "Point", "coordinates": [ 132.551843, 34.6807177 ] } },
{ "type": "Feature", "properties": { "内容": "介護老人保健施設あけぼの【通所リハビリテーション】広島県山県郡北広島町壬生915-4", "url": "https://www.kaigokensaku.mhlw.go.jp/34/index.php?action_kouhyou_detail_004_kani=true&JigyosyoCd=3453580015-00&ServiceCd=160&Type=search", "url2": "http://www.m-meiwakai.jp" }, "geometry": { "type": "Point", "coordinates": [ 132.5530401, 34.6803683 ] } },
{ "type": "Feature", "properties": { "内容": "医療法人社団慶寿会千代田中央病院【通所リハビリテーション】広島県山県郡北広島町有田1192", "url": "https://www.kaigokensaku.mhlw.go.jp/34/index.php?action_kouhyou_detail_004_kani=true&JigyosyoCd=3413510615-00&ServiceCd=160&Type=search", "url2": "https://www.cch.or.jp/" }, "geometry": { "type": "Point", "coordinates": [ 132.5390203, 34.6736639 ] } },
{ "type": "Feature", "properties": { "内容": "北広島町豊平診療所【通所リハビリテーション】広島県山県郡北広島町阿坂4705", "url": "https://www.kaigokensaku.mhlw.go.jp/34/index.php?action_kouhyou_detail_004_kani=true&JigyosyoCd=3413510730-00&ServiceCd=160&Type=search", "url2": "http://www.m-meiwakai.jp" }, "geometry": { "type": "Point", "coordinates": [ 132.449416299999939, 34.6283424 ] } },
{ "type": "Feature", "properties": { "内容": "介護老人保健施設　葵の園・セラ【通所リハビリテーション】広島県世羅郡世羅町本郷1216", "url": "https://www.kaigokensaku.mhlw.go.jp/34/index.php?action_kouhyou_detail_004_kani=true&JigyosyoCd=3454280011-00&ServiceCd=160&Type=search", "url2": "https://www.aoikai.jp" }, "geometry": { "type": "Point", "coordinates": [ 133.0433524, 34.5915634 ] } },
{ "type": "Feature", "properties": { "内容": "介護老人保健施設　ビーブル神石三和【通所リハビリテーション】広島県神石郡神石高原町小畠1500-1", "url": "https://www.kaigokensaku.mhlw.go.jp/34/index.php?action_kouhyou_detail_004_kani=true&JigyosyoCd=3454680012-00&ServiceCd=160&Type=search", "url2": "http://www.kbk-group.or.jp/" }, "geometry": { "type": "Point", "coordinates": [ 133.252471300000025, 34.704392 ] } }
]
}
