{
"type": "FeatureCollection",
"name": "geo_34_短期入所療養介護（介護老人保健施設）",
"crs": { "type": "name", "properties": { "name": "urn:ogc:def:crs:OGC:1.3:CRS84" } },
"features": [
{ "type": "Feature", "properties": { "内容": "老人保健施設平和の里【短期入所療養介護（介護老人保健施設）】広島市中区加古町6-1", "url": "https://www.kaigokensaku.mhlw.go.jp/34/index.php?action_kouhyou_detail_004_kani=true&JigyosyoCd=3450180066-00&ServiceCd=220&Type=search", "url2": "ｈｔｔｐ：//ｗｗｗ.heiwanosato.net" }, "geometry": { "type": "Point", "coordinates": [ 132.4496011, 34.387625 ] } },
{ "type": "Feature", "properties": { "内容": "介護老人保健施設ひばり【短期入所療養介護（介護老人保健施設）】広島市中区昭和町1番5号", "url": "https://www.kaigokensaku.mhlw.go.jp/34/index.php?action_kouhyou_detail_004_kani=true&JigyosyoCd=3450180124-00&ServiceCd=220&Type=search", "url2": "http://www.suiseikai.jp/" }, "geometry": { "type": "Point", "coordinates": [ 132.466469500000017, 34.3834089 ] } },
{ "type": "Feature", "properties": { "内容": "介護老人保健施設　葵の園・広島【短期入所療養介護（介護老人保健施設）】広島県広島市中区平野町3-8", "url": "https://www.kaigokensaku.mhlw.go.jp/34/index.php?action_kouhyou_detail_004_kani=true&JigyosyoCd=3450180165-00&ServiceCd=220&Type=search", "url2": "http://www.aoikai.jp" }, "geometry": { "type": "Point", "coordinates": [ 132.462794900000063, 34.381359 ] } },
{ "type": "Feature", "properties": { "内容": "介護療養型老人保健施設いわさき【短期入所療養介護（介護老人保健施設）】広島県広島市東区東山町1番9号", "url": "https://www.kaigokensaku.mhlw.go.jp/34/index.php?action_kouhyou_detail_004_kani=true&JigyosyoCd=3450180140-00&ServiceCd=220&Type=search", "url2": null }, "geometry": { "type": "Point", "coordinates": [ 132.491211180950899, 34.399136020903974 ] } },
{ "type": "Feature", "properties": { "内容": "老人保健施設スカイバード【短期入所療養介護（介護老人保健施設）】広島市東区福田町3198番地", "url": "https://www.kaigokensaku.mhlw.go.jp/34/index.php?action_kouhyou_detail_004_kani=true&JigyosyoCd=3450180058-00&ServiceCd=220&Type=search", "url2": "https://www.joukou.or.jp/shisetsu/s-bird/" }, "geometry": { "type": "Point", "coordinates": [ 132.54698529999996, 34.4492898 ] } },
{ "type": "Feature", "properties": { "内容": "介護老人保健施設ウェルフェア【短期入所療養介護（介護老人保健施設）】広島市東区上温品一丁目２１－６", "url": "https://www.kaigokensaku.mhlw.go.jp/34/index.php?action_kouhyou_detail_004_kani=true&JigyosyoCd=3450180116-00&ServiceCd=220&Type=search", "url2": "http://www.takamasa.or.jp" }, "geometry": { "type": "Point", "coordinates": [ 132.51359750000006, 34.4214865 ] } },
{ "type": "Feature", "properties": { "内容": "介護老人保健施設牛田バラ苑【短期入所療養介護（介護老人保健施設）】広島市東区牛田新町三丁目３０番３０号", "url": "https://www.kaigokensaku.mhlw.go.jp/34/index.php?action_kouhyou_detail_004_kani=true&JigyosyoCd=3450180108-00&ServiceCd=220&Type=search", "url2": "http://www.ushita-baraen.com" }, "geometry": { "type": "Point", "coordinates": [ 132.471906399999966, 34.4240939 ] } },
{ "type": "Feature", "properties": { "内容": "介護老人保健施設ひうな荘【短期入所療養介護（介護老人保健施設）】広島市南区日宇那町30番1号", "url": "https://www.kaigokensaku.mhlw.go.jp/34/index.php?action_kouhyou_detail_004_kani=true&JigyosyoCd=3450180025-00&ServiceCd=220&Type=search", "url2": "http://www.misasakai.or.jp/hiunasou/" }, "geometry": { "type": "Point", "coordinates": [ 132.492701, 34.3656837 ] } },
{ "type": "Feature", "properties": { "内容": "介護老人保健施設　ｅハウス【短期入所療養介護（介護老人保健施設）】広島市南区仁保一丁目６－１８", "url": "https://www.kaigokensaku.mhlw.go.jp/34/index.php?action_kouhyou_detail_004_kani=true&JigyosyoCd=3450180082-00&ServiceCd=220&Type=search", "url2": "http://www.hiroshimakosei.or.jp" }, "geometry": { "type": "Point", "coordinates": [ 132.493689600000039, 34.3734911 ] } },
{ "type": "Feature", "properties": { "内容": "介護老人保健施設　洋光台バラ苑【短期入所療養介護（介護老人保健施設）】広島市南区向洋新町一丁目１７－１７", "url": "https://www.kaigokensaku.mhlw.go.jp/34/index.php?action_kouhyou_detail_004_kani=true&JigyosyoCd=3450180017-00&ServiceCd=220&Type=search", "url2": "http://y-baraen.com/" }, "geometry": { "type": "Point", "coordinates": [ 132.51297969999996, 34.3661704 ] } },
{ "type": "Feature", "properties": { "内容": "西広島幸楽苑【短期入所療養介護（介護老人保健施設）】広島市西区田方２丁目１６番４５号", "url": "https://www.kaigokensaku.mhlw.go.jp/34/index.php?action_kouhyou_detail_004_kani=true&JigyosyoCd=3450280098-00&ServiceCd=220&Type=search", "url2": "http://www.wadokai.or.jp" }, "geometry": { "type": "Point", "coordinates": [ 132.396051100000022, 34.3918102 ] } },
{ "type": "Feature", "properties": { "内容": "介護老人保健施設ピア観音【短期入所療養介護（介護老人保健施設）】広島市西区観音新町一丁目７番４０号", "url": "https://www.kaigokensaku.mhlw.go.jp/34/index.php?action_kouhyou_detail_004_kani=true&JigyosyoCd=3450280122-00&ServiceCd=220&Type=search", "url2": "http://www.jiraku.or.jp" }, "geometry": { "type": "Point", "coordinates": [ 132.4282799, 34.3741067 ] } },
{ "type": "Feature", "properties": { "内容": "介護老人保健施設三滝ひまわり【短期入所療養介護（介護老人保健施設）】広島市西区三滝本町二丁目13番34-2号", "url": "https://www.kaigokensaku.mhlw.go.jp/34/index.php?action_kouhyou_detail_004_kani=true&JigyosyoCd=3450280130-00&ServiceCd=220&Type=search", "url2": "http://www.miyauchi.or.jp/mitaki/" }, "geometry": { "type": "Point", "coordinates": [ 132.44354450000003, 34.417813700000011 ] } },
{ "type": "Feature", "properties": { "内容": "老人保健施設　しんあい【短期入所療養介護（介護老人保健施設）】広島市安佐南区伴東７丁目９－３老人保健施設しんあい", "url": "https://www.kaigokensaku.mhlw.go.jp/34/index.php?action_kouhyou_detail_004_kani=true&JigyosyoCd=3450280072-00&ServiceCd=220&Type=search", "url2": "https://shinaikai.hibino.or.jp" }, "geometry": { "type": "Point", "coordinates": [ 132.421206100000063, 34.464610600000015 ] } },
{ "type": "Feature", "properties": { "内容": "医療法人社団聖愛会　介護老人保健施設とやま【短期入所療養介護（介護老人保健施設）】広島県広島市安佐南区沼田町吉山字風呂ノ元９８０－１", "url": "https://www.kaigokensaku.mhlw.go.jp/34/index.php?action_kouhyou_detail_004_kani=true&JigyosyoCd=3450280155-00&ServiceCd=220&Type=search", "url2": "https://www.smile-seiaikai.com/toyama/index.html" }, "geometry": { "type": "Point", "coordinates": [ 132.344409300000052, 34.4668228 ] } },
{ "type": "Feature", "properties": { "内容": "介護老人保健施設ベルローゼ【短期入所療養介護（介護老人保健施設）】広島市安佐南区上安六丁目３１番１号", "url": "https://www.kaigokensaku.mhlw.go.jp/34/index.php?action_kouhyou_detail_004_kani=true&JigyosyoCd=3450280056-00&ServiceCd=220&Type=search", "url2": "http://www.igl.or.jp/kourei/berurose.html" }, "geometry": { "type": "Point", "coordinates": [ 132.444664699999947, 34.4832175 ] } },
{ "type": "Feature", "properties": { "内容": "介護老人保健施設　希望の園【短期入所療養介護（介護老人保健施設）】広島市安佐南区八木5丁目16-2", "url": "https://www.kaigokensaku.mhlw.go.jp/34/index.php?action_kouhyou_detail_004_kani=true&JigyosyoCd=3450280064-00&ServiceCd=220&Type=search", "url2": "https://keiaikai-asa.com/publics/index/27/" }, "geometry": { "type": "Point", "coordinates": [ 132.50271, 34.4833636 ] } },
{ "type": "Feature", "properties": { "内容": "介護老人保健施設　白木ツジマチ【短期入所療養介護（介護老人保健施設）】広島市安佐北区白木町小越218番2", "url": "https://www.kaigokensaku.mhlw.go.jp/34/index.php?action_kouhyou_detail_004_kani=true&JigyosyoCd=3450280106-00&ServiceCd=220&Type=search", "url2": "https://www.misasakai.or.jp/shisetsu/izumi.php" }, "geometry": { "type": "Point", "coordinates": [ 132.662858886169488, 34.55187464092311 ] } },
{ "type": "Feature", "properties": { "内容": "老人保健施設　さんさん高陽【短期入所療養介護（介護老人保健施設）】広島市安佐北区亀崎4-7-1", "url": "https://www.kaigokensaku.mhlw.go.jp/34/index.php?action_kouhyou_detail_004_kani=true&JigyosyoCd=3450280015-00&ServiceCd=220&Type=search", "url2": "http://www.usuikai.jp" }, "geometry": { "type": "Point", "coordinates": [ 132.52585810000005, 34.482181 ] } },
{ "type": "Feature", "properties": { "内容": "介護老人保健施設　菜の花【短期入所療養介護（介護老人保健施設）】広島市安佐北区可部5丁目4-19-10", "url": "https://www.kaigokensaku.mhlw.go.jp/34/index.php?action_kouhyou_detail_004_kani=true&JigyosyoCd=3450280114-00&ServiceCd=220&Type=search", "url2": "http://nanohana-kabe.com/" }, "geometry": { "type": "Point", "coordinates": [ 132.509416500000043, 34.5214286 ] } },
{ "type": "Feature", "properties": { "内容": "介護老人保健施設ふかわ・くにくさ【短期入所療養介護（介護老人保健施設）】広島市安佐北区上深川町186番地1", "url": "https://www.kaigokensaku.mhlw.go.jp/34/index.php?action_kouhyou_detail_004_kani=true&JigyosyoCd=3450280148-00&ServiceCd=220&Type=search", "url2": "https://www.kunikusa.or.jp/" }, "geometry": { "type": "Point", "coordinates": [ 132.552550699999983, 34.4734042 ] } },
{ "type": "Feature", "properties": { "内容": "介護老人保健施設あき【短期入所療養介護（介護老人保健施設）】広島県広島市安芸区瀬野３丁目１２番３５号", "url": "https://www.kaigokensaku.mhlw.go.jp/34/index.php?action_kouhyou_detail_004_kani=true&JigyosyoCd=3450180173-00&ServiceCd=220&Type=search", "url2": "http://www.shoueikai-sakamoto.com/" }, "geometry": { "type": "Point", "coordinates": [ 132.602906, 34.4236104 ] } },
{ "type": "Feature", "properties": { "内容": "老人保健施設せのがわ【短期入所療養介護（介護老人保健施設）】広島市安芸区中野6丁目8-2", "url": "https://www.kaigokensaku.mhlw.go.jp/34/index.php?action_kouhyou_detail_004_kani=true&JigyosyoCd=3450180041-00&ServiceCd=220&Type=search", "url2": "http://www.hatano-group.jp/" }, "geometry": { "type": "Point", "coordinates": [ 132.582852600000024, 34.4116246 ] } },
{ "type": "Feature", "properties": { "内容": "老人保健施設はたのリハビリ【短期入所療養介護（介護老人保健施設）】広島市安芸区中野5丁目１３－３０はたのリハビリ整形外科", "url": "https://www.kaigokensaku.mhlw.go.jp/34/index.php?action_kouhyou_detail_004_kani=true&JigyosyoCd=3450180157-00&ServiceCd=220&Type=search", "url2": "https://hatano-group.jp/" }, "geometry": { "type": "Point", "coordinates": [ 132.580850300000066, 34.4023476 ] } },
{ "type": "Feature", "properties": { "内容": "老人保健施設　りは・くにくさ【短期入所療養介護（介護老人保健施設）】広島市安芸区阿戸町485-1", "url": "https://www.kaigokensaku.mhlw.go.jp/34/index.php?action_kouhyou_detail_004_kani=true&JigyosyoCd=3450180033-00&ServiceCd=220&Type=search", "url2": "https://www.kunikusa.or.jp/" }, "geometry": { "type": "Point", "coordinates": [ 132.62426389999996, 34.3740116 ] } },
{ "type": "Feature", "properties": { "内容": "介護老人保健施設まいえ【短期入所療養介護（介護老人保健施設）】広島県広島市佐伯区坪井三丁目818番地の1", "url": "https://www.kaigokensaku.mhlw.go.jp/34/index.php?action_kouhyou_detail_004_kani=true&JigyosyoCd=3450280031-00&ServiceCd=220&Type=search", "url2": "http://www.pia-gr.or.jp/" }, "geometry": { "type": "Point", "coordinates": [ 132.335098300000027, 34.3821901 ] } },
{ "type": "Feature", "properties": { "内容": "五日市幸楽苑【短期入所療養介護（介護老人保健施設）】広島市佐伯区五日市町下河内188-6", "url": "https://www.kaigokensaku.mhlw.go.jp/34/index.php?action_kouhyou_detail_004_kani=true&JigyosyoCd=3450280049-00&ServiceCd=220&Type=search", "url2": "http://www.gh.wadoukai.jp/" }, "geometry": { "type": "Point", "coordinates": [ 132.3531964, 34.4079292 ] } },
{ "type": "Feature", "properties": { "内容": "介護老人保健施設　湯来まつむら（ユニット型）【短期入所療養介護（介護老人保健施設）】広島県広島市佐伯区湯来町白砂590番", "url": "https://www.kaigokensaku.mhlw.go.jp/34/index.php?action_kouhyou_detail_004_kani=true&JigyosyoCd=3450280163-00&ServiceCd=220&Type=search", "url2": "http://www.matsumura-cc.jp/ym/" }, "geometry": { "type": "Point", "coordinates": [ 132.288331800000037, 34.4212295 ] } },
{ "type": "Feature", "properties": { "内容": "医療法人社団朋和会老人保健施設　花の丘【短期入所療養介護（介護老人保健施設）】広島市佐伯区三宅六丁目２６５番地", "url": "https://www.kaigokensaku.mhlw.go.jp/34/index.php?action_kouhyou_detail_004_kani=true&JigyosyoCd=3450280023-00&ServiceCd=220&Type=search", "url2": "https://www.welnet.jp/hananooka/" }, "geometry": { "type": "Point", "coordinates": [ 132.3390756, 34.3781129 ] } },
{ "type": "Feature", "properties": { "内容": "介護老人保健施設湯来まつむら【短期入所療養介護（介護老人保健施設）】広島市佐伯区湯来町白砂棡曽利５９０番", "url": "https://www.kaigokensaku.mhlw.go.jp/34/index.php?action_kouhyou_detail_004_kani=true&JigyosyoCd=3451980068-00&ServiceCd=220&Type=search", "url2": "http://www.matsumura-cc.jp/ym/" }, "geometry": { "type": "Point", "coordinates": [ 132.2882846, 34.4211295 ] } },
{ "type": "Feature", "properties": { "内容": "介護老人保健施設あおやま【短期入所療養介護（介護老人保健施設）】呉市阿賀北6-15-30", "url": "https://www.kaigokensaku.mhlw.go.jp/34/index.php?action_kouhyou_detail_004_kani=true&JigyosyoCd=3450580117-00&ServiceCd=220&Type=search", "url2": "http://www.aoyama-sei.or.jp" }, "geometry": { "type": "Point", "coordinates": [ 132.6009904, 34.2487911 ] } },
{ "type": "Feature", "properties": { "内容": "介護老人保健施設ユニットあおやま【短期入所療養介護（介護老人保健施設）】広島県呉市阿賀北6-15-30", "url": "https://www.kaigokensaku.mhlw.go.jp/34/index.php?action_kouhyou_detail_004_kani=true&JigyosyoCd=3450580133-00&ServiceCd=220&Type=search", "url2": "http://www.aoyama-sei.or.jp/associate/roken.html" }, "geometry": { "type": "Point", "coordinates": [ 132.6009904, 34.2487911 ] } },
{ "type": "Feature", "properties": { "内容": "老人保健施設成寿園ユニット【短期入所療養介護（介護老人保健施設）】広島県呉市広町字白石免田１３０１２番地", "url": "https://www.kaigokensaku.mhlw.go.jp/34/index.php?action_kouhyou_detail_004_kani=true&JigyosyoCd=3450580141-00&ServiceCd=220&Type=search", "url2": "http：//www.seijukai-welfare.ｊｐ/" }, "geometry": { "type": "Point", "coordinates": [ 132.637952, 34.220062 ] } },
{ "type": "Feature", "properties": { "内容": "介護老人保健施設　あすらや荘【短期入所療養介護（介護老人保健施設）】広島県呉市郷原町2380番地", "url": "https://www.kaigokensaku.mhlw.go.jp/34/index.php?action_kouhyou_detail_004_kani=true&JigyosyoCd=3450580042-00&ServiceCd=220&Type=search", "url2": "https://www.misasakai.or.jp/shisetsu/asurayaso.php" }, "geometry": { "type": "Point", "coordinates": [ 132.6492781, 34.2975477 ] } },
{ "type": "Feature", "properties": { "内容": "老人保健施設　コスモス園【短期入所療養介護（介護老人保健施設）】呉市焼山北三丁目１７１番４", "url": "https://www.kaigokensaku.mhlw.go.jp/34/index.php?action_kouhyou_detail_004_kani=true&JigyosyoCd=3450580018-00&ServiceCd=220&Type=search", "url2": "http://hakujukai.jp/s_cosmos.html" }, "geometry": { "type": "Point", "coordinates": [ 132.554035786230429, 34.309331751275465 ] } },
{ "type": "Feature", "properties": { "内容": "老人保健施設　成寿園【短期入所療養介護（介護老人保健施設）】呉市広町字白石免田13012番地", "url": "https://www.kaigokensaku.mhlw.go.jp/34/index.php?action_kouhyou_detail_004_kani=true&JigyosyoCd=3450580026-00&ServiceCd=220&Type=search", "url2": "http://www.seijukai-welfare.jp/top.html" }, "geometry": { "type": "Point", "coordinates": [ 132.63804479289854, 34.220108771394408 ] } },
{ "type": "Feature", "properties": { "内容": "介護老人保健施設呉中央コスモス園【短期入所療養介護（介護老人保健施設）】呉市西中央３丁目６－７", "url": "https://www.kaigokensaku.mhlw.go.jp/34/index.php?action_kouhyou_detail_004_kani=true&JigyosyoCd=3450580067-00&ServiceCd=220&Type=search", "url2": "https://www.hakujukai.jp/" }, "geometry": { "type": "Point", "coordinates": [ 132.560169, 34.2498399 ] } },
{ "type": "Feature", "properties": { "内容": "介護老人保健施設阿賀コスモス園【短期入所療養介護（介護老人保健施設）】呉市阿賀南３丁目７番１号", "url": "https://www.kaigokensaku.mhlw.go.jp/34/index.php?action_kouhyou_detail_004_kani=true&JigyosyoCd=3450580109-00&ServiceCd=220&Type=search", "url2": "http://www.hakujukai.jp/" }, "geometry": { "type": "Point", "coordinates": [ 132.598013199999968, 34.2341597 ] } },
{ "type": "Feature", "properties": { "内容": "介護老人保健施設葵の園・安浦【短期入所療養介護（介護老人保健施設）】広島県呉市安浦町安登西五丁目11番19号", "url": "https://www.kaigokensaku.mhlw.go.jp/34/index.php?action_kouhyou_detail_004_kani=true&JigyosyoCd=3470503529-00&ServiceCd=220&Type=search", "url2": "http://www.aoikai.jp/yasuura" }, "geometry": { "type": "Point", "coordinates": [ 132.720399600000064, 34.252526302635601 ] } },
{ "type": "Feature", "properties": { "内容": "介護老人保健施設パナケイア【短期入所療養介護（介護老人保健施設）】広島県呉市広白石四丁目7番22号", "url": "https://www.kaigokensaku.mhlw.go.jp/34/index.php?action_kouhyou_detail_004_kani=true&JigyosyoCd=3450580034-00&ServiceCd=220&Type=search", "url2": "http://www.wakokai.jp" }, "geometry": { "type": "Point", "coordinates": [ 132.6419425, 34.2264334 ] } },
{ "type": "Feature", "properties": { "内容": "ルネッサンス瀬戸内【短期入所療養介護（介護老人保健施設）】呉市倉橋町岳之下2638-3", "url": "https://www.kaigokensaku.mhlw.go.jp/34/index.php?action_kouhyou_detail_004_kani=true&JigyosyoCd=3453180055-00&ServiceCd=220&Type=search", "url2": null }, "geometry": { "type": "Point", "coordinates": [ 132.5019101, 34.1166382 ] } },
{ "type": "Feature", "properties": { "内容": "介護老人保健施設メディケア・くれ【短期入所療養介護（介護老人保健施設）】広島県呉市中央2丁目6番20号", "url": "https://www.kaigokensaku.mhlw.go.jp/34/index.php?action_kouhyou_detail_004_kani=true&JigyosyoCd=3450580075-00&ServiceCd=220&Type=search", "url2": "http://www.hospital-maeda.jp/" }, "geometry": { "type": "Point", "coordinates": [ 132.5617661, 34.24566 ] } },
{ "type": "Feature", "properties": { "内容": "医療法人　緑風会　介護老人保健施設　なごみ【短期入所療養介護（介護老人保健施設）】呉市阿賀北1丁目14番15号", "url": "https://www.kaigokensaku.mhlw.go.jp/34/index.php?action_kouhyou_detail_004_kani=true&JigyosyoCd=3450580091-00&ServiceCd=220&Type=search", "url2": "https://hoyu-nagomi.com/" }, "geometry": { "type": "Point", "coordinates": [ 132.592732610589565, 34.25407145856051 ] } },
{ "type": "Feature", "properties": { "内容": "老人保健施設　さざなみ苑【短期入所療養介護（介護老人保健施設）】広島県呉市音戸町高須3丁目7番15号", "url": "https://www.kaigokensaku.mhlw.go.jp/34/index.php?action_kouhyou_detail_004_kani=true&JigyosyoCd=3470503982-00&ServiceCd=220&Type=search", "url2": null }, "geometry": { "type": "Point", "coordinates": [ 132.5414221, 34.1878466 ] } },
{ "type": "Feature", "properties": { "内容": "竹原むつみ老人保健施設【短期入所療養介護（介護老人保健施設）】竹原市下野町650番地", "url": "https://www.kaigokensaku.mhlw.go.jp/34/index.php?action_kouhyou_detail_004_kani=true&JigyosyoCd=3450780014-00&ServiceCd=220&Type=search", "url2": "https://www.keisenkai-gr.jp/takehara-mutsumi/" }, "geometry": { "type": "Point", "coordinates": [ 132.897903600000063, 34.3551784 ] } },
{ "type": "Feature", "properties": { "内容": "老人保健施設ゆさか【短期入所療養介護（介護老人保健施設）】竹原市西野町槇ヶ坪184番地", "url": "https://www.kaigokensaku.mhlw.go.jp/34/index.php?action_kouhyou_detail_004_kani=true&JigyosyoCd=3450780022-00&ServiceCd=220&Type=search", "url2": "http://www.jinjyukai-takehara.or.jp/" }, "geometry": { "type": "Point", "coordinates": [ 132.884777399999962, 34.3954898 ] } },
{ "type": "Feature", "properties": { "内容": "介護老人保健施設　まお【短期入所療養介護（介護老人保健施設）】竹原市下野町3126番地の1", "url": "https://www.kaigokensaku.mhlw.go.jp/34/index.php?action_kouhyou_detail_004_kani=true&JigyosyoCd=3450780030-00&ServiceCd=220&Type=search", "url2": "http://www.yasudabyouin.com/" }, "geometry": { "type": "Point", "coordinates": [ 132.899761600000033, 34.3529815 ] } },
{ "type": "Feature", "properties": { "内容": "社会医療法人里仁会　介護老人保健施設　里仁苑【短期入所療養介護（介護老人保健施設）】広島県三原市皆実３丁目３－２８", "url": "https://www.kaigokensaku.mhlw.go.jp/34/index.php?action_kouhyou_detail_004_kani=true&JigyosyoCd=3450980010-00&ServiceCd=220&Type=search", "url2": "http://www．rijinen.jp/" }, "geometry": { "type": "Point", "coordinates": [ 133.0660891, 34.3914809 ] } },
{ "type": "Feature", "properties": { "内容": "医療法人仁康会　老人保健施設　桃源の郷【短期入所療養介護（介護老人保健施設）】三原市小泉町4258", "url": "https://www.kaigokensaku.mhlw.go.jp/34/index.php?action_kouhyou_detail_004_kani=true&JigyosyoCd=3450980036-00&ServiceCd=220&Type=search", "url2": "http://www.jinkokai.jp" }, "geometry": { "type": "Point", "coordinates": [ 132.984558099999958, 34.3690301 ] } },
{ "type": "Feature", "properties": { "内容": "社会医療法人　里仁会　介護老人保健施設　仁和の里【短期入所療養介護（介護老人保健施設）】三原市大和町和木1505番地", "url": "https://www.kaigokensaku.mhlw.go.jp/34/index.php?action_kouhyou_detail_004_kani=true&JigyosyoCd=3453880019-00&ServiceCd=220&Type=search", "url2": "http://rijinkai.or.jp/" }, "geometry": { "type": "Point", "coordinates": [ 132.922829900000011, 34.5108982 ] } },
{ "type": "Feature", "properties": { "内容": "医療法人仁康会介護老人保健施設　ドリームせせらぎ【短期入所療養介護（介護老人保健施設）】三原市本郷町船木3105-3", "url": "https://www.kaigokensaku.mhlw.go.jp/34/index.php?action_kouhyou_detail_004_kani=true&JigyosyoCd=3453980025-00&ServiceCd=220&Type=search", "url2": "http://www.jinkokai.jp/seseragi/" }, "geometry": { "type": "Point", "coordinates": [ 132.96668539999996, 34.43022 ] } },
{ "type": "Feature", "properties": { "内容": "介護老人保健施設三恵苑【短期入所療養介護（介護老人保健施設）】三原市城町三丁目７番１号", "url": "https://www.kaigokensaku.mhlw.go.jp/34/index.php?action_kouhyou_detail_004_kani=true&JigyosyoCd=3450980028-00&ServiceCd=220&Type=search", "url2": "https://sankeien.net/" }, "geometry": { "type": "Point", "coordinates": [ 133.083804500000042, 34.3965528 ] } },
{ "type": "Feature", "properties": { "内容": "介護老人保健施設　シラユリ【短期入所療養介護（介護老人保健施設）】尾道市向東町鍵屋谷2830", "url": "https://www.kaigokensaku.mhlw.go.jp/34/index.php?action_kouhyou_detail_004_kani=true&JigyosyoCd=3451180057-00&ServiceCd=220&Type=search", "url2": null }, "geometry": { "type": "Point", "coordinates": [ 133.218046400000048, 34.4025652 ] } },
{ "type": "Feature", "properties": { "内容": "因島医師会介護老人保健施設ビロードの丘【短期入所療養介護（介護老人保健施設）】尾道市因島中庄町1955番地", "url": "https://www.kaigokensaku.mhlw.go.jp/34/index.php?action_kouhyou_detail_004_kani=true&JigyosyoCd=3451180065-00&ServiceCd=220&Type=search", "url2": null }, "geometry": { "type": "Point", "coordinates": [ 133.153467800000044, 34.3122848 ] } },
{ "type": "Feature", "properties": { "内容": "老人保健施設　あおかげ苑【短期入所療養介護（介護老人保健施設）】尾道市因島中庄町大山1032番地の1", "url": "https://www.kaigokensaku.mhlw.go.jp/34/index.php?action_kouhyou_detail_004_kani=true&JigyosyoCd=3451380012-00&ServiceCd=220&Type=search", "url2": "https://aokage.jp/" }, "geometry": { "type": "Point", "coordinates": [ 133.175699799999961, 34.3114263 ] } },
{ "type": "Feature", "properties": { "内容": "公立みつぎ総合病院介護老人保健施設「みつぎの苑」【短期入所療養介護（介護老人保健施設）】尾道市御調町高尾１３４８番地６", "url": "https://www.kaigokensaku.mhlw.go.jp/34/index.php?action_kouhyou_detail_004_kani=true&JigyosyoCd=3454180013-00&ServiceCd=220&Type=search", "url2": "http://www.mitsugibyouin.com" }, "geometry": { "type": "Point", "coordinates": [ 133.1327265, 34.5140678 ] } },
{ "type": "Feature", "properties": { "内容": "公立みつぎ総合病院介護老人保健施設「みつぎの苑」ユニット【短期入所療養介護（介護老人保健施設）】広島県尾道市御調町高尾１３４８番地６", "url": "https://www.kaigokensaku.mhlw.go.jp/34/index.php?action_kouhyou_detail_004_kani=true&JigyosyoCd=3454180021-00&ServiceCd=220&Type=search", "url2": "http://www.mitsugibyouin.com" }, "geometry": { "type": "Point", "coordinates": [ 133.132742593254079, 34.513705341891139 ] } },
{ "type": "Feature", "properties": { "内容": "介護老人保健施設　くぼ【短期入所療養介護（介護老人保健施設）】尾道市久保2丁目24-17", "url": "https://www.kaigokensaku.mhlw.go.jp/34/index.php?action_kouhyou_detail_004_kani=true&JigyosyoCd=3451180016-00&ServiceCd=220&Type=search", "url2": "https://www.kougame.jp/" }, "geometry": { "type": "Point", "coordinates": [ 133.205894, 34.4098394 ] } },
{ "type": "Feature", "properties": { "内容": "一般社団法人尾道市医師会　介護老人保健施設　やすらぎの家【短期入所療養介護（介護老人保健施設）】尾道市久保町1718番地", "url": "https://www.kaigokensaku.mhlw.go.jp/34/index.php?action_kouhyou_detail_004_kani=true&JigyosyoCd=3451180032-00&ServiceCd=220&Type=search", "url2": "http://www.onomichi-med.or.jp/yasuraginoie/" }, "geometry": { "type": "Point", "coordinates": [ 133.209398800000031, 34.4217243 ] } },
{ "type": "Feature", "properties": { "内容": "介護老人保健施設　精彩園【短期入所療養介護（介護老人保健施設）】広島県尾道市美ノ郷町三成339番地3", "url": "https://www.kaigokensaku.mhlw.go.jp/34/index.php?action_kouhyou_detail_004_kani=true&JigyosyoCd=3451180040-00&ServiceCd=220&Type=search", "url2": "http://www.seisaikai.or.jp" }, "geometry": { "type": "Point", "coordinates": [ 133.197593268122887, 34.441207451854723 ] } },
{ "type": "Feature", "properties": { "内容": "介護老人保健施設サンビレッジ【短期入所療養介護（介護老人保健施設）】福山市春日町7-6-27", "url": "https://www.kaigokensaku.mhlw.go.jp/34/index.php?action_kouhyou_detail_004_kani=true&JigyosyoCd=3451580025-00&ServiceCd=220&Type=search", "url2": "http://www.toukoukai.or.jp/" }, "geometry": { "type": "Point", "coordinates": [ 133.415207900000041, 34.5087723 ] } },
{ "type": "Feature", "properties": { "内容": "介護老人保健施設ビーブル春秋苑【短期入所療養介護（介護老人保健施設）】福山市王子町１－４－５", "url": "https://www.kaigokensaku.mhlw.go.jp/34/index.php?action_kouhyou_detail_004_kani=true&JigyosyoCd=3451580033-00&ServiceCd=220&Type=search", "url2": "http://www.kbk-group.or.jp/" }, "geometry": { "type": "Point", "coordinates": [ 133.383606099999952, 34.4868076 ] } },
{ "type": "Feature", "properties": { "内容": "介護老人保健施設　かなえ【短期入所療養介護（介護老人保健施設）】広島県福山市金江町藁江550番地1", "url": "https://www.kaigokensaku.mhlw.go.jp/34/index.php?action_kouhyou_detail_004_kani=true&JigyosyoCd=3451580058-00&ServiceCd=220&Type=search", "url2": "http://www.eiwa-kai.or.jp/about/kaigo-info/shisetu04/" }, "geometry": { "type": "Point", "coordinates": [ 133.307723600000031, 34.4412811 ] } },
{ "type": "Feature", "properties": { "内容": "介護老人保健施設　ビーブルかんなべ【短期入所療養介護（介護老人保健施設）】福山市神辺町川南547番地7", "url": "https://www.kaigokensaku.mhlw.go.jp/34/index.php?action_kouhyou_detail_004_kani=true&JigyosyoCd=3451580116-00&ServiceCd=220&Type=search", "url2": "http://www.kbk-group.or.jp/b-k.html" }, "geometry": { "type": "Point", "coordinates": [ 133.369264, 34.5377052 ] } },
{ "type": "Feature", "properties": { "内容": "介護老人保健施設　サンスクエア沼南【短期入所療養介護（介護老人保健施設）】福山市水呑町3332-1", "url": "https://www.kaigokensaku.mhlw.go.jp/34/index.php?action_kouhyou_detail_004_kani=true&JigyosyoCd=3451580041-00&ServiceCd=220&Type=search", "url2": "http://www.sunsquare-1993.org/" }, "geometry": { "type": "Point", "coordinates": [ 133.386757, 34.4384823 ] } },
{ "type": "Feature", "properties": { "内容": "介護老人保健施設　くつろぎ苑【短期入所療養介護（介護老人保健施設）】広島県福山市東手城町1-28-31", "url": "https://www.kaigokensaku.mhlw.go.jp/34/index.php?action_kouhyou_detail_004_kani=true&JigyosyoCd=3451580082-00&ServiceCd=220&Type=search", "url2": "https://kutsurogien.com/" }, "geometry": { "type": "Point", "coordinates": [ 133.402068699999973, 34.4843026 ] } },
{ "type": "Feature", "properties": { "内容": "駅家リハビリテーションＳＡＫＵＲＡ【短期入所療養介護（介護老人保健施設）】福山市駅家町万能倉1046-2", "url": "https://www.kaigokensaku.mhlw.go.jp/34/index.php?action_kouhyou_detail_004_kani=true&JigyosyoCd=3451580108-00&ServiceCd=220&Type=search", "url2": "https://ekiya-sakura.jp/sakura/" }, "geometry": { "type": "Point", "coordinates": [ 133.329758, 34.5500176 ] } },
{ "type": "Feature", "properties": { "内容": "介護老人保健施設ゆめの杜【短期入所療養介護（介護老人保健施設）】広島県福山市千田町千田２５９１番地１", "url": "https://www.kaigokensaku.mhlw.go.jp/34/index.php?action_kouhyou_detail_004_kani=true&JigyosyoCd=3451580132-00&ServiceCd=220&Type=search", "url2": "https://www.yumenomori-rk.jp/" }, "geometry": { "type": "Point", "coordinates": [ 133.38605530000001, 34.5174266 ] } },
{ "type": "Feature", "properties": { "内容": "介護老人保健施設ぬまくま【短期入所療養介護（介護老人保健施設）】福山市沼隈町中山南４６９－３", "url": "https://www.kaigokensaku.mhlw.go.jp/34/index.php?action_kouhyou_detail_004_kani=true&JigyosyoCd=3454380019-00&ServiceCd=220&Type=search", "url2": "http://shounankai.or.jp/" }, "geometry": { "type": "Point", "coordinates": [ 133.32310080000002, 34.419142 ] } },
{ "type": "Feature", "properties": { "内容": "介護老人保健施設ジョイトピアしんいち【短期入所療養介護（介護老人保健施設）】福山市新市町下安井３５１０", "url": "https://www.kaigokensaku.mhlw.go.jp/34/index.php?action_kouhyou_detail_004_kani=true&JigyosyoCd=3454580014-00&ServiceCd=220&Type=search", "url2": "http://www.joytopia.or.jp" }, "geometry": { "type": "Point", "coordinates": [ 133.283444700000018, 34.5712617 ] } },
{ "type": "Feature", "properties": { "内容": "老人保健施設ハイトピア・カイセイ【短期入所療養介護（介護老人保健施設）】広島県福山市引野町5丁目9番21号", "url": "https://www.kaigokensaku.mhlw.go.jp/34/index.php?action_kouhyou_detail_004_kani=true&JigyosyoCd=3451580017-00&ServiceCd=220&Type=search", "url2": "http://www.haitopia.fukuyama-kaisei.jp/index.html" }, "geometry": { "type": "Point", "coordinates": [ 133.403579, 34.4929627 ] } },
{ "type": "Feature", "properties": { "内容": "介護老人保健施設グリーンハウス宏喜苑【短期入所療養介護（介護老人保健施設）】福山市南本庄三丁目8番17号", "url": "https://www.kaigokensaku.mhlw.go.jp/34/index.php?action_kouhyou_detail_004_kani=true&JigyosyoCd=3451580074-00&ServiceCd=220&Type=search", "url2": "https://koukien.com/" }, "geometry": { "type": "Point", "coordinates": [ 133.353527, 34.4840467 ] } },
{ "type": "Feature", "properties": { "内容": "介護老人保健施設　せんだの里【短期入所療養介護（介護老人保健施設）】福山市千田町二丁目5番5号", "url": "https://www.kaigokensaku.mhlw.go.jp/34/index.php?action_kouhyou_detail_004_kani=true&JigyosyoCd=3451580090-00&ServiceCd=220&Type=search", "url2": "http://www.sendanosato.com" }, "geometry": { "type": "Point", "coordinates": [ 133.367408800000021, 34.5177462 ] } },
{ "type": "Feature", "properties": { "内容": "介護老人保健施設　ふぁみりい【短期入所療養介護（介護老人保健施設）】福山市神辺町道上中ノ町２９７７番地の１", "url": "https://www.kaigokensaku.mhlw.go.jp/34/index.php?action_kouhyou_detail_004_kani=true&JigyosyoCd=3454480025-00&ServiceCd=220&Type=search", "url2": "http://family-roken.jp/" }, "geometry": { "type": "Point", "coordinates": [ 133.361617, 34.553462 ] } },
{ "type": "Feature", "properties": { "内容": "介護老人保健施設　かがやき苑【短期入所療養介護（介護老人保健施設）】広島県府中市上下町深江10488番地1", "url": "https://www.kaigokensaku.mhlw.go.jp/34/index.php?action_kouhyou_detail_004_kani=true&JigyosyoCd=3454780010-00&ServiceCd=220&Type=search", "url2": "https://www.oujinkai.com/" }, "geometry": { "type": "Point", "coordinates": [ 133.12009139999995, 34.6825944 ] } },
{ "type": "Feature", "properties": { "内容": "介護老人保健施設　あいあい【短期入所療養介護（介護老人保健施設）】府中市三郎丸町137", "url": "https://www.kaigokensaku.mhlw.go.jp/34/index.php?action_kouhyou_detail_004_kani=true&JigyosyoCd=3451780013-00&ServiceCd=220&Type=search", "url2": "http://www.aiai-fukushi.net/saburo/" }, "geometry": { "type": "Point", "coordinates": [ 133.187687200000028, 34.5443113 ] } },
{ "type": "Feature", "properties": { "内容": "介護老人保健施設リカバリーセンター章仁苑【短期入所療養介護（介護老人保健施設）】広島県三次市和知町字歳政１１８００番地２１", "url": "https://www.kaigokensaku.mhlw.go.jp/34/index.php?action_kouhyou_detail_004_kani=true&JigyosyoCd=3451980027-00&ServiceCd=220&Type=search", "url2": "http://www.shoujin.or.jp/" }, "geometry": { "type": "Point", "coordinates": [ 132.921063107019336, 34.798839286113527 ] } },
{ "type": "Feature", "properties": { "内容": "介護老人保健施設　ナーシングホーム沙羅【短期入所療養介護（介護老人保健施設）】広島県三次市山家町605番地の24", "url": "https://www.kaigokensaku.mhlw.go.jp/34/index.php?action_kouhyou_detail_004_kani=true&JigyosyoCd=3451980050-00&ServiceCd=220&Type=search", "url2": "http://mifukai.jp/" }, "geometry": { "type": "Point", "coordinates": [ 132.836664727122525, 34.846425081015582 ] } },
{ "type": "Feature", "properties": { "内容": "介護老人保健施設ピレネ【短期入所療養介護（介護老人保健施設）】三次市粟屋町1743-8", "url": "https://www.kaigokensaku.mhlw.go.jp/34/index.php?action_kouhyou_detail_004_kani=true&JigyosyoCd=3451980019-00&ServiceCd=220&Type=search", "url2": "https://sinwakai340.e-doctor.info/pirene/" }, "geometry": { "type": "Point", "coordinates": [ 132.836353, 34.8102089 ] } },
{ "type": "Feature", "properties": { "内容": "三次地区医師会老人保健施設あさぎり【短期入所療養介護（介護老人保健施設）】三次市粟屋町柳迫1649-1", "url": "https://www.kaigokensaku.mhlw.go.jp/34/index.php?action_kouhyou_detail_004_kani=true&JigyosyoCd=3451980043-00&ServiceCd=220&Type=search", "url2": null }, "geometry": { "type": "Point", "coordinates": [ 132.836833599999977, 34.8047818 ] } },
{ "type": "Feature", "properties": { "内容": "庄原市立西城市民病院介護老人保健施設せせらぎ【短期入所療養介護（介護老人保健施設）】庄原市西城町中野1339", "url": "https://www.kaigokensaku.mhlw.go.jp/34/index.php?action_kouhyou_detail_004_kani=true&JigyosyoCd=3452180023-00&ServiceCd=220&Type=search", "url2": null }, "geometry": { "type": "Point", "coordinates": [ 133.1158322, 34.939795 ] } },
{ "type": "Feature", "properties": { "内容": "介護老人保健施設こぶしの里【短期入所療養介護（介護老人保健施設）】広島県庄原市東城町川東152-4", "url": "https://www.kaigokensaku.mhlw.go.jp/34/index.php?action_kouhyou_detail_004_kani=true&JigyosyoCd=3452180031-00&ServiceCd=220&Type=search", "url2": "http://keijinkai-swc.or.jp" }, "geometry": { "type": "Point", "coordinates": [ 133.2741411, 34.9021028 ] } },
{ "type": "Feature", "properties": { "内容": "介護老人保健施設　愛生苑【短期入所療養介護（介護老人保健施設）】庄原市上原町6810-1", "url": "https://www.kaigokensaku.mhlw.go.jp/34/index.php?action_kouhyou_detail_004_kani=true&JigyosyoCd=3452180015-00&ServiceCd=220&Type=search", "url2": "http://seijin-kai.com/" }, "geometry": { "type": "Point", "coordinates": [ 133.003697374899303, 34.853395640228264 ] } },
{ "type": "Feature", "properties": { "内容": "介護老人保健施設ゆうゆ【短期入所療養介護（介護老人保健施設）】大竹市玖波5-2-2", "url": "https://www.kaigokensaku.mhlw.go.jp/34/index.php?action_kouhyou_detail_004_kani=true&JigyosyoCd=3452380011-00&ServiceCd=220&Type=search", "url2": "http://tijinkai.or.jp/" }, "geometry": { "type": "Point", "coordinates": [ 132.223782799999981, 34.2573555 ] } },
{ "type": "Feature", "properties": { "内容": "介護老人保健施設　葵の園・広島空港【短期入所療養介護（介護老人保健施設）】東広島市河内町入野7841番地2", "url": "https://www.kaigokensaku.mhlw.go.jp/34/index.php?action_kouhyou_detail_004_kani=true&JigyosyoCd=3452580040-00&ServiceCd=220&Type=search", "url2": "http://www.aoikai.jp" }, "geometry": { "type": "Point", "coordinates": [ 132.872299399999946, 34.4433034 ] } },
{ "type": "Feature", "properties": { "内容": "介護老人保健施設　あきまろ園【短期入所療養介護（介護老人保健施設）】東広島市安芸津町風早４９７－４１", "url": "https://www.kaigokensaku.mhlw.go.jp/34/index.php?action_kouhyou_detail_004_kani=true&JigyosyoCd=3454080015-00&ServiceCd=220&Type=search", "url2": "http://hakujukai.jp" }, "geometry": { "type": "Point", "coordinates": [ 132.7852206, 34.3164103 ] } },
{ "type": "Feature", "properties": { "内容": "介護老人保健施設もみじ園【短期入所療養介護（介護老人保健施設）】広島県東広島市黒瀬町乃美尾555番地1", "url": "https://www.kaigokensaku.mhlw.go.jp/34/index.php?action_kouhyou_detail_004_kani=true&JigyosyoCd=3452580065-00&ServiceCd=220&Type=search", "url2": "https://www.aoikai.jp/" }, "geometry": { "type": "Point", "coordinates": [ 132.6911876, 34.3166706 ] } },
{ "type": "Feature", "properties": { "内容": "介護老人保健施設ゆうゆうの園【短期入所療養介護（介護老人保健施設）】東広島市西条町御薗宇703", "url": "https://www.kaigokensaku.mhlw.go.jp/34/index.php?action_kouhyou_detail_004_kani=true&JigyosyoCd=3452580016-00&ServiceCd=220&Type=search", "url2": "http://www.youyou.or.jp/" }, "geometry": { "type": "Point", "coordinates": [ 132.752790399999981, 34.4004391 ] } },
{ "type": "Feature", "properties": { "内容": "介護老人保健施設　きさか【短期入所療養介護（介護老人保健施設）】広島県東広島市西条町土与丸１２３５番地", "url": "https://www.kaigokensaku.mhlw.go.jp/34/index.php?action_kouhyou_detail_004_kani=true&JigyosyoCd=3452580032-00&ServiceCd=220&Type=search", "url2": "http://www.kisaka-hp.or.jp" }, "geometry": { "type": "Point", "coordinates": [ 132.757800299999985, 34.4273665 ] } },
{ "type": "Feature", "properties": { "内容": "介護老人保健施設原【短期入所療養介護（介護老人保健施設）】廿日市市原926番地の1", "url": "https://www.kaigokensaku.mhlw.go.jp/34/index.php?action_kouhyou_detail_004_kani=true&JigyosyoCd=3452780038-00&ServiceCd=220&Type=search", "url2": "http://www.misasakai.or.jp/" }, "geometry": { "type": "Point", "coordinates": [ 132.2998212, 34.3682686 ] } },
{ "type": "Feature", "properties": { "内容": "介護老人保健施設ひまわり【短期入所療養介護（介護老人保健施設）】廿日市市宮内字佐原田4211-4", "url": "https://www.kaigokensaku.mhlw.go.jp/34/index.php?action_kouhyou_detail_004_kani=true&JigyosyoCd=3452780012-00&ServiceCd=220&Type=search", "url2": "http://www.miyauchi.or.jp/" }, "geometry": { "type": "Point", "coordinates": [ 132.298888582664517, 34.339790187710058 ] } },
{ "type": "Feature", "properties": { "内容": "医療法人あかね会介護老人保健施設シェスタ【短期入所療養介護（介護老人保健施設）】廿日市市阿品四丁目51番１号", "url": "https://www.kaigokensaku.mhlw.go.jp/34/index.php?action_kouhyou_detail_004_kani=true&JigyosyoCd=3452780020-00&ServiceCd=220&Type=search", "url2": "http://www.tsuchiya-hp.jp/" }, "geometry": { "type": "Point", "coordinates": [ 132.310513667459077, 34.319688491424394 ] } },
{ "type": "Feature", "properties": { "内容": "介護老人保健施設「べにまんさくの里」【短期入所療養介護（介護老人保健施設）】廿日市市大野1320", "url": "https://www.kaigokensaku.mhlw.go.jp/34/index.php?action_kouhyou_detail_004_kani=true&JigyosyoCd=3453380010-00&ServiceCd=220&Type=search", "url2": "http://www.koujinkai.org/benimansaku/benimansaku.html" }, "geometry": { "type": "Point", "coordinates": [ 132.274961299999973, 34.2976739 ] } },
{ "type": "Feature", "properties": { "内容": "介護老人保健施設　あすなろ【短期入所療養介護（介護老人保健施設）】江田島市江田島町江南1丁目24番12号", "url": "https://www.kaigokensaku.mhlw.go.jp/34/index.php?action_kouhyou_detail_004_kani=true&JigyosyoCd=3453180014-00&ServiceCd=220&Type=search", "url2": "http://www.jinpuukai.or.jp" }, "geometry": { "type": "Point", "coordinates": [ 132.474516599999987, 34.2040631 ] } },
{ "type": "Feature", "properties": { "内容": "老人保健施設チェリーゴード【短期入所療養介護（介護老人保健施設）】広島県安芸郡府中町柳ヶ丘20番18号", "url": "https://www.kaigokensaku.mhlw.go.jp/34/index.php?action_kouhyou_detail_004_kani=true&JigyosyoCd=3453280012-00&ServiceCd=220&Type=search", "url2": "http://www.fig-g.jp/" }, "geometry": { "type": "Point", "coordinates": [ 132.514831800000024, 34.3828906 ] } },
{ "type": "Feature", "properties": { "内容": "介護老人保健施設さくら【短期入所療養介護（介護老人保健施設）】広島県安芸郡海田町堀川町2-23", "url": "https://www.kaigokensaku.mhlw.go.jp/34/index.php?action_kouhyou_detail_004_kani=true&JigyosyoCd=3453280020-00&ServiceCd=220&Type=search", "url2": null }, "geometry": { "type": "Point", "coordinates": [ 132.530947500000025, 34.3684371 ] } },
{ "type": "Feature", "properties": { "内容": "介護老人保健施設　熊野ゆうあいホーム【短期入所療養介護（介護老人保健施設）】広島県安芸郡熊野町出来庭三丁目４番６７号", "url": "https://www.kaigokensaku.mhlw.go.jp/34/index.php?action_kouhyou_detail_004_kani=true&JigyosyoCd=3453180022-00&ServiceCd=220&Type=search", "url2": "http://www.furukawa-iin.com" }, "geometry": { "type": "Point", "coordinates": [ 132.576571300000069, 34.3311948 ] } },
{ "type": "Feature", "properties": { "内容": "介護老人保健施設はまな荘【短期入所療養介護（介護老人保健施設）】広島県安芸郡坂町北新地二丁目3番10号", "url": "https://www.kaigokensaku.mhlw.go.jp/34/index.php?action_kouhyou_detail_004_kani=true&JigyosyoCd=3453180030-00&ServiceCd=220&Type=search", "url2": "http://www.saiseikai.com/hamana/" }, "geometry": { "type": "Point", "coordinates": [ 132.518643600000019, 34.3507891 ] } },
{ "type": "Feature", "properties": { "内容": "老人保健施設ひこばえ【短期入所療養介護（介護老人保健施設）】広島県山県郡安芸太田町加計６８３－１", "url": "https://www.kaigokensaku.mhlw.go.jp/34/index.php?action_kouhyou_detail_004_kani=true&JigyosyoCd=3453580023-00&ServiceCd=220&Type=search", "url2": "https://rouken-hikobae.jp/" }, "geometry": { "type": "Point", "coordinates": [ 132.318335599999955, 34.6004183 ] } },
{ "type": "Feature", "properties": { "内容": "介護老人保健施設あけぼの【短期入所療養介護（介護老人保健施設）】広島県山県郡北広島町壬生915-4", "url": "https://www.kaigokensaku.mhlw.go.jp/34/index.php?action_kouhyou_detail_004_kani=true&JigyosyoCd=3453580015-00&ServiceCd=220&Type=search", "url2": "http://www.m-meiwakai.jp" }, "geometry": { "type": "Point", "coordinates": [ 132.553040099999947, 34.6803683 ] } },
{ "type": "Feature", "properties": { "内容": "介護老人保健施設葵の園・セラ【短期入所療養介護（介護老人保健施設）】広島県世羅郡世羅町本郷1216", "url": "https://www.kaigokensaku.mhlw.go.jp/34/index.php?action_kouhyou_detail_004_kani=true&JigyosyoCd=3454280011-00&ServiceCd=220&Type=search", "url2": "https://www.aoikai.jp" }, "geometry": { "type": "Point", "coordinates": [ 133.0433524, 34.5915634 ] } },
{ "type": "Feature", "properties": { "内容": "介護老人保健施設　ビーブル神石三和【短期入所療養介護（介護老人保健施設）】広島県神石郡神石高原町小畠1500-1", "url": "https://www.kaigokensaku.mhlw.go.jp/34/index.php?action_kouhyou_detail_004_kani=true&JigyosyoCd=3454680012-00&ServiceCd=220&Type=search", "url2": "http://www.kbk-group.or.jp/" }, "geometry": { "type": "Point", "coordinates": [ 133.252471300000025, 34.704392 ] } }
]
}
