{
"type": "FeatureCollection",
"name": "geo_34_認知症対応型通所介護",
"crs": { "type": "name", "properties": { "name": "urn:ogc:def:crs:OGC:1.3:CRS84" } },
"features": [
{ "type": "Feature", "properties": { "内容": "デイサービス光明早稲田【認知症対応型通所介護】広島県広島市東区牛田早稲田二丁目4番15号", "url": "https://www.kaigokensaku.mhlw.go.jp/34/index.php?action_kouhyou_detail_004_kani=true&JigyosyoCd=3490100280-00&ServiceCd=720&Type=search", "url2": "http://komyogakuen.jp" }, "geometry": { "type": "Point", "coordinates": [ 132.476878599999964, 34.4148697 ] } },
{ "type": "Feature", "properties": { "内容": "デイサービス光明牛田新町【認知症対応型通所介護】広島市東区牛田新町三丁目20番15号", "url": "https://www.kaigokensaku.mhlw.go.jp/34/index.php?action_kouhyou_detail_004_kani=true&JigyosyoCd=3490100355-00&ServiceCd=720&Type=search", "url2": "http://komyogakuen.jp/" }, "geometry": { "type": "Point", "coordinates": [ 132.467901100000063, 34.4237661 ] } },
{ "type": "Feature", "properties": { "内容": "和み庵【認知症対応型通所介護】広島市南区仁保二丁目5番39号ソーシャルアパートメントこもれび１階", "url": "https://www.kaigokensaku.mhlw.go.jp/34/index.php?action_kouhyou_detail_004_kani=true&JigyosyoCd=3490101486-00&ServiceCd=720&Type=search", "url2": null }, "geometry": { "type": "Point", "coordinates": [ 132.496557903041094, 34.373559765915246 ] } },
{ "type": "Feature", "properties": { "内容": "ニチイケアセンター南観音【認知症対応型通所介護】南観音２丁目9-19", "url": "https://www.kaigokensaku.mhlw.go.jp/34/index.php?action_kouhyou_detail_004_kani=true&JigyosyoCd=3490200528-00&ServiceCd=720&Type=search", "url2": null }, "geometry": { "type": "Point", "coordinates": [ 132.430996199999981, 34.3826282 ] } },
{ "type": "Feature", "properties": { "内容": "デイサービスセンターこころ楠木【認知症対応型通所介護】広島市西区楠木町四丁目16番6号", "url": "https://www.kaigokensaku.mhlw.go.jp/34/index.php?action_kouhyou_detail_004_kani=true&JigyosyoCd=3470214689-00&ServiceCd=720&Type=search", "url2": "https://kokorohome.wordpress.com/" }, "geometry": { "type": "Point", "coordinates": [ 132.458128031877152, 34.414932814397091 ] } },
{ "type": "Feature", "properties": { "内容": "ニチイケアセンター広島川内【認知症対応型通所介護】広島県広島市安佐南区川内5丁目16-3", "url": "https://www.kaigokensaku.mhlw.go.jp/34/index.php?action_kouhyou_detail_004_kani=true&JigyosyoCd=3490200510-00&ServiceCd=720&Type=search", "url2": null }, "geometry": { "type": "Point", "coordinates": [ 132.4837255, 34.4691064 ] } },
{ "type": "Feature", "properties": { "内容": "デイサービスセンターいついき上安慈光園【認知症対応型通所介護】広島市安佐南区上安二丁目23-5", "url": "https://www.kaigokensaku.mhlw.go.jp/34/index.php?action_kouhyou_detail_004_kani=true&JigyosyoCd=3490200114-00&ServiceCd=720&Type=search", "url2": "http://www.jikouen.jp" }, "geometry": { "type": "Point", "coordinates": [ 132.445245399999976, 34.4752156 ] } },
{ "type": "Feature", "properties": { "内容": "デイサービスセンター東原慈光園そよかぜ【認知症対応型通所介護】広島市安佐南区東原三丁目14番4号", "url": "https://www.kaigokensaku.mhlw.go.jp/34/index.php?action_kouhyou_detail_004_kani=true&JigyosyoCd=3490200387-00&ServiceCd=720&Type=search", "url2": "http://www.jikouen.jp" }, "geometry": { "type": "Point", "coordinates": [ 132.480754700000034, 34.447875 ] } },
{ "type": "Feature", "properties": { "内容": "ニチイケアセンター可部【認知症対応型通所介護】広島市安佐北区亀山２丁目１５番３３号", "url": "https://www.kaigokensaku.mhlw.go.jp/34/index.php?action_kouhyou_detail_004_kani=true&JigyosyoCd=3490100413-00&ServiceCd=720&Type=search", "url2": "http://www.nichiigakkan.co.jp" }, "geometry": { "type": "Point", "coordinates": [ 132.50151470000003, 34.5192981 ] } },
{ "type": "Feature", "properties": { "内容": "デイサービスセンターなごみの郷　亀山【認知症対応型通所介護】広島市安佐北区亀山三丁目４番１２号", "url": "https://www.kaigokensaku.mhlw.go.jp/34/index.php?action_kouhyou_detail_004_kani=true&JigyosyoCd=3490100553-00&ServiceCd=720&Type=search", "url2": "http://www.nagominosato.jp" }, "geometry": { "type": "Point", "coordinates": [ 132.499559200000022, 34.5236725 ] } },
{ "type": "Feature", "properties": { "内容": "デイサービスセンターゆめきらり【認知症対応型通所介護】広島県広島市安佐北区可部南五丁目１５番１６号川下ビル　１階", "url": "https://www.kaigokensaku.mhlw.go.jp/34/index.php?action_kouhyou_detail_004_kani=true&JigyosyoCd=3490101288-00&ServiceCd=720&Type=search", "url2": "https://premonet.co.jp/" }, "geometry": { "type": "Point", "coordinates": [ 132.5138775, 34.5052314 ] } },
{ "type": "Feature", "properties": { "内容": "デイサービス畑賀時計台【認知症対応型通所介護】広島県広島市安芸区畑賀２丁目２３番３３号", "url": "https://www.kaigokensaku.mhlw.go.jp/34/index.php?action_kouhyou_detail_004_kani=true&JigyosyoCd=3490101007-00&ServiceCd=720&Type=search", "url2": "http://hatano-group.jp/untitled71.html" }, "geometry": { "type": "Point", "coordinates": [ 132.552542099999982, 34.3907816 ] } },
{ "type": "Feature", "properties": { "内容": "デイサービス　もえぎ【認知症対応型通所介護】広島市安芸区船越南二丁目20－5", "url": "https://www.kaigokensaku.mhlw.go.jp/34/index.php?action_kouhyou_detail_004_kani=true&JigyosyoCd=3470104500-00&ServiceCd=720&Type=search", "url2": "https://moegi-082.com" }, "geometry": { "type": "Point", "coordinates": [ 132.524345199999971, 34.3721644 ] } },
{ "type": "Feature", "properties": { "内容": "認知症デイサービス五日市・みどりの家【認知症対応型通所介護】広島県広島市佐伯区五日市中央5丁目1-18", "url": "https://www.kaigokensaku.mhlw.go.jp/34/index.php?action_kouhyou_detail_004_kani=true&JigyosyoCd=3490201369-00&ServiceCd=720&Type=search", "url2": "http://midori-no-ie.sakura.ne.jp/" }, "geometry": { "type": "Point", "coordinates": [ 132.357712499999934, 34.375217 ] } },
{ "type": "Feature", "properties": { "内容": "デイサービスセンター石内慈光園【認知症対応型通所介護】広島市佐伯区五日市町石内6405番地の1", "url": "https://www.kaigokensaku.mhlw.go.jp/34/index.php?action_kouhyou_detail_004_kani=true&JigyosyoCd=3470201298-00&ServiceCd=720&Type=search", "url2": "http://www.jikouen.jp/" }, "geometry": { "type": "Point", "coordinates": [ 132.3679952, 34.4039496 ] } },
{ "type": "Feature", "properties": { "内容": "個別対応デイサービス　べたにあ【認知症対応型通所介護】呉市中通４丁目９番１７号", "url": "https://www.kaigokensaku.mhlw.go.jp/34/index.php?action_kouhyou_detail_004_kani=true&JigyosyoCd=3490500190-00&ServiceCd=720&Type=search", "url2": "http://www.bethania.or.jp" }, "geometry": { "type": "Point", "coordinates": [ 132.567563980950951, 34.247245578302483 ] } },
{ "type": "Feature", "properties": { "内容": "認知症対応型通所介護事業所　隠居屋【認知症対応型通所介護】呉市広大広2丁目7-10", "url": "https://www.kaigokensaku.mhlw.go.jp/34/index.php?action_kouhyou_detail_004_kani=true&JigyosyoCd=3490500026-00&ServiceCd=720&Type=search", "url2": null }, "geometry": { "type": "Point", "coordinates": [ 132.620306853605143, 34.251605711547434 ] } },
{ "type": "Feature", "properties": { "内容": "デイサービスあすなろ竹原【認知症対応型通所介護】竹原市福田町1300-1グループホームあすなろ竹原", "url": "https://www.kaigokensaku.mhlw.go.jp/34/index.php?action_kouhyou_detail_004_kani=true&JigyosyoCd=3490700071-00&ServiceCd=720&Type=search", "url2": "www.hosei.or.jp" }, "geometry": { "type": "Point", "coordinates": [ 132.9519415, 34.341028 ] } },
{ "type": "Feature", "properties": { "内容": "認知症対応型デイサービスセンター　ともの家【認知症対応型通所介護】広島県竹原市竹原町3541-12", "url": "https://www.kaigokensaku.mhlw.go.jp/34/index.php?action_kouhyou_detail_004_kani=true&JigyosyoCd=3490700048-00&ServiceCd=720&Type=search", "url2": "http://tomonoie.com/" }, "geometry": { "type": "Point", "coordinates": [ 132.906302950955137, 34.345817369907337 ] } },
{ "type": "Feature", "properties": { "内容": "八朔の里【認知症対応型通所介護】広島県尾道市因島田熊町10番地", "url": "https://www.kaigokensaku.mhlw.go.jp/34/index.php?action_kouhyou_detail_004_kani=true&JigyosyoCd=3491100198-00&ServiceCd=720&Type=search", "url2": "https://breakthrough-co.jp" }, "geometry": { "type": "Point", "coordinates": [ 133.1691892, 34.2963121 ] } },
{ "type": "Feature", "properties": { "内容": "星の里・今津野の家【認知症対応型通所介護】尾道市御調町津蟹611番地4", "url": "https://www.kaigokensaku.mhlw.go.jp/34/index.php?action_kouhyou_detail_004_kani=true&JigyosyoCd=3471101307-00&ServiceCd=720&Type=search", "url2": "http://www.satukikai.com/" }, "geometry": { "type": "Point", "coordinates": [ 133.0943608, 34.4998914 ] } },
{ "type": "Feature", "properties": { "内容": "星の里・山波の家【認知症対応型通所介護】尾道市山波町277-1", "url": "https://www.kaigokensaku.mhlw.go.jp/34/index.php?action_kouhyou_detail_004_kani=true&JigyosyoCd=3471101315-00&ServiceCd=720&Type=search", "url2": "http://www.satukikai.com" }, "geometry": { "type": "Point", "coordinates": [ 133.226125, 34.4244605 ] } },
{ "type": "Feature", "properties": { "内容": "星の里・久保の家【認知症対応型通所介護】尾道市久保町2189番地", "url": "https://www.kaigokensaku.mhlw.go.jp/34/index.php?action_kouhyou_detail_004_kani=true&JigyosyoCd=3471101323-00&ServiceCd=720&Type=search", "url2": "http://www.satukikai.com" }, "geometry": { "type": "Point", "coordinates": [ 133.203076799999963, 34.4274708 ] } },
{ "type": "Feature", "properties": { "内容": "楽生苑ひなたの家【認知症対応型通所介護】尾道市瀬戸田町宮原２３３８番地", "url": "https://www.kaigokensaku.mhlw.go.jp/34/index.php?action_kouhyou_detail_004_kani=true&JigyosyoCd=3491100115-00&ServiceCd=720&Type=search", "url2": "http://www.rakusei.or.jp" }, "geometry": { "type": "Point", "coordinates": [ 133.114609100000052, 34.2749738 ] } },
{ "type": "Feature", "properties": { "内容": "オリーブハウス蔵王【認知症対応型通所介護】福山市南蔵王町5丁目22－3", "url": "https://www.kaigokensaku.mhlw.go.jp/34/index.php?action_kouhyou_detail_004_kani=true&JigyosyoCd=3471504039-00&ServiceCd=720&Type=search", "url2": "http://www.kaikenhome.com/oIivehouse/" }, "geometry": { "type": "Point", "coordinates": [ 133.398959399999967, 34.5064197 ] } },
{ "type": "Feature", "properties": { "内容": "オリーブデイサービス御幸【認知症対応型通所介護】福山市御幸町上岩成143－1", "url": "https://www.kaigokensaku.mhlw.go.jp/34/index.php?action_kouhyou_detail_004_kani=true&JigyosyoCd=3491500306-00&ServiceCd=720&Type=search", "url2": "http://www.olivehouse-group.jp/" }, "geometry": { "type": "Point", "coordinates": [ 133.3485958, 34.5511758 ] } },
{ "type": "Feature", "properties": { "内容": "グッドライフデイサービス新涯　響【認知症対応型通所介護】広島県福山市新涯町3丁目14－7", "url": "https://www.kaigokensaku.mhlw.go.jp/34/index.php?action_kouhyou_detail_004_kani=true&JigyosyoCd=3491502591-00&ServiceCd=720&Type=search", "url2": null }, "geometry": { "type": "Point", "coordinates": [ 133.3895943, 34.4598075 ] } },
{ "type": "Feature", "properties": { "内容": "コミュ・ケアいつも【認知症対応型通所介護】広島県福山市本郷町2924番地1", "url": "https://www.kaigokensaku.mhlw.go.jp/34/index.php?action_kouhyou_detail_004_kani=true&JigyosyoCd=3491500363-00&ServiceCd=720&Type=search", "url2": "http://www.eiwa-kai.or.jp/" }, "geometry": { "type": "Point", "coordinates": [ 133.249166, 34.4636748 ] } },
{ "type": "Feature", "properties": { "内容": "ゆうゆうの家新市【認知症対応型通所介護】福山市新市町新市８８８", "url": "https://www.kaigokensaku.mhlw.go.jp/34/index.php?action_kouhyou_detail_004_kani=true&JigyosyoCd=3491500702-00&ServiceCd=720&Type=search", "url2": "http://www.k-yuyu.com/yuuyuu.htm" }, "geometry": { "type": "Point", "coordinates": [ 133.27484579999998, 34.5582432 ] } },
{ "type": "Feature", "properties": { "内容": "ゆうゆうの家松永【認知症対応型通所介護】福山市松永町五丁目30番22号", "url": "https://www.kaigokensaku.mhlw.go.jp/34/index.php?action_kouhyou_detail_004_kani=true&JigyosyoCd=3491501064-00&ServiceCd=720&Type=search", "url2": null }, "geometry": { "type": "Point", "coordinates": [ 133.25536790000001, 34.4528851 ] } },
{ "type": "Feature", "properties": { "内容": "ふぁみりえ山陽くさど【認知症対応型通所介護】広島県福山市草戸町四丁目２２番１号", "url": "https://www.kaigokensaku.mhlw.go.jp/34/index.php?action_kouhyou_detail_004_kani=true&JigyosyoCd=3491501783-00&ServiceCd=720&Type=search", "url2": null }, "geometry": { "type": "Point", "coordinates": [ 133.362929799999961, 34.4728311 ] } },
{ "type": "Feature", "properties": { "内容": "グループホームおひさま【認知症対応型通所介護】広島県　福山市　地吹町　13-28グループホームおひさま", "url": "https://www.kaigokensaku.mhlw.go.jp/34/index.php?action_kouhyou_detail_004_kani=true&JigyosyoCd=3491502088-00&ServiceCd=720&Type=search", "url2": "https://www.sanyo.or.jp/" }, "geometry": { "type": "Point", "coordinates": [ 133.36129360000001, 34.4804044 ] } },
{ "type": "Feature", "properties": { "内容": "多機能地域ケアホームありがとう　グループホーム【認知症対応型通所介護】広島県福山市春日町浦上１２０５", "url": "https://www.kaigokensaku.mhlw.go.jp/34/index.php?action_kouhyou_detail_004_kani=true&JigyosyoCd=3471503221-00&ServiceCd=720&Type=search", "url2": "https://takinouarigatou.com" }, "geometry": { "type": "Point", "coordinates": [ 133.423756899999944, 34.5174687 ] } },
{ "type": "Feature", "properties": { "内容": "通所介護事業所ジョイトピアおおさ【認知症対応型通所介護】広島県福山市新市町大字下安井3500番地", "url": "https://www.kaigokensaku.mhlw.go.jp/34/index.php?action_kouhyou_detail_004_kani=true&JigyosyoCd=3474500075-00&ServiceCd=720&Type=search", "url2": "https://www.joytopia.or.jp" }, "geometry": { "type": "Point", "coordinates": [ 133.283591900000033, 34.5718866 ] } },
{ "type": "Feature", "properties": { "内容": "認知症対応型通所介護ありがとうデイの家【認知症対応型通所介護】福山市春日町浦上1203番地", "url": "https://www.kaigokensaku.mhlw.go.jp/34/index.php?action_kouhyou_detail_004_kani=true&JigyosyoCd=3491500405-00&ServiceCd=720&Type=search", "url2": null }, "geometry": { "type": "Point", "coordinates": [ 133.423656899999969, 34.5169549 ] } },
{ "type": "Feature", "properties": { "内容": "認知症対応型通所介護事業所ガーデンテラス【認知症対応型通所介護】広島県福山市新市町大字新市56番地2", "url": "https://www.kaigokensaku.mhlw.go.jp/34/index.php?action_kouhyou_detail_004_kani=true&JigyosyoCd=3491501437-00&ServiceCd=720&Type=search", "url2": "http://www.joytopia.or.jp/" }, "geometry": { "type": "Point", "coordinates": [ 133.279465100000039, 34.5507412 ] } },
{ "type": "Feature", "properties": { "内容": "加茂グループホーム愛【認知症対応型通所介護】広島県福山市加茂町下加茂1011-1", "url": "https://www.kaigokensaku.mhlw.go.jp/34/index.php?action_kouhyou_detail_004_kani=true&JigyosyoCd=3491502070-00&ServiceCd=720&Type=search", "url2": "http://www.five-one.net/" }, "geometry": { "type": "Point", "coordinates": [ 133.341755836381253, 34.567520037395106 ] } },
{ "type": "Feature", "properties": { "内容": "湯野グループホーム愛【認知症対応型通所介護】広島県福山市神辺町湯野1018番地1福祉施設愛２号棟", "url": "https://www.kaigokensaku.mhlw.go.jp/34/index.php?action_kouhyou_detail_004_kani=true&JigyosyoCd=3491502427-00&ServiceCd=720&Type=search", "url2": "https://kouseikai-ai.jp/" }, "geometry": { "type": "Point", "coordinates": [ 133.3893239, 34.5612501 ] } },
{ "type": "Feature", "properties": { "内容": "のんびりデイサービス桜の里【認知症対応型通所介護】広島県福山市郷分町１５５４", "url": "https://www.kaigokensaku.mhlw.go.jp/34/index.php?action_kouhyou_detail_004_kani=true&JigyosyoCd=3491501809-00&ServiceCd=720&Type=search", "url2": "https://sakuranosato-eioukai.com/" }, "geometry": { "type": "Point", "coordinates": [ 133.338866199999984, 34.5150044 ] } },
{ "type": "Feature", "properties": { "内容": "グループホーム桜並木【認知症対応型通所介護】広島県福山市西深津町六丁目6番10号", "url": "https://www.kaigokensaku.mhlw.go.jp/34/index.php?action_kouhyou_detail_004_kani=true&JigyosyoCd=3491500348-00&ServiceCd=720&Type=search", "url2": "https://www.sakuranamiki-nf.jp" }, "geometry": { "type": "Point", "coordinates": [ 133.380445802268923, 34.50004843471941 ] } },
{ "type": "Feature", "properties": { "内容": "DomaDomaデイサービス【認知症対応型通所介護】広島県福山市引野町北2-8-40", "url": "https://www.kaigokensaku.mhlw.go.jp/34/index.php?action_kouhyou_detail_004_kani=true&JigyosyoCd=3491502898-00&ServiceCd=720&Type=search", "url2": "http://pro-aid.jp" }, "geometry": { "type": "Point", "coordinates": [ 133.4091664, 34.5021361 ] } },
{ "type": "Feature", "properties": { "内容": "デイサービスいごこち庵【認知症対応型通所介護】広島県府中市栗柄町３８７番地１", "url": "https://www.kaigokensaku.mhlw.go.jp/34/index.php?action_kouhyou_detail_004_kani=true&JigyosyoCd=3491700153-00&ServiceCd=720&Type=search", "url2": null }, "geometry": { "type": "Point", "coordinates": [ 133.2446885, 34.5541475 ] } },
{ "type": "Feature", "properties": { "内容": "ゆうゆうの家　高木【認知症対応型通所介護】広島県府中市高木町20-1", "url": "https://www.kaigokensaku.mhlw.go.jp/34/index.php?action_kouhyou_detail_004_kani=true&JigyosyoCd=3471700447-00&ServiceCd=720&Type=search", "url2": "http://www.k-yuyu.com" }, "geometry": { "type": "Point", "coordinates": [ 133.254861399999982, 34.5619672 ] } },
{ "type": "Feature", "properties": { "内容": "デイサービスプラザ花【認知症対応型通所介護】広島県府中市広谷町959-1パレットせいわ", "url": "https://www.kaigokensaku.mhlw.go.jp/34/index.php?action_kouhyou_detail_004_kani=true&JigyosyoCd=3491700138-00&ServiceCd=720&Type=search", "url2": "http://www.seiwakai-hiroshima.jp" }, "geometry": { "type": "Point", "coordinates": [ 133.256358299999988, 34.5694888 ] } },
{ "type": "Feature", "properties": { "内容": "デイサービスえがお【認知症対応型通所介護】庄原市東城町川西１３３２－５", "url": "https://www.kaigokensaku.mhlw.go.jp/34/index.php?action_kouhyou_detail_004_kani=true&JigyosyoCd=3474900309-00&ServiceCd=720&Type=search", "url2": "http://www.alice.or.jp/" }, "geometry": { "type": "Point", "coordinates": [ 133.261565499999961, 34.908879 ] } },
{ "type": "Feature", "properties": { "内容": "通所介護　りんどう東【認知症対応型通所介護】広島県庄原市三日市町240-1", "url": "https://www.kaigokensaku.mhlw.go.jp/34/index.php?action_kouhyou_detail_004_kani=true&JigyosyoCd=3492100114-00&ServiceCd=720&Type=search", "url2": "http:/seijin-kai.com/" }, "geometry": { "type": "Point", "coordinates": [ 133.005165030688431, 34.855717551868274 ] } },
{ "type": "Feature", "properties": { "内容": "デイサービスセンターさくらんぼさかえケアセンター【認知症対応型通所介護】大竹市新町2丁目6-6", "url": "https://www.kaigokensaku.mhlw.go.jp/34/index.php?action_kouhyou_detail_004_kani=true&JigyosyoCd=3492300052-00&ServiceCd=720&Type=search", "url2": "http:/i-shinseikai.or.jp" }, "geometry": { "type": "Point", "coordinates": [ 132.223723426120245, 34.213595939502397 ] } },
{ "type": "Feature", "properties": { "内容": "いきいきデイもやい志和【認知症対応型通所介護】東広島市志和町冠５８４番地", "url": "https://www.kaigokensaku.mhlw.go.jp/34/index.php?action_kouhyou_detail_004_kani=true&JigyosyoCd=3492500180-00&ServiceCd=720&Type=search", "url2": "http://moyaishiwa.com/" }, "geometry": { "type": "Point", "coordinates": [ 132.642056899999943, 34.4607192 ] } },
{ "type": "Feature", "properties": { "内容": "デイサービスセンターＭｙあゆみ【認知症対応型通所介護】広島県廿日市市佐方2丁目11-18", "url": "https://www.kaigokensaku.mhlw.go.jp/34/index.php?action_kouhyou_detail_004_kani=true&JigyosyoCd=3490201351-00&ServiceCd=720&Type=search", "url2": "http://www.omwell.co.jp/" }, "geometry": { "type": "Point", "coordinates": [ 132.3372948, 34.363963500000033 ] } },
{ "type": "Feature", "properties": { "内容": "デイサービスセンターひまわり【認知症対応型通所介護】廿日市市宮内字佐原田４１９０番地１", "url": "https://www.kaigokensaku.mhlw.go.jp/34/index.php?action_kouhyou_detail_004_kani=true&JigyosyoCd=3492700012-00&ServiceCd=720&Type=search", "url2": "http://www.miyauchi.or.jp/medical/day/index.html" }, "geometry": { "type": "Point", "coordinates": [ 132.297792299999969, 34.3401858 ] } },
{ "type": "Feature", "properties": { "内容": "やまりん通所介護事業所　憩いの場　石川さんち【認知症対応型通所介護】廿日市市大野1487番地1", "url": "https://www.kaigokensaku.mhlw.go.jp/34/index.php?action_kouhyou_detail_004_kani=true&JigyosyoCd=3473300691-00&ServiceCd=720&Type=search", "url2": "http://www.yamarin-kk.com/" }, "geometry": { "type": "Point", "coordinates": [ 132.281324499999982, 34.3015123 ] } },
{ "type": "Feature", "properties": { "内容": "デイサービスセンター江能【認知症対応型通所介護】広島県江田島市大柿町飛渡瀬4027番地2", "url": "https://www.kaigokensaku.mhlw.go.jp/34/index.php?action_kouhyou_detail_004_kani=true&JigyosyoCd=3473300329-00&ServiceCd=720&Type=search", "url2": "http://enou01.com/" }, "geometry": { "type": "Point", "coordinates": [ 132.466703027508544, 34.215122048645043 ] } },
{ "type": "Feature", "properties": { "内容": "デイサービスセンター　えがお【認知症対応型通所介護】江田島市大柿町飛渡瀬４０２２番地", "url": "https://www.kaigokensaku.mhlw.go.jp/34/index.php?action_kouhyou_detail_004_kani=true&JigyosyoCd=3495000014-00&ServiceCd=720&Type=search", "url2": "http://enou01.com/" }, "geometry": { "type": "Point", "coordinates": [ 132.4665837, 34.2145896 ] } },
{ "type": "Feature", "properties": { "内容": "シルトピア油木デイサービス青い鳥【認知症対応型通所介護】広島県神石郡神石高原町油木甲６８４４番地１", "url": "https://www.kaigokensaku.mhlw.go.jp/34/index.php?action_kouhyou_detail_004_kani=true&JigyosyoCd=3494600020-00&ServiceCd=720&Type=search", "url2": "http://www.alice.or.jp" }, "geometry": { "type": "Point", "coordinates": [ 133.266774, 34.7876285 ] } }
]
}
