{
"type": "FeatureCollection",
"name": "geo_34_看護小規模多機能型居宅介護（複合型サービス）",
"crs": { "type": "name", "properties": { "name": "urn:ogc:def:crs:OGC:1.3:CRS84" } },
"features": [
{ "type": "Feature", "properties": { "内容": "悠悠タウン江波看護小規模多機能型居宅介護事業所【看護小規模多機能型居宅介護（複合型サービス）】広島県広島市中区江波二本松2丁目6-27", "url": "https://www.kaigokensaku.mhlw.go.jp/34/index.php?action_kouhyou_detail_004_kani=true&JigyosyoCd=3490201203-00&ServiceCd=&Type=search", "url2": "https://www.city.hiroshima.med.or.jp/hma/youyou/eba/index.html" }, "geometry": { "type": "Point", "coordinates": [ 132.431149499999947, 34.367388 ] } },
{ "type": "Feature", "properties": { "内容": "看護小規模多機能型居宅介護　葵の家【看護小規模多機能型居宅介護（複合型サービス）】広島県広島市西区己斐上4丁目31-7-15", "url": "https://www.kaigokensaku.mhlw.go.jp/34/index.php?action_kouhyou_detail_004_kani=true&JigyosyoCd=3490200742-00&ServiceCd=&Type=search", "url2": "http://hayashimedical.or.jp/facilities/aoi-home/" }, "geometry": { "type": "Point", "coordinates": [ 132.421112499999907, 34.4104004 ] } },
{ "type": "Feature", "properties": { "内容": "看護小規模多機能センター川内【看護小規模多機能型居宅介護（複合型サービス）】広島市安佐南区川内5丁目1-9ガーデンの家川内", "url": "https://www.kaigokensaku.mhlw.go.jp/34/index.php?action_kouhyou_detail_004_kani=true&JigyosyoCd=3490201179-00&ServiceCd=&Type=search", "url2": "http://midorii.jp/kawauchi/index.html" }, "geometry": { "type": "Point", "coordinates": [ 132.489523821565257, 34.466890991214129 ] } },
{ "type": "Feature", "properties": { "内容": "看護小規模多機能ホームやすらぎ【看護小規模多機能型居宅介護（複合型サービス）】広島県広島市安佐北区可部５丁目9-3", "url": "https://www.kaigokensaku.mhlw.go.jp/34/index.php?action_kouhyou_detail_004_kani=true&JigyosyoCd=3490101106-00&ServiceCd=&Type=search", "url2": "http://www.keiseikai-nmn.net" }, "geometry": { "type": "Point", "coordinates": [ 132.508417141139205, 34.521316193254222 ] } },
{ "type": "Feature", "properties": { "内容": "看護小規模多機能ホーム　なごみの郷【看護小規模多機能型居宅介護（複合型サービス）】広島県広島市安佐北区落合5-25-8", "url": "https://www.kaigokensaku.mhlw.go.jp/34/index.php?action_kouhyou_detail_004_kani=true&JigyosyoCd=3490101346-00&ServiceCd=&Type=search", "url2": "http://www.nagominosato.jp" }, "geometry": { "type": "Point", "coordinates": [ 132.519453199999987, 34.476608 ] } },
{ "type": "Feature", "properties": { "内容": "看護小規模多機能型居宅介護ふくろう【看護小規模多機能型居宅介護（複合型サービス）】広島県広島市安佐北区深川七丁目6-37憩いの杜ふくろう", "url": "https://www.kaigokensaku.mhlw.go.jp/34/index.php?action_kouhyou_detail_004_kani=true&JigyosyoCd=3490100678-00&ServiceCd=&Type=search", "url2": "https://jtsjimu.wixsite.com/website" }, "geometry": { "type": "Point", "coordinates": [ 132.546401100000026, 34.4786064 ] } },
{ "type": "Feature", "properties": { "内容": "看護小規模多機能ゆたかな家【看護小規模多機能型居宅介護（複合型サービス）】広島県広島市安佐北区小河原町1281番", "url": "https://www.kaigokensaku.mhlw.go.jp/34/index.php?action_kouhyou_detail_004_kani=true&JigyosyoCd=3490101098-00&ServiceCd=&Type=search", "url2": "http://rehacare-net.or.jp/" }, "geometry": { "type": "Point", "coordinates": [ 132.5555199, 34.459029 ] } },
{ "type": "Feature", "properties": { "内容": "看護小規模多機能型ふるさと【看護小規模多機能型居宅介護（複合型サービス）】広島県広島市安芸区中野７丁目２２－６はたのリハビリふるさと", "url": "https://www.kaigokensaku.mhlw.go.jp/34/index.php?action_kouhyou_detail_004_kani=true&JigyosyoCd=3490100637-00&ServiceCd=&Type=search", "url2": "https://hatano-group.jp/pages/103/" }, "geometry": { "type": "Point", "coordinates": [ 132.593170800000053, 34.4226268 ] } },
{ "type": "Feature", "properties": { "内容": "看護小規模多機能型ふるさとサテライト【看護小規模多機能型居宅介護（複合型サービス）】広島県広島市安芸区瀬野２丁目１６－１５看護小規模多機能型ふるさとサテライト", "url": "https://www.kaigokensaku.mhlw.go.jp/34/index.php?action_kouhyou_detail_004_kani=true&JigyosyoCd=3490101254-00&ServiceCd=&Type=search", "url2": "https://hatano-group.jp/pages/103/" }, "geometry": { "type": "Point", "coordinates": [ 132.593305500000014, 34.4223576 ] } },
{ "type": "Feature", "properties": { "内容": "あめんどうの花【看護小規模多機能型居宅介護（複合型サービス）】広島県広島市佐伯区八幡東二丁目30番9号", "url": "https://www.kaigokensaku.mhlw.go.jp/34/index.php?action_kouhyou_detail_004_kani=true&JigyosyoCd=3490201708-00&ServiceCd=&Type=search", "url2": "https://amendounohana.net/" }, "geometry": { "type": "Point", "coordinates": [ 132.3607838, 34.3829613 ] } },
{ "type": "Feature", "properties": { "内容": "看護小規模多機能コープ五日市【看護小規模多機能型居宅介護（複合型サービス）】広島県広島市佐伯区千同1丁目21-16あんしんセンターコープ五日市", "url": "https://www.kaigokensaku.mhlw.go.jp/34/index.php?action_kouhyou_detail_004_kani=true&JigyosyoCd=3490201732-00&ServiceCd=&Type=search", "url2": "http://www.hch.coop" }, "geometry": { "type": "Point", "coordinates": [ 132.3521529, 34.3769346 ] } },
{ "type": "Feature", "properties": { "内容": "エンパワーライフ天応　看護小規模多機能型居宅介護【看護小規模多機能型居宅介護（複合型サービス）】広島県呉市天応東久保１丁目５−２０", "url": "https://www.kaigokensaku.mhlw.go.jp/34/index.php?action_kouhyou_detail_004_kani=true&JigyosyoCd=3490500455-00&ServiceCd=&Type=search", "url2": "https://empowerlife.jp/" }, "geometry": { "type": "Point", "coordinates": [ 132.521025922090132, 34.286377400201005 ] } },
{ "type": "Feature", "properties": { "内容": "トータル・ケアサンライズ宮浦【看護小規模多機能型居宅介護（複合型サービス）】広島県三原市宮浦六丁目6番5号", "url": "https://www.kaigokensaku.mhlw.go.jp/34/index.php?action_kouhyou_detail_004_kani=true&JigyosyoCd=3490900283-00&ServiceCd=&Type=search", "url2": "http://www.snrs.or.jp" }, "geometry": { "type": "Point", "coordinates": [ 133.063133599999986, 34.3957305 ] } },
{ "type": "Feature", "properties": { "内容": "ナースケア　翼【看護小規模多機能型居宅介護（複合型サービス）】広島県三原市南方二丁目20番20号", "url": "https://www.kaigokensaku.mhlw.go.jp/34/index.php?action_kouhyou_detail_004_kani=true&JigyosyoCd=3490900366-00&ServiceCd=&Type=search", "url2": "https://tbs-kaigo.com/" }, "geometry": { "type": "Point", "coordinates": [ 132.971985600000011, 34.401172 ] } },
{ "type": "Feature", "properties": { "内容": "森のくまさん【看護小規模多機能型居宅介護（複合型サービス）】広島県尾道市高須町5683番地", "url": "https://www.kaigokensaku.mhlw.go.jp/34/index.php?action_kouhyou_detail_004_kani=true&JigyosyoCd=3491100412-00&ServiceCd=&Type=search", "url2": "https://breakthrough-co.jp/" }, "geometry": { "type": "Point", "coordinates": [ 133.232303677107211, 34.433020353433847 ] } },
{ "type": "Feature", "properties": { "内容": "因島医師会看護介護支援ホームしまかぜの丘【看護小規模多機能型居宅介護（複合型サービス）】広島県尾道市因島田熊町5116番地", "url": "https://www.kaigokensaku.mhlw.go.jp/34/index.php?action_kouhyou_detail_004_kani=true&JigyosyoCd=3491100420-00&ServiceCd=&Type=search", "url2": null }, "geometry": { "type": "Point", "coordinates": [ 133.153161876074279, 34.311818648218001 ] } },
{ "type": "Feature", "properties": { "内容": "看多機ホームみなりっこ【看護小規模多機能型居宅介護（複合型サービス）】広島県尾道市美ノ郷町三成1572-2", "url": "https://www.kaigokensaku.mhlw.go.jp/34/index.php?action_kouhyou_detail_004_kani=true&JigyosyoCd=3491100560-00&ServiceCd=&Type=search", "url2": "http://yuzucco.com" }, "geometry": { "type": "Point", "coordinates": [ 133.1989273, 34.4471939 ] } },
{ "type": "Feature", "properties": { "内容": "永和会　多機能看護介護ステーション【看護小規模多機能型居宅介護（複合型サービス）】広島県福山市柳津町98", "url": "https://www.kaigokensaku.mhlw.go.jp/34/index.php?action_kouhyou_detail_004_kani=true&JigyosyoCd=3491502039-00&ServiceCd=&Type=search", "url2": "http://www.eiwa-kai.or.jp" }, "geometry": { "type": "Point", "coordinates": [ 133.275637115737936, 34.435478580848191 ] } },
{ "type": "Feature", "properties": { "内容": "湯野看護小規模多機能ホーム愛【看護小規模多機能型居宅介護（複合型サービス）】広島県福山市神辺町湯野1018番地1湯野看護小規模多機能ホーム愛", "url": "https://www.kaigokensaku.mhlw.go.jp/34/index.php?action_kouhyou_detail_004_kani=true&JigyosyoCd=3491502419-00&ServiceCd=&Type=search", "url2": "https://kouseikai-ai.jp/" }, "geometry": { "type": "Point", "coordinates": [ 133.3893239, 34.5612501 ] } },
{ "type": "Feature", "properties": { "内容": "歓多希とまとの家【看護小規模多機能型居宅介護（複合型サービス）】広島県福山市王子町1-6-17", "url": "https://www.kaigokensaku.mhlw.go.jp/34/index.php?action_kouhyou_detail_004_kani=true&JigyosyoCd=3491502559-00&ServiceCd=&Type=search", "url2": null }, "geometry": { "type": "Point", "coordinates": [ 133.385115534987619, 34.486330178317957 ] } },
{ "type": "Feature", "properties": { "内容": "ありがとういいね【看護小規模多機能型居宅介護（複合型サービス）】福山市春日町浦上1224番地", "url": "https://www.kaigokensaku.mhlw.go.jp/34/index.php?action_kouhyou_detail_004_kani=true&JigyosyoCd=3491501205-00&ServiceCd=&Type=search", "url2": "http://www.takinouarigatou.com/" }, "geometry": { "type": "Point", "coordinates": [ 133.41076477938168, 34.516534387911342 ] } },
{ "type": "Feature", "properties": { "内容": "ローカルコモンズ・ホッとルーム【看護小規模多機能型居宅介護（複合型サービス）】広島県福山市新市町新市５６番地１ローカルコモンズウィル", "url": "https://www.kaigokensaku.mhlw.go.jp/34/index.php?action_kouhyou_detail_004_kani=true&JigyosyoCd=3491501510-00&ServiceCd=&Type=search", "url2": null }, "geometry": { "type": "Point", "coordinates": [ 133.279045699999983, 34.5503662 ] } },
{ "type": "Feature", "properties": { "内容": "看護小規模多機能ホーム桜【看護小規模多機能型居宅介護（複合型サービス）】広島県福山市神村町5234-12", "url": "https://www.kaigokensaku.mhlw.go.jp/34/index.php?action_kouhyou_detail_004_kani=true&JigyosyoCd=3491501908-00&ServiceCd=&Type=search", "url2": null }, "geometry": { "type": "Point", "coordinates": [ 133.286725499999989, 34.4620452 ] } },
{ "type": "Feature", "properties": { "内容": "看多機ほーむ桜の里【看護小規模多機能型居宅介護（複合型サービス）】広島県福山市郷分町1554", "url": "https://www.kaigokensaku.mhlw.go.jp/34/index.php?action_kouhyou_detail_004_kani=true&JigyosyoCd=3491502443-00&ServiceCd=&Type=search", "url2": "https://sakuranosato-eioukai.com/" }, "geometry": { "type": "Point", "coordinates": [ 133.3387746, 34.5149774 ] } },
{ "type": "Feature", "properties": { "内容": "さくらホーム・原の家【看護小規模多機能型居宅介護（複合型サービス）】広島県福山市鞆町鞆136番35", "url": "https://www.kaigokensaku.mhlw.go.jp/34/index.php?action_kouhyou_detail_004_kani=true&JigyosyoCd=3491502583-00&ServiceCd=&Type=search", "url2": "https://tomo-sakurahome.net/" }, "geometry": { "type": "Point", "coordinates": [ 133.381877300000014, 34.3880182 ] } },
{ "type": "Feature", "properties": { "内容": "福山医療生活協同組合看護小規模多機能しあわせ【看護小規模多機能型居宅介護（複合型サービス）】広島県福山市木之庄町3-6-10", "url": "https://www.kaigokensaku.mhlw.go.jp/34/index.php?action_kouhyou_detail_004_kani=true&JigyosyoCd=3491501577-00&ServiceCd=&Type=search", "url2": "http://www.fico-op.jp/" }, "geometry": { "type": "Point", "coordinates": [ 133.35590480674594, 34.498144633229153 ] } },
{ "type": "Feature", "properties": { "内容": "看護多機能ケアサービス　白樺【看護小規模多機能型居宅介護（複合型サービス）】広島県福山市神辺町川南3175番地1", "url": "https://www.kaigokensaku.mhlw.go.jp/34/index.php?action_kouhyou_detail_004_kani=true&JigyosyoCd=3491502146-00&ServiceCd=&Type=search", "url2": null }, "geometry": { "type": "Point", "coordinates": [ 133.3813707, 34.5398422 ] } },
{ "type": "Feature", "properties": { "内容": "看護多機能ケアサービス白ゆり新市西【看護小規模多機能型居宅介護（複合型サービス）】福山市新市町新市659-1", "url": "https://www.kaigokensaku.mhlw.go.jp/34/index.php?action_kouhyou_detail_004_kani=true&JigyosyoCd=3491502328-00&ServiceCd=&Type=search", "url2": "http://shirayuri-group.com/" }, "geometry": { "type": "Point", "coordinates": [ 133.271453, 34.5555128 ] } },
{ "type": "Feature", "properties": { "内容": "ホントノカンタキのどかⅢ【看護小規模多機能型居宅介護（複合型サービス）】福山市南蔵王町5-12-29", "url": "https://www.kaigokensaku.mhlw.go.jp/34/index.php?action_kouhyou_detail_004_kani=true&JigyosyoCd=3491502369-00&ServiceCd=&Type=search", "url2": "https://pro-aid.jp/" }, "geometry": { "type": "Point", "coordinates": [ 133.4016899, 34.5023208 ] } },
{ "type": "Feature", "properties": { "内容": "ライフパートナー古都【看護小規模多機能型居宅介護（複合型サービス）】広島県福山市神辺町大字川南294番地9", "url": "https://www.kaigokensaku.mhlw.go.jp/34/index.php?action_kouhyou_detail_004_kani=true&JigyosyoCd=3491501718-00&ServiceCd=&Type=search", "url2": null }, "geometry": { "type": "Point", "coordinates": [ 133.371352600000023, 34.5398245 ] } },
{ "type": "Feature", "properties": { "内容": "広島県福山市南蔵王町6－16－54【看護小規模多機能型居宅介護（複合型サービス）】広島県福山市南蔵王町6-16-54", "url": "https://www.kaigokensaku.mhlw.go.jp/34/index.php?action_kouhyou_detail_004_kani=true&JigyosyoCd=3491502872-00&ServiceCd=&Type=search", "url2": "https://pro-aid.jp/" }, "geometry": { "type": "Point", "coordinates": [ 133.403798162565607, 34.502196979780045 ] } },
{ "type": "Feature", "properties": { "内容": "ナーシングケアゆうゆう高木【看護小規模多機能型居宅介護（複合型サービス）】広島県府中市高木町721", "url": "https://www.kaigokensaku.mhlw.go.jp/34/index.php?action_kouhyou_detail_004_kani=true&JigyosyoCd=3491700120-00&ServiceCd=&Type=search", "url2": "http://k-yuyu.com/" }, "geometry": { "type": "Point", "coordinates": [ 133.254775569311477, 34.562391295107361 ] } },
{ "type": "Feature", "properties": { "内容": "看護小規模多機能型居宅介護　よりあい処かなう【看護小規模多機能型居宅介護（複合型サービス）】広島県三次市十日市西3丁目13-1", "url": "https://www.kaigokensaku.mhlw.go.jp/34/index.php?action_kouhyou_detail_004_kani=true&JigyosyoCd=3491900266-00&ServiceCd=&Type=search", "url2": "http://www.or-okazaki.jp/" }, "geometry": { "type": "Point", "coordinates": [ 132.8452435, 34.7977309 ] } },
{ "type": "Feature", "properties": { "内容": "看護小規模多機能型居宅介護あすなろ大竹【看護小規模多機能型居宅介護（複合型サービス）】広島県大竹市油見2丁目2‐17", "url": "https://www.kaigokensaku.mhlw.go.jp/34/index.php?action_kouhyou_detail_004_kani=true&JigyosyoCd=3492300128-00&ServiceCd=&Type=search", "url2": "https://hosei.or.jp/" }, "geometry": { "type": "Point", "coordinates": [ 132.217629100000011, 34.2204164 ] } },
{ "type": "Feature", "properties": { "内容": "看護小規模多機能型居宅介護きさか【看護小規模多機能型居宅介護（複合型サービス）】広島県東広島市西条町土与丸１２４６番地", "url": "https://www.kaigokensaku.mhlw.go.jp/34/index.php?action_kouhyou_detail_004_kani=true&JigyosyoCd=3492500339-00&ServiceCd=&Type=search", "url2": "https://kisaka-hp.or.jp/kantaki/" }, "geometry": { "type": "Point", "coordinates": [ 132.770046200000024, 34.4249972 ] } },
{ "type": "Feature", "properties": { "内容": "看護小規模多機能型居宅介護　あったかい家【看護小規模多機能型居宅介護（複合型サービス）】広島県東広島市高屋町造賀241-1", "url": "https://www.kaigokensaku.mhlw.go.jp/34/index.php?action_kouhyou_detail_004_kani=true&JigyosyoCd=3492500479-00&ServiceCd=&Type=search", "url2": "https://life-care-takasago.jp/h_hiroshima/kantaki_attaka/" }, "geometry": { "type": "Point", "coordinates": [ 132.750147, 34.476132 ] } },
{ "type": "Feature", "properties": { "内容": "看護小規模多機能型居宅介護つむぎ【看護小規模多機能型居宅介護（複合型サービス）】広島県東広島市八本松町飯田５２５－３", "url": "https://www.kaigokensaku.mhlw.go.jp/34/index.php?action_kouhyou_detail_004_kani=true&JigyosyoCd=3492500487-00&ServiceCd=&Type=search", "url2": "https://life-care-takasago.jp/h_hiroshima/kantaki_tsumugi/" }, "geometry": { "type": "Point", "coordinates": [ 132.6943499, 34.4503435 ] } },
{ "type": "Feature", "properties": { "内容": "看多機ホームみそのっこ【看護小規模多機能型居宅介護（複合型サービス）】広島県東広島市西条町御薗宇5585-1", "url": "https://www.kaigokensaku.mhlw.go.jp/34/index.php?action_kouhyou_detail_004_kani=true&JigyosyoCd=3492500412-00&ServiceCd=&Type=search", "url2": "https://yuzucco.com/" }, "geometry": { "type": "Point", "coordinates": [ 132.749141400000013, 34.4092818 ] } },
{ "type": "Feature", "properties": { "内容": "看護小規模多機能らいとす廿日市【看護小規模多機能型居宅介護（複合型サービス）】広島県廿日市市宮内４丁目１０番５号", "url": "https://www.kaigokensaku.mhlw.go.jp/34/index.php?action_kouhyou_detail_004_kani=true&JigyosyoCd=3492700319-00&ServiceCd=&Type=search", "url2": "http://rehacare-net.or.jp/" }, "geometry": { "type": "Point", "coordinates": [ 132.3130601, 34.3489298 ] } },
{ "type": "Feature", "properties": { "内容": "看護小規模多機能ホーム　森のくまさん府中【看護小規模多機能型居宅介護（複合型サービス）】広島県安芸郡府中町八幡1丁目16-15", "url": "https://www.kaigokensaku.mhlw.go.jp/34/index.php?action_kouhyou_detail_004_kani=true&JigyosyoCd=3493200244-00&ServiceCd=&Type=search", "url2": "https://breakthrough-co.jp/" }, "geometry": { "type": "Point", "coordinates": [ 132.5122206, 34.3877676 ] } }
]
}
