{
"type": "FeatureCollection",
"name": "geo_34_訪問入浴介護",
"crs": { "type": "name", "properties": { "name": "urn:ogc:def:crs:OGC:1.3:CRS84" } },
"features": [
{ "type": "Feature", "properties": { "内容": "ツクイ広島南千田【訪問入浴介護】広島県広島市中区南千田東町4-28ツクイ広島南千田", "url": "https://www.kaigokensaku.mhlw.go.jp/34/index.php?action_kouhyou_detail_004_kani=true&JigyosyoCd=3470214192-00&ServiceCd=120&Type=search", "url2": null }, "geometry": { "type": "Point", "coordinates": [ 132.4581211, 34.3739634 ] } },
{ "type": "Feature", "properties": { "内容": "悠悠タウン江波訪問入浴サービス【訪問入浴介護】広島県広島市中区江波西2丁目14-8", "url": "https://www.kaigokensaku.mhlw.go.jp/34/index.php?action_kouhyou_detail_004_kani=true&JigyosyoCd=3470201355-00&ServiceCd=120&Type=search", "url2": "https://www.city.hiroshima.med.or.jp/hma/youyou/eba/index.html" }, "geometry": { "type": "Point", "coordinates": [ 132.428835599999957, 34.3680629 ] } },
{ "type": "Feature", "properties": { "内容": "アスケア訪問入浴　広島中【訪問入浴介護】広島市中区舟入本町5-6", "url": "https://www.kaigokensaku.mhlw.go.jp/34/index.php?action_kouhyou_detail_004_kani=true&JigyosyoCd=3470210851-00&ServiceCd=120&Type=search", "url2": "https://www.as-care.co.jp/" }, "geometry": { "type": "Point", "coordinates": [ 132.444265200000018, 34.3850613 ] } },
{ "type": "Feature", "properties": { "内容": "アスケア訪問入浴　広島南【訪問入浴介護】広島市南区皆実町四丁目６番１号第５松本ビル１０１号室", "url": "https://www.kaigokensaku.mhlw.go.jp/34/index.php?action_kouhyou_detail_004_kani=true&JigyosyoCd=3470106042-00&ServiceCd=120&Type=search", "url2": "https://www.as-care.co.jp/" }, "geometry": { "type": "Point", "coordinates": [ 132.470827500000041, 34.3765863 ] } },
{ "type": "Feature", "properties": { "内容": "サンキ・ウエルビィ介護センター本店【訪問入浴介護】広島県広島市西区商工センター六丁目1番11号", "url": "https://www.kaigokensaku.mhlw.go.jp/34/index.php?action_kouhyou_detail_004_kani=true&JigyosyoCd=3470200506-00&ServiceCd=120&Type=search", "url2": null }, "geometry": { "type": "Point", "coordinates": [ 132.389657199999988, 34.3696044 ] } },
{ "type": "Feature", "properties": { "内容": "アースサポート広島【訪問入浴介護】広島県広島市西区打越町12番21号", "url": "https://www.kaigokensaku.mhlw.go.jp/34/index.php?action_kouhyou_detail_004_kani=true&JigyosyoCd=3470204490-00&ServiceCd=120&Type=search", "url2": "http://www.earthsupport.co.jp" }, "geometry": { "type": "Point", "coordinates": [ 132.44938940737913, 34.41102150194434 ] } },
{ "type": "Feature", "properties": { "内容": "サンキ・ウエルビィ介護センター祇園【訪問入浴介護】広島県広島市安佐南区山本4丁目11番24号", "url": "https://www.kaigokensaku.mhlw.go.jp/34/index.php?action_kouhyou_detail_004_kani=true&JigyosyoCd=3470207378-00&ServiceCd=120&Type=search", "url2": null }, "geometry": { "type": "Point", "coordinates": [ 132.448759900000027, 34.4374508 ] } },
{ "type": "Feature", "properties": { "内容": "アスケア訪問入浴　安佐南【訪問入浴介護】広島県広島市安佐南区古市1丁目30番10号裕紀マンション101号室", "url": "https://www.kaigokensaku.mhlw.go.jp/34/index.php?action_kouhyou_detail_004_kani=true&JigyosyoCd=3470205612-00&ServiceCd=120&Type=search", "url2": "https://www.as-care.co.jp/" }, "geometry": { "type": "Point", "coordinates": [ 132.470348, 34.4511082 ] } },
{ "type": "Feature", "properties": { "内容": "アースサポート広島安佐【訪問入浴介護】広島県広島市安佐北区可部3丁目37番32号", "url": "https://www.kaigokensaku.mhlw.go.jp/34/index.php?action_kouhyou_detail_004_kani=true&JigyosyoCd=3470106984-00&ServiceCd=120&Type=search", "url2": "http://www.earthsupport.co.jp" }, "geometry": { "type": "Point", "coordinates": [ 132.511191300000064, 34.5184652 ] } },
{ "type": "Feature", "properties": { "内容": "ニチイケアセンター広　訪問入浴介護事業所【訪問入浴介護】呉市広古新開1丁目9番18号西原ビル101", "url": "https://www.kaigokensaku.mhlw.go.jp/34/index.php?action_kouhyou_detail_004_kani=true&JigyosyoCd=3470501234-00&ServiceCd=120&Type=search", "url2": "http://www.nichiigakkan.co.jp" }, "geometry": { "type": "Point", "coordinates": [ 132.617583, 34.2357835 ] } },
{ "type": "Feature", "properties": { "内容": "アースサポート呉【訪問入浴介護】広島県呉市広文化町5番8号", "url": "https://www.kaigokensaku.mhlw.go.jp/34/index.php?action_kouhyou_detail_004_kani=true&JigyosyoCd=3470502646-00&ServiceCd=120&Type=search", "url2": "http://www.earthsupport.co.jp" }, "geometry": { "type": "Point", "coordinates": [ 132.612201199999959, 34.2340903 ] } },
{ "type": "Feature", "properties": { "内容": "福祉のエール訪問入浴介護事業所【訪問入浴介護】広島県呉市広文化町1番34号", "url": "https://www.kaigokensaku.mhlw.go.jp/34/index.php?action_kouhyou_detail_004_kani=true&JigyosyoCd=3470501549-00&ServiceCd=120&Type=search", "url2": null }, "geometry": { "type": "Point", "coordinates": [ 132.610770699999989, 34.233698600000039 ] } },
{ "type": "Feature", "properties": { "内容": "aqua訪問入浴介護事業所【訪問入浴介護】広島県呉市本通7丁目2番13サンライズ本通105号", "url": "https://www.kaigokensaku.mhlw.go.jp/34/index.php?action_kouhyou_detail_004_kani=true&JigyosyoCd=3470503297-00&ServiceCd=120&Type=search", "url2": null }, "geometry": { "type": "Point", "coordinates": [ 132.574951199999987, 34.2508481 ] } },
{ "type": "Feature", "properties": { "内容": "ケアフルサービス訪問入浴介護事業所【訪問入浴介護】広島県呉市広中新開1丁目1番12号", "url": "https://www.kaigokensaku.mhlw.go.jp/34/index.php?action_kouhyou_detail_004_kani=true&JigyosyoCd=3470503990-00&ServiceCd=120&Type=search", "url2": null }, "geometry": { "type": "Point", "coordinates": [ 132.6254539, 34.2383967 ] } },
{ "type": "Feature", "properties": { "内容": "アスケア訪問入浴　三原【訪問入浴介護】広島県三原市館町１丁目１１－３館町ガーデンＨＩＴＳ１０３", "url": "https://www.kaigokensaku.mhlw.go.jp/34/index.php?action_kouhyou_detail_004_kani=true&JigyosyoCd=3470901269-00&ServiceCd=120&Type=search", "url2": "https://www.as-care.co.jp/" }, "geometry": { "type": "Point", "coordinates": [ 133.0864987, 34.4014994 ] } },
{ "type": "Feature", "properties": { "内容": "尾道市社会福祉協議会訪問入浴介護事業所【訪問入浴介護】尾道市門田町２２番５号", "url": "https://www.kaigokensaku.mhlw.go.jp/34/index.php?action_kouhyou_detail_004_kani=true&JigyosyoCd=3471100424-00&ServiceCd=120&Type=search", "url2": "https://onomichi-shakyo.jp/" }, "geometry": { "type": "Point", "coordinates": [ 133.1853645, 34.4211879 ] } },
{ "type": "Feature", "properties": { "内容": "アスケア訪問入浴　尾道【訪問入浴介護】広島県尾道市栗原町9650-62", "url": "https://www.kaigokensaku.mhlw.go.jp/34/index.php?action_kouhyou_detail_004_kani=true&JigyosyoCd=3471101141-00&ServiceCd=120&Type=search", "url2": "https://www.as-care.co.jp/" }, "geometry": { "type": "Point", "coordinates": [ 133.191140438731424, 34.434439587848985 ] } },
{ "type": "Feature", "properties": { "内容": "アスケア訪問入浴　福山【訪問入浴介護】広島県福山市本庄町中2丁目11番8号", "url": "https://www.kaigokensaku.mhlw.go.jp/34/index.php?action_kouhyou_detail_004_kani=true&JigyosyoCd=3471500482-00&ServiceCd=120&Type=search", "url2": "https://www.as-care.co.jp/" }, "geometry": { "type": "Point", "coordinates": [ 133.34737177535203, 34.488634869954005 ] } },
{ "type": "Feature", "properties": { "内容": "ツクイ福山引野【訪問入浴介護】広島県福山市引野町2‐24‐16", "url": "https://www.kaigokensaku.mhlw.go.jp/34/index.php?action_kouhyou_detail_004_kani=true&JigyosyoCd=3471509509-00&ServiceCd=120&Type=search", "url2": "https://www.tsukui.net" }, "geometry": { "type": "Point", "coordinates": [ 133.414817199999987, 34.4986697 ] } },
{ "type": "Feature", "properties": { "内容": "アースサポート福山三吉【訪問入浴介護】広島県福山市西深津町4丁目5番20号", "url": "https://www.kaigokensaku.mhlw.go.jp/34/index.php?action_kouhyou_detail_004_kani=true&JigyosyoCd=3471506612-00&ServiceCd=120&Type=search", "url2": "http://www.earthsupport.co.jp" }, "geometry": { "type": "Point", "coordinates": [ 133.381109298164944, 34.49725592546045 ] } },
{ "type": "Feature", "properties": { "内容": "府中市社協上下居宅サービス事業所【訪問入浴介護】府中市上下町上下869-5", "url": "https://www.kaigokensaku.mhlw.go.jp/34/index.php?action_kouhyou_detail_004_kani=true&JigyosyoCd=3474700071-00&ServiceCd=120&Type=search", "url2": null }, "geometry": { "type": "Point", "coordinates": [ 133.1160109, 34.6954095 ] } },
{ "type": "Feature", "properties": { "内容": "訪問入浴介護事業所　相扶園【訪問入浴介護】庄原市尾引町２６３番地２", "url": "https://www.kaigokensaku.mhlw.go.jp/34/index.php?action_kouhyou_detail_004_kani=true&JigyosyoCd=3472100118-00&ServiceCd=120&Type=search", "url2": "http://www.soufuen.or.jp" }, "geometry": { "type": "Point", "coordinates": [ 132.936367799999971, 34.8159126 ] } },
{ "type": "Feature", "properties": { "内容": "長寿苑指定訪問入浴介護事業所【訪問入浴介護】東広島市西条町馬木1660番地2", "url": "https://www.kaigokensaku.mhlw.go.jp/34/index.php?action_kouhyou_detail_004_kani=true&JigyosyoCd=3472500333-00&ServiceCd=120&Type=search", "url2": "https://chojuen.jp" }, "geometry": { "type": "Point", "coordinates": [ 132.72078350000001, 34.3606828 ] } },
{ "type": "Feature", "properties": { "内容": "アスケア訪問入浴　東広島【訪問入浴介護】広島県東広島市西条町西条５１６番３プレアール西条駅前　１Ａ", "url": "https://www.kaigokensaku.mhlw.go.jp/34/index.php?action_kouhyou_detail_004_kani=true&JigyosyoCd=3472502065-00&ServiceCd=120&Type=search", "url2": "https://www.as-care.co.jp/" }, "geometry": { "type": "Point", "coordinates": [ 132.744992499999967, 34.4370654 ] } },
{ "type": "Feature", "properties": { "内容": "アスケア訪問入浴　廿日市【訪問入浴介護】広島県廿日市市城内3丁目18-17", "url": "https://www.kaigokensaku.mhlw.go.jp/34/index.php?action_kouhyou_detail_004_kani=true&JigyosyoCd=3472700636-00&ServiceCd=120&Type=search", "url2": "https://www.as-care.co.jp/" }, "geometry": { "type": "Point", "coordinates": [ 132.333290045265784, 34.358405565225361 ] } },
{ "type": "Feature", "properties": { "内容": "株式会社広島福祉サービス訪問入浴介護事業部【訪問入浴介護】広島県安芸郡海田町大正町2-22", "url": "https://www.kaigokensaku.mhlw.go.jp/34/index.php?action_kouhyou_detail_004_kani=true&JigyosyoCd=3473200123-00&ServiceCd=120&Type=search", "url2": "https://h-fukushi.net" }, "geometry": { "type": "Point", "coordinates": [ 132.532283399999983, 34.3697508 ] } },
{ "type": "Feature", "properties": { "内容": "訪問入浴ミーテ【訪問入浴介護】広島県安芸郡熊野町貴船8番9号", "url": "https://www.kaigokensaku.mhlw.go.jp/34/index.php?action_kouhyou_detail_004_kani=true&JigyosyoCd=3473101107-00&ServiceCd=120&Type=search", "url2": "https://miitecare.wixsite.com/my-site-1" }, "geometry": { "type": "Point", "coordinates": [ 132.5673832, 34.330876 ] } },
{ "type": "Feature", "properties": { "内容": "世羅町社会福祉協議会　訪問入浴介護事業所【訪問入浴介護】広島県世羅郡世羅町本郷939-1", "url": "https://www.kaigokensaku.mhlw.go.jp/34/index.php?action_kouhyou_detail_004_kani=true&JigyosyoCd=3474200197-00&ServiceCd=120&Type=search", "url2": "https://serashakyo.jp/" }, "geometry": { "type": "Point", "coordinates": [ 133.044326444197054, 34.585937535613297 ] } }
]
}
