{
"type": "FeatureCollection",
"name": "geo_34_特定施設入居者生活介護（有料老人ホーム（サービス付き高齢者向け住宅））",
"crs": { "type": "name", "properties": { "name": "urn:ogc:def:crs:OGC:1.3:CRS84" } },
"features": [
{ "type": "Feature", "properties": { "内容": "介護付有料老人ホーム　ヘルスケアホーム井口【特定施設入居者生活介護（有料老人ホーム（サービス付き高齢者向け住宅））】広島県広島市西区井口5丁目４－１５ヘルスケアホーム井口", "url": "https://www.kaigokensaku.mhlw.go.jp/34/index.php?action_kouhyou_detail_004_kani=true&JigyosyoCd=3470212683-00&ServiceCd=&Type=search", "url2": "http://www.higashinokai.jp/" }, "geometry": { "type": "Point", "coordinates": [ 132.378069099999948, 34.3680487 ] } },
{ "type": "Feature", "properties": { "内容": "介護付き有料老人ホーム　湯楽苑【特定施設入居者生活介護（有料老人ホーム（サービス付き高齢者向け住宅））】広島県広島市安佐北区安佐町飯室1563番地3", "url": "https://www.kaigokensaku.mhlw.go.jp/34/index.php?action_kouhyou_detail_004_kani=true&JigyosyoCd=3470109061-00&ServiceCd=&Type=search", "url2": "http://www.ykbs-group.jp/" }, "geometry": { "type": "Point", "coordinates": [ 132.445910499999968, 34.5508798 ] } },
{ "type": "Feature", "properties": { "内容": "特定施設入居者生活介護ふたばハイツ【特定施設入居者生活介護（有料老人ホーム（サービス付き高齢者向け住宅））】呉市広白石四丁目１番１１号高齢者複合福祉施設　ふたばの街", "url": "https://www.kaigokensaku.mhlw.go.jp/34/index.php?action_kouhyou_detail_004_kani=true&JigyosyoCd=3470502711-00&ServiceCd=&Type=search", "url2": "http://www.wakokai.jp" }, "geometry": { "type": "Point", "coordinates": [ 132.639718600000037, 34.2256363 ] } },
{ "type": "Feature", "properties": { "内容": "特定施設入居者生活介護　ふたばハイツⅡ【特定施設入居者生活介護（有料老人ホーム（サービス付き高齢者向け住宅））】呉市広白石4丁目10番6号サービス付き高齢者向け住宅　ふたばハイツⅡ", "url": "https://www.kaigokensaku.mhlw.go.jp/34/index.php?action_kouhyou_detail_004_kani=true&JigyosyoCd=3470503321-00&ServiceCd=&Type=search", "url2": "https://wakokai.jp/" }, "geometry": { "type": "Point", "coordinates": [ 132.642140599999948, 34.225653 ] } },
{ "type": "Feature", "properties": { "内容": "特定施設入居者生活介護　きららラポール西御所【特定施設入居者生活介護（有料老人ホーム（サービス付き高齢者向け住宅））】広島県尾道市西御所町13番30号", "url": "https://www.kaigokensaku.mhlw.go.jp/34/index.php?action_kouhyou_detail_004_kani=true&JigyosyoCd=3471102073-00&ServiceCd=&Type=search", "url2": "https://www.kiraragroup.jp/" }, "geometry": { "type": "Point", "coordinates": [ 133.188373849073827, 34.402743377874678 ] } },
{ "type": "Feature", "properties": { "内容": "サービス付き高齢者向け住宅　ロイヤルケア港町【特定施設入居者生活介護（有料老人ホーム（サービス付き高齢者向け住宅））】広島県福山市港町一丁目7番6号", "url": "https://www.kaigokensaku.mhlw.go.jp/34/index.php?action_kouhyou_detail_004_kani=true&JigyosyoCd=3471507651-00&ServiceCd=&Type=search", "url2": "http://www.kbk-group.or.jp/" }, "geometry": { "type": "Point", "coordinates": [ 133.381359369311525, 34.485494252091257 ] } },
{ "type": "Feature", "properties": { "内容": "まり介護付高齢者住宅山南【特定施設入居者生活介護（有料老人ホーム（サービス付き高齢者向け住宅））】広島県福山市沼隈町大字中山南１３８７番地", "url": "https://www.kaigokensaku.mhlw.go.jp/34/index.php?action_kouhyou_detail_004_kani=true&JigyosyoCd=3471507511-00&ServiceCd=&Type=search", "url2": "http://shounankai.or.jp/" }, "geometry": { "type": "Point", "coordinates": [ 133.321910399462467, 34.417752272247377 ] } },
{ "type": "Feature", "properties": { "内容": "特定施設ガーデンハイツ秀【特定施設入居者生活介護（有料老人ホーム（サービス付き高齢者向け住宅））】広島県福山市加茂町字中野314-3", "url": "https://www.kaigokensaku.mhlw.go.jp/34/index.php?action_kouhyou_detail_004_kani=true&JigyosyoCd=3471509277-00&ServiceCd=&Type=search", "url2": null }, "geometry": { "type": "Point", "coordinates": [ 133.345228, 34.5705656 ] } },
{ "type": "Feature", "properties": { "内容": "サービス付き高齢者向け住宅峰の里幸楽園【特定施設入居者生活介護（有料老人ホーム（サービス付き高齢者向け住宅））】広島県福山市蔵王町7159番地14", "url": "https://www.kaigokensaku.mhlw.go.jp/34/index.php?action_kouhyou_detail_004_kani=true&JigyosyoCd=3471507107-00&ServiceCd=&Type=search", "url2": "http://kourakuen.or.jp" }, "geometry": { "type": "Point", "coordinates": [ 133.406088519959638, 34.520558808515915 ] } },
{ "type": "Feature", "properties": { "内容": "サービス付き高齢者向け住宅　ロイヤルケア川口【特定施設入居者生活介護（有料老人ホーム（サービス付き高齢者向け住宅））】広島県福山市川口町５丁目１３番１号", "url": "https://www.kaigokensaku.mhlw.go.jp/34/index.php?action_kouhyou_detail_004_kani=true&JigyosyoCd=3471507826-00&ServiceCd=&Type=search", "url2": "https://www.kbk-group.or.jp/royalcare-kawaguchi/" }, "geometry": { "type": "Point", "coordinates": [ 133.380840022615075, 34.463196122783998 ] } },
{ "type": "Feature", "properties": { "内容": "指定特定施設老人ホーム　瀬戸の家【特定施設入居者生活介護（有料老人ホーム（サービス付き高齢者向け住宅））】広島県福山市瀬戸町山北411-3", "url": "https://www.kaigokensaku.mhlw.go.jp/34/index.php?action_kouhyou_detail_004_kani=true&JigyosyoCd=3471507388-00&ServiceCd=&Type=search", "url2": "http://www.furusato-seto.jp/" }, "geometry": { "type": "Point", "coordinates": [ 133.315538630688479, 34.473593485844688 ] } },
{ "type": "Feature", "properties": { "内容": "湯の里倶楽部　福寿【特定施設入居者生活介護（有料老人ホーム（サービス付き高齢者向け住宅））】広島県福山市神辺町大字新湯野２８番地１湯の里倶楽部　福寿", "url": "https://www.kaigokensaku.mhlw.go.jp/34/index.php?action_kouhyou_detail_004_kani=true&JigyosyoCd=3471509269-00&ServiceCd=&Type=search", "url2": "http://www7b.biglobe.ne.jp/~smcnext/fukuju/index.html" }, "geometry": { "type": "Point", "coordinates": [ 133.388515869243832, 34.558888896673345 ] } },
{ "type": "Feature", "properties": { "内容": "ガーデンハイツ湯野【特定施設入居者生活介護（有料老人ホーム（サービス付き高齢者向け住宅））】広島県福山市神辺町湯野1004番地2", "url": "https://www.kaigokensaku.mhlw.go.jp/34/index.php?action_kouhyou_detail_004_kani=true&JigyosyoCd=3471510747-00&ServiceCd=&Type=search", "url2": "https://kouseikai-ai.jp/" }, "geometry": { "type": "Point", "coordinates": [ 133.389375199999989, 34.5618119 ] } },
{ "type": "Feature", "properties": { "内容": "サービス付き高齢者向け住宅　迦葉【特定施設入居者生活介護（有料老人ホーム（サービス付き高齢者向け住宅））】三次市十日市東四丁目３番１０号", "url": "https://www.kaigokensaku.mhlw.go.jp/34/index.php?action_kouhyou_detail_004_kani=true&JigyosyoCd=3471900823-00&ServiceCd=&Type=search", "url2": "http://mifukai.jp/" }, "geometry": { "type": "Point", "coordinates": [ 132.861750900000061, 34.8045935 ] } },
{ "type": "Feature", "properties": { "内容": "サービス付き高齢者向け住宅　第二迦葉【特定施設入居者生活介護（有料老人ホーム（サービス付き高齢者向け住宅））】広島県三次市十日市東四丁目2番1号サービス付き高齢者向け住宅　第二迦葉", "url": "https://www.kaigokensaku.mhlw.go.jp/34/index.php?action_kouhyou_detail_004_kani=true&JigyosyoCd=3471901185-00&ServiceCd=&Type=search", "url2": "http://mifukai.jp/" }, "geometry": { "type": "Point", "coordinates": [ 132.861545500000034, 34.8046587 ] } },
{ "type": "Feature", "properties": { "内容": "コリーナ小方【特定施設入居者生活介護（有料老人ホーム（サービス付き高齢者向け住宅））】広島県大竹市小方ケ丘6番27号", "url": "https://www.kaigokensaku.mhlw.go.jp/34/index.php?action_kouhyou_detail_004_kani=true&JigyosyoCd=3472300452-00&ServiceCd=&Type=search", "url2": "https://collinaogata.com/" }, "geometry": { "type": "Point", "coordinates": [ 132.213079, 34.239949 ] } },
{ "type": "Feature", "properties": { "内容": "えにしの里【特定施設入居者生活介護（有料老人ホーム（サービス付き高齢者向け住宅））】広島県東広島市西条町寺家7432番地の1えにしの里", "url": "https://www.kaigokensaku.mhlw.go.jp/34/index.php?action_kouhyou_detail_004_kani=true&JigyosyoCd=3472502610-00&ServiceCd=&Type=search", "url2": "http://koenkai-gr.jp/" }, "geometry": { "type": "Point", "coordinates": [ 132.728634622090141, 34.422923830059077 ] } },
{ "type": "Feature", "properties": { "内容": "シニアマンション造賀【特定施設入居者生活介護（有料老人ホーム（サービス付き高齢者向け住宅））】広島県東広島市高屋町造賀734番地1", "url": "https://www.kaigokensaku.mhlw.go.jp/34/index.php?action_kouhyou_detail_004_kani=true&JigyosyoCd=3472502560-00&ServiceCd=&Type=search", "url2": "http://www.zoukanosato.net/" }, "geometry": { "type": "Point", "coordinates": [ 132.760364500000037, 34.4832671 ] } },
{ "type": "Feature", "properties": { "内容": "介護付有料老人ホーム　コミューン柏葉【特定施設入居者生活介護（有料老人ホーム（サービス付き高齢者向け住宅））】広島県東広島市西条昭和町12番57号介護付有料老人ホーム　コミューン柏葉", "url": "https://www.kaigokensaku.mhlw.go.jp/34/index.php?action_kouhyou_detail_004_kani=true&JigyosyoCd=3472502651-00&ServiceCd=&Type=search", "url2": "http://ww35.tiki.ne.jp/~dentac/estate.html" }, "geometry": { "type": "Point", "coordinates": [ 132.742280852114845, 34.424674474845446 ] } },
{ "type": "Feature", "properties": { "内容": "やすらぎの里【特定施設入居者生活介護（有料老人ホーム（サービス付き高齢者向け住宅））】広島県東広島市黒瀬町兼広160-1", "url": "https://www.kaigokensaku.mhlw.go.jp/34/index.php?action_kouhyou_detail_004_kani=true&JigyosyoCd=3472503147-00&ServiceCd=&Type=search", "url2": null }, "geometry": { "type": "Point", "coordinates": [ 132.6625228, 34.3223763 ] } },
{ "type": "Feature", "properties": { "内容": "ヴィラひまわり【特定施設入居者生活介護（有料老人ホーム（サービス付き高齢者向け住宅））】広島県廿日市市宮内字佐原田4211番地1", "url": "https://www.kaigokensaku.mhlw.go.jp/34/index.php?action_kouhyou_detail_004_kani=true&JigyosyoCd=3472701774-00&ServiceCd=&Type=search", "url2": "http://www.miyauchi.or.jp/index.html" }, "geometry": { "type": "Point", "coordinates": [ 132.298898799999989, 34.3397388 ] } },
{ "type": "Feature", "properties": { "内容": "ココファン廿日市【特定施設入居者生活介護（有料老人ホーム（サービス付き高齢者向け住宅））】広島県廿日市市地御前1丁目3番28号", "url": "https://www.kaigokensaku.mhlw.go.jp/34/index.php?action_kouhyou_detail_004_kani=true&JigyosyoCd=3472701881-00&ServiceCd=&Type=search", "url2": "https://www.cocofump.co.jp/" }, "geometry": { "type": "Point", "coordinates": [ 132.3227938, 34.3436959 ] } },
{ "type": "Feature", "properties": { "内容": "介護付有料老人ホーム隣ご縁熊野【特定施設入居者生活介護（有料老人ホーム（サービス付き高齢者向け住宅））】広島県安芸郡熊野町川角3-1-46", "url": "https://www.kaigokensaku.mhlw.go.jp/34/index.php?action_kouhyou_detail_004_kani=true&JigyosyoCd=3473101024-00&ServiceCd=&Type=search", "url2": "https://www.ckksp.co.jp/facilities/care_ringoen-kumano/#contentsmain" }, "geometry": { "type": "Point", "coordinates": [ 132.575793964942932, 34.327207979599748 ] } }
]
}
